{"features":[{"geometry":{"coordinates":[[[76.995,10.39],[77.0,10.39],[77.0,10.395000000000001],[76.995,10.395000000000001],[76.995,10.39]]],"type":"Polygon"},"id":"road-2078-15399","properties":{"habitat_codes":{"ff":29,"tf":24},"historical_risk_score":3.5707768343682673,"label":"Waverly","rank":1,"routes":["Waverly"],"selected_for_budget":true,"taxon_group":"mammalia","top_20_percent":true,"training_events":11,"training_exposure":1.5497076023391814,"validation_events":0,"validation_exposure":1.239766081871345},"type":"Feature"},{"geometry":{"coordinates":[[[76.925,10.355],[76.92999999999999,10.355],[76.92999999999999,10.360000000000001],[76.925,10.360000000000001],[76.925,10.355]]],"type":"Polygon"},"id":"road-2071-15385","properties":{"habitat_codes":{"ff":1,"tt":4},"historical_risk_score":2.678325069295724,"label":"Old Valparai / Sholayar","rank":2,"routes":["Old Valparai","Sholayar"],"selected_for_budget":true,"taxon_group":"mammalia","top_20_percent":true,"training_events":4,"training_exposure":0.11894132653061223,"validation_events":1,"validation_exposure":0.0951530612244898},"type":"Feature"},{"geometry":{"coordinates":[[[76.99,10.39],[76.99499999999999,10.39],[76.99499999999999,10.395000000000001],[76.99,10.395000000000001],[76.99,10.39]]],"type":"Polygon"},"id":"road-2078-15398","properties":{"habitat_codes":{"ff":31},"historical_risk_score":2.296703296703297,"label":"Waverly","rank":3,"routes":["Waverly"],"selected_for_budget":true,"taxon_group":"mammalia","top_20_percent":true,"training_events":5,"training_exposure":0.9064327485380117,"validation_events":2,"validation_exposure":0.7251461988304093},"type":"Feature"},{"geometry":{"coordinates":[[[76.99,10.365],[76.99499999999999,10.365],[76.99499999999999,10.370000000000001],[76.99,10.370000000000001],[76.99,10.365]]],"type":"Polygon"},"id":"road-2073-15398","properties":{"habitat_codes":{"ff":43,"tf":5},"historical_risk_score":2.1952051160737946,"label":"Balaji Temple / Waverly","rank":4,"routes":["Balaji Temple","Waverly"],"selected_for_budget":true,"taxon_group":"mammalia","top_20_percent":true,"training_events":6,"training_exposure":1.496353766221663,"validation_events":4,"validation_exposure":1.1452901842920715},"type":"Feature"},{"geometry":{"coordinates":[[[76.99,10.370000000000001],[76.99499999999999,10.370000000000001],[76.99499999999999,10.375000000000002],[76.99,10.375000000000002],[76.99,10.370000000000001]]],"type":"Polygon"},"id":"road-2074-15398","properties":{"habitat_codes":{"ff":53},"historical_risk_score":2.162210112786719,"label":"Waverly","rank":5,"routes":["Waverly"],"selected_for_budget":true,"taxon_group":"mammalia","top_20_percent":true,"training_events":6,"training_exposure":1.5497076023391814,"validation_events":1,"validation_exposure":1.239766081871345},"type":"Feature"},{"geometry":{"coordinates":[[[76.995,10.355],[77.0,10.355],[77.0,10.360000000000001],[76.995,10.360000000000001],[76.995,10.355]]],"type":"Polygon"},"id":"road-2071-15399","properties":{"habitat_codes":{"tf":24},"historical_risk_score":1.4854159904792819,"label":"Balaji Temple","rank":6,"routes":["Balaji Temple"],"selected_for_budget":true,"taxon_group":"mammalia","top_20_percent":true,"training_events":3,"training_exposure":1.1474103585657371,"validation_events":0,"validation_exposure":0.6693227091633466},"type":"Feature"},{"geometry":{"coordinates":[[[76.995,10.385],[77.0,10.385],[77.0,10.39],[76.995,10.39],[76.995,10.385]]],"type":"Polygon"},"id":"road-2077-15399","properties":{"habitat_codes":{"ff":9,"tt":8},"historical_risk_score":1.4718068816429473,"label":"Waverly","rank":7,"routes":["Waverly"],"selected_for_budget":false,"taxon_group":"mammalia","top_20_percent":true,"training_events":2,"training_exposure":0.49707602339181284,"validation_events":0,"validation_exposure":0.39766081871345027},"type":"Feature"},{"geometry":{"coordinates":[[[76.895,10.335],[76.89999999999999,10.335],[76.89999999999999,10.340000000000002],[76.895,10.340000000000002],[76.895,10.335]]],"type":"Polygon"},"id":"road-2067-15379","properties":{"habitat_codes":{"tt":27},"historical_risk_score":1.4541803722638345,"label":"Sholayar","rank":8,"routes":["Sholayar"],"selected_for_budget":false,"taxon_group":"mammalia","top_20_percent":true,"training_events":2,"training_exposure":0.52734375,"validation_events":0,"validation_exposure":0.421875},"type":"Feature"},{"geometry":{"coordinates":[[[76.935,10.35],[76.94,10.35],[76.94,10.355],[76.935,10.355],[76.935,10.35]]],"type":"Polygon"},"id":"road-2070-15387","properties":{"habitat_codes":{"cc":17,"cf":21,"ff":25,"vc":7,"vt":5},"historical_risk_score":1.3188930245381858,"label":"Old Valparai","rank":9,"routes":["Old Valparai"],"selected_for_budget":false,"taxon_group":"mammalia","top_20_percent":true,"training_events":5,"training_exposure":3.061224489795918,"validation_events":4,"validation_exposure":2.4489795918367347},"type":"Feature"},{"geometry":{"coordinates":[[[76.96000000000001,10.335],[76.965,10.335],[76.965,10.340000000000002],[76.96000000000001,10.340000000000002],[76.96000000000001,10.335]]],"type":"Polygon"},"id":"road-2067-15392","properties":{"habitat_codes":{"ff":12,"tf":15},"historical_risk_score":1.2981941637273942,"label":"Puthuthotam","rank":10,"routes":["Puthuthotam"],"selected_for_budget":false,"taxon_group":"mammalia","top_20_percent":true,"training_events":4,"training_exposure":2.3716216216216215,"validation_events":1,"validation_exposure":1.4594594594594594},"type":"Feature"},{"geometry":{"coordinates":[[[76.985,10.43],[76.99,10.43],[76.99,10.435],[76.985,10.435],[76.985,10.43]]],"type":"Polygon"},"id":"road-2086-15397","properties":{"habitat_codes":{"ff":89},"historical_risk_score":1.2935085623257665,"label":"Waterfalls","rank":11,"routes":["Waterfalls"],"selected_for_budget":false,"taxon_group":"mammalia","top_20_percent":true,"training_events":7,"training_exposure":4.706730769230769,"validation_events":6,"validation_exposure":3.423076923076923},"type":"Feature"},{"geometry":{"coordinates":[[[76.93,10.335],[76.935,10.335],[76.935,10.340000000000002],[76.93,10.340000000000002],[76.93,10.335]]],"type":"Polygon"},"id":"road-2067-15386","properties":{"habitat_codes":{"ff":6,"tt":10,"vt":6},"historical_risk_score":1.2682075358131697,"label":"Old Valparai","rank":12,"routes":["Old Valparai"],"selected_for_budget":false,"taxon_group":"mammalia","top_20_percent":true,"training_events":2,"training_exposure":0.8979591836734694,"validation_events":1,"validation_exposure":0.7183673469387755},"type":"Feature"},{"geometry":{"coordinates":[[[76.97500000000001,10.450000000000001],[76.98,10.450000000000001],[76.98,10.455000000000002],[76.97500000000001,10.455000000000002],[76.97500000000001,10.450000000000001]]],"type":"Polygon"},"id":"road-2090-15395","properties":{"habitat_codes":{"ff":81},"historical_risk_score":1.1997384573757102,"label":"Attakatti - 1 hpb / Azhiyar","rank":13,"routes":["Attakatti - 1 hpb","Azhiyar"],"selected_for_budget":false,"taxon_group":"mammalia","top_20_percent":true,"training_events":5,"training_exposure":3.5638907248292577,"validation_events":2,"validation_exposure":2.695307336417713},"type":"Feature"},{"geometry":{"coordinates":[[[76.94500000000001,10.285],[76.95,10.285],[76.95,10.290000000000001],[76.94500000000001,10.290000000000001],[76.94500000000001,10.285]]],"type":"Polygon"},"id":"road-2057-15389","properties":{"habitat_codes":{"tt":8},"historical_risk_score":1.1947556219400879,"label":"Nallamudi","rank":14,"routes":["Nallamudi"],"selected_for_budget":false,"taxon_group":"mammalia","top_20_percent":true,"training_events":1,"training_exposure":0.2391304347826087,"validation_events":2,"validation_exposure":0.17391304347826086},"type":"Feature"},{"geometry":{"coordinates":[[[76.995,10.375],[77.0,10.375],[77.0,10.38],[76.995,10.38],[76.995,10.375]]],"type":"Polygon"},"id":"road-2075-15399","properties":{"habitat_codes":{"ff":6,"tt":31},"historical_risk_score":1.1925266384469422,"label":"Waverly","rank":15,"routes":["Waverly"],"selected_for_budget":false,"taxon_group":"mammalia","top_20_percent":true,"training_events":2,"training_exposure":1.0818713450292399,"validation_events":0,"validation_exposure":0.8654970760233918},"type":"Feature"},{"geometry":{"coordinates":[[[76.99,10.4],[76.99499999999999,10.4],[76.99499999999999,10.405000000000001],[76.99,10.405000000000001],[76.99,10.4]]],"type":"Polygon"},"id":"road-2080-15398","properties":{"habitat_codes":{"ff":9,"ft":1},"historical_risk_score":1.1669937205651493,"label":"Waverly","rank":16,"routes":["Waverly"],"selected_for_budget":false,"taxon_group":"mammalia","top_20_percent":true,"training_events":1,"training_exposure":0.29239766081871343,"validation_events":0,"validation_exposure":0.23391812865497075},"type":"Feature"},{"geometry":{"coordinates":[[[76.97500000000001,10.27],[76.98,10.27],[76.98,10.275],[76.97500000000001,10.275],[76.97500000000001,10.27]]],"type":"Polygon"},"id":"road-2054-15395","properties":{"habitat_codes":{"ff":10,"ft":24,"tt":14},"historical_risk_score":1.1625675911390199,"label":"Neerar Dam","rank":17,"routes":["Neerar Dam"],"selected_for_budget":false,"taxon_group":"mammalia","top_20_percent":true,"training_events":2,"training_exposure":1.1612903225806452,"validation_events":0,"validation_exposure":1.032258064516129},"type":"Feature"},{"geometry":{"coordinates":[[[76.985,10.425],[76.99,10.425],[76.99,10.430000000000001],[76.985,10.430000000000001],[76.985,10.425]]],"type":"Polygon"},"id":"road-2085-15397","properties":{"habitat_codes":{"ff":17,"tf":6},"historical_risk_score":1.1426673310081383,"label":"Waterfalls","rank":18,"routes":["Waterfalls"],"selected_for_budget":false,"taxon_group":"mammalia","top_20_percent":true,"training_events":2,"training_exposure":1.2163461538461537,"validation_events":2,"validation_exposure":0.8846153846153846},"type":"Feature"},{"geometry":{"coordinates":[[[76.995,10.38],[77.0,10.38],[77.0,10.385000000000002],[76.995,10.385000000000002],[76.995,10.38]]],"type":"Polygon"},"id":"road-2076-15399","properties":{"habitat_codes":{"ff":7,"tt":35},"historical_risk_score":1.1385172798216276,"label":"Waverly","rank":19,"routes":["Waverly"],"selected_for_budget":false,"taxon_group":"mammalia","top_20_percent":true,"training_events":2,"training_exposure":1.2280701754385965,"validation_events":1,"validation_exposure":0.9824561403508771},"type":"Feature"},{"geometry":{"coordinates":[[[76.965,10.34],[76.97,10.34],[76.97,10.345],[76.965,10.345],[76.965,10.34]]],"type":"Polygon"},"id":"road-2068-15393","properties":{"habitat_codes":{"ff":34},"historical_risk_score":1.1381187316146668,"label":"Puthuthotam","rank":20,"routes":["Puthuthotam"],"selected_for_budget":false,"taxon_group":"mammalia","top_20_percent":true,"training_events":4,"training_exposure":2.9864864864864864,"validation_events":1,"validation_exposure":1.837837837837838},"type":"Feature"},{"geometry":{"coordinates":[[[76.895,10.33],[76.89999999999999,10.33],[76.89999999999999,10.335],[76.895,10.335],[76.895,10.33]]],"type":"Polygon"},"id":"road-2066-15379","properties":{"habitat_codes":{"tt":18},"historical_risk_score":1.137632393446347,"label":"Sholayar","rank":21,"routes":["Sholayar"],"selected_for_budget":false,"taxon_group":"mammalia","top_20_percent":true,"training_events":1,"training_exposure":0.3515625,"validation_events":0,"validation_exposure":0.28125},"type":"Feature"},{"geometry":{"coordinates":[[[76.935,10.28],[76.94,10.28],[76.94,10.285],[76.935,10.285],[76.935,10.28]]],"type":"Polygon"},"id":"road-2056-15387","properties":{"habitat_codes":{"tt":13},"historical_risk_score":1.1199984442305262,"label":"Nallamudi","rank":22,"routes":["Nallamudi"],"selected_for_budget":false,"taxon_group":"mammalia","top_20_percent":true,"training_events":1,"training_exposure":0.38858695652173914,"validation_events":0,"validation_exposure":0.2826086956521739},"type":"Feature"},{"geometry":{"coordinates":[[[76.99,10.385],[76.99499999999999,10.385],[76.99499999999999,10.39],[76.99,10.39],[76.99,10.385]]],"type":"Polygon"},"id":"road-2077-15398","properties":{"habitat_codes":{"ff":14,"tt":2},"historical_risk_score":1.0840320816624136,"label":"Waverly","rank":23,"routes":["Waverly"],"selected_for_budget":false,"taxon_group":"mammalia","top_20_percent":true,"training_events":1,"training_exposure":0.4678362573099415,"validation_events":2,"validation_exposure":0.3742690058479532},"type":"Feature"},{"geometry":{"coordinates":[[[77.005,10.285],[77.00999999999999,10.285],[77.00999999999999,10.290000000000001],[77.005,10.290000000000001],[77.005,10.285]]],"type":"Polygon"},"id":"road-2057-15401","properties":{"habitat_codes":{"ft":11,"tf":2},"historical_risk_score":1.0826377923152117,"label":"Chinnakallar","rank":24,"routes":["Chinnakallar"],"selected_for_budget":false,"taxon_group":"mammalia","top_20_percent":true,"training_events":1,"training_exposure":0.47101449275362317,"validation_events":0,"validation_exposure":0.37681159420289856},"type":"Feature"},{"geometry":{"coordinates":[[[76.905,10.335],[76.91,10.335],[76.91,10.340000000000002],[76.905,10.340000000000002],[76.905,10.335]]],"type":"Polygon"},"id":"road-2067-15381","properties":{"habitat_codes":{"tt":26},"historical_risk_score":1.0667518704901884,"label":"Sholayar","rank":25,"routes":["Sholayar"],"selected_for_budget":false,"taxon_group":"mammalia","top_20_percent":true,"training_events":1,"training_exposure":0.5078125,"validation_events":0,"validation_exposure":0.40625},"type":"Feature"},{"geometry":{"coordinates":[[[76.985,10.435],[76.99,10.435],[76.99,10.440000000000001],[76.985,10.440000000000001],[76.985,10.435]]],"type":"Polygon"},"id":"road-2087-15397","properties":{"habitat_codes":{"ff":63},"historical_risk_score":1.0644224025648734,"label":"Waterfalls","rank":26,"routes":["Waterfalls"],"selected_for_budget":false,"taxon_group":"mammalia","top_20_percent":true,"training_events":4,"training_exposure":3.331730769230769,"validation_events":1,"validation_exposure":2.423076923076923},"type":"Feature"},{"geometry":{"coordinates":[[[76.935,10.265],[76.94,10.265],[76.94,10.270000000000001],[76.935,10.270000000000001],[76.935,10.265]]],"type":"Polygon"},"id":"road-2053-15387","properties":{"habitat_codes":{"tt":20},"historical_risk_score":1.029789364517398,"label":"Nallamudi","rank":27,"routes":["Nallamudi"],"selected_for_budget":false,"taxon_group":"mammalia","top_20_percent":true,"training_events":1,"training_exposure":0.5978260869565217,"validation_events":1,"validation_exposure":0.43478260869565216},"type":"Feature"},{"geometry":{"coordinates":[[[76.93,10.275],[76.935,10.275],[76.935,10.280000000000001],[76.93,10.280000000000001],[76.93,10.275]]],"type":"Polygon"},"id":"road-2055-15386","properties":{"habitat_codes":{"tt":20},"historical_risk_score":1.029789364517398,"label":"Nallamudi","rank":28,"routes":["Nallamudi"],"selected_for_budget":false,"taxon_group":"mammalia","top_20_percent":true,"training_events":1,"training_exposure":0.5978260869565217,"validation_events":0,"validation_exposure":0.43478260869565216},"type":"Feature"},{"geometry":{"coordinates":[[[76.96000000000001,10.305],[76.965,10.305],[76.965,10.31],[76.96000000000001,10.31],[76.96000000000001,10.305]]],"type":"Polygon"},"id":"road-2061-15392","properties":{"habitat_codes":{"tt":26},"historical_risk_score":1.0175659378113366,"label":"Neerar Dam","rank":29,"routes":["Neerar Dam"],"selected_for_budget":false,"taxon_group":"mammalia","top_20_percent":true,"training_events":1,"training_exposure":0.6290322580645161,"validation_events":0,"validation_exposure":0.5591397849462365},"type":"Feature"},{"geometry":{"coordinates":[[[76.98,10.43],[76.985,10.43],[76.985,10.435],[76.98,10.435],[76.98,10.43]]],"type":"Polygon"},"id":"road-2086-15396","properties":{"habitat_codes":{"ff":12},"historical_risk_score":1.0154095701540957,"label":"Waterfalls","rank":30,"routes":["Waterfalls"],"selected_for_budget":false,"taxon_group":"mammalia","top_20_percent":true,"training_events":1,"training_exposure":0.6346153846153846,"validation_events":1,"validation_exposure":0.46153846153846156},"type":"Feature"},{"geometry":{"coordinates":[[[76.965,10.46],[76.97,10.46],[76.97,10.465000000000002],[76.965,10.465000000000002],[76.965,10.46]]],"type":"Polygon"},"id":"road-2092-15393","properties":{"habitat_codes":{"ff":34},"historical_risk_score":1.0023310023310024,"label":"Azhiyar","rank":31,"routes":["Azhiyar"],"selected_for_budget":false,"taxon_group":"mammalia","top_20_percent":false,"training_events":2,"training_exposure":1.6666666666666667,"validation_events":0,"validation_exposure":1.3333333333333333},"type":"Feature"},{"geometry":{"coordinates":[[[76.93,10.27],[76.935,10.27],[76.935,10.275],[76.93,10.275],[76.93,10.27]]],"type":"Polygon"},"id":"road-2054-15386","properties":{"habitat_codes":{"tt":25},"historical_risk_score":0.9737671933517631,"label":"Nallamudi","rank":32,"routes":["Nallamudi"],"selected_for_budget":false,"taxon_group":"mammalia","top_20_percent":false,"training_events":1,"training_exposure":0.7472826086956522,"validation_events":0,"validation_exposure":0.5434782608695652},"type":"Feature"},{"geometry":{"coordinates":[[[76.98,10.285],[76.985,10.285],[76.985,10.290000000000001],[76.98,10.290000000000001],[76.98,10.285]]],"type":"Polygon"},"id":"road-2057-15396","properties":{"habitat_codes":{"tt":25},"historical_risk_score":0.9206471001982225,"label":"Chinnakallar","rank":33,"routes":["Chinnakallar"],"selected_for_budget":false,"taxon_group":"mammalia","top_20_percent":false,"training_events":1,"training_exposure":0.9057971014492754,"validation_events":0,"validation_exposure":0.7246376811594203},"type":"Feature"},{"geometry":{"coordinates":[[[76.985,10.290000000000001],[76.99,10.290000000000001],[76.99,10.295000000000002],[76.985,10.295000000000002],[76.985,10.290000000000001]]],"type":"Polygon"},"id":"road-2058-15397","properties":{"habitat_codes":{"tt":25},"historical_risk_score":0.9206471001982225,"label":"Chinnakallar","rank":34,"routes":["Chinnakallar"],"selected_for_budget":false,"taxon_group":"mammalia","top_20_percent":false,"training_events":1,"training_exposure":0.9057971014492754,"validation_events":0,"validation_exposure":0.7246376811594203},"type":"Feature"},{"geometry":{"coordinates":[[[77.01,10.290000000000001],[77.015,10.290000000000001],[77.015,10.295000000000002],[77.01,10.295000000000002],[77.01,10.290000000000001]]],"type":"Polygon"},"id":"road-2058-15402","properties":{"habitat_codes":{"tf":4,"tt":25},"historical_risk_score":0.8769108959132713,"label":"Chinnakallar","rank":35,"routes":["Chinnakallar"],"selected_for_budget":false,"taxon_group":"mammalia","top_20_percent":false,"training_events":1,"training_exposure":1.0507246376811594,"validation_events":0,"validation_exposure":0.8405797101449275},"type":"Feature"},{"geometry":{"coordinates":[[[76.93,10.325000000000001],[76.935,10.325000000000001],[76.935,10.330000000000002],[76.93,10.330000000000002],[76.93,10.325000000000001]]],"type":"Polygon"},"id":"road-2065-15386","properties":{"habitat_codes":{"tt":1},"historical_risk_score":0.8208547008547008,"label":"Old Valparai","rank":36,"routes":["Old Valparai"],"selected_for_budget":false,"taxon_group":"mammalia","top_20_percent":false,"training_events":0,"training_exposure":0.04081632653061224,"validation_events":0,"validation_exposure":0.0326530612244898},"type":"Feature"},{"geometry":{"coordinates":[[[76.935,10.335],[76.94,10.335],[76.94,10.340000000000002],[76.935,10.340000000000002],[76.935,10.335]]],"type":"Polygon"},"id":"road-2067-15387","properties":{"habitat_codes":{"tt":1},"historical_risk_score":0.8208547008547008,"label":"Old Valparai","rank":37,"routes":["Old Valparai"],"selected_for_budget":false,"taxon_group":"mammalia","top_20_percent":false,"training_events":0,"training_exposure":0.04081632653061224,"validation_events":0,"validation_exposure":0.0326530612244898},"type":"Feature"},{"geometry":{"coordinates":[[[76.88,10.305],[76.88499999999999,10.305],[76.88499999999999,10.31],[76.88,10.31],[76.88,10.305]]],"type":"Polygon"},"id":"road-2061-15376","properties":{"habitat_codes":{"tm":3},"historical_risk_score":0.813766035777421,"label":"Sholayar","rank":38,"routes":["Sholayar"],"selected_for_budget":false,"taxon_group":"mammalia","top_20_percent":false,"training_events":0,"training_exposure":0.05859375,"validation_events":0,"validation_exposure":0.046875},"type":"Feature"},{"geometry":{"coordinates":[[[76.93,10.26],[76.935,10.26],[76.935,10.265],[76.93,10.265],[76.93,10.26]]],"type":"Polygon"},"id":"road-2052-15386","properties":{"habitat_codes":{"tt":2},"historical_risk_score":0.8132963489164017,"label":"Nallamudi","rank":39,"routes":["Nallamudi"],"selected_for_budget":false,"taxon_group":"mammalia","top_20_percent":false,"training_events":0,"training_exposure":0.059782608695652176,"validation_events":0,"validation_exposure":0.043478260869565216},"type":"Feature"},{"geometry":{"coordinates":[[[76.94,10.290000000000001],[76.945,10.290000000000001],[76.945,10.295000000000002],[76.94,10.295000000000002],[76.94,10.290000000000001]]],"type":"Polygon"},"id":"road-2058-15388","properties":{"habitat_codes":{"tt":2},"historical_risk_score":0.8132963489164017,"label":"Nallamudi","rank":40,"routes":["Nallamudi"],"selected_for_budget":false,"taxon_group":"mammalia","top_20_percent":false,"training_events":0,"training_exposure":0.059782608695652176,"validation_events":0,"validation_exposure":0.043478260869565216},"type":"Feature"},{"geometry":{"coordinates":[[[76.89,10.33],[76.895,10.33],[76.895,10.335],[76.89,10.335],[76.89,10.33]]],"type":"Polygon"},"id":"road-2066-15378","properties":{"habitat_codes":{"tt":4},"historical_risk_score":0.8061178587494378,"label":"Sholayar","rank":41,"routes":["Sholayar"],"selected_for_budget":false,"taxon_group":"mammalia","top_20_percent":false,"training_events":0,"training_exposure":0.078125,"validation_events":0,"validation_exposure":0.0625},"type":"Feature"},{"geometry":{"coordinates":[[[76.965,10.345],[76.97,10.345],[76.97,10.350000000000001],[76.965,10.350000000000001],[76.965,10.345]]],"type":"Polygon"},"id":"road-2069-15393","properties":{"habitat_codes":{"ff":1},"historical_risk_score":0.8023677149890743,"label":"Puthuthotam","rank":42,"routes":["Puthuthotam"],"selected_for_budget":false,"taxon_group":"mammalia","top_20_percent":false,"training_events":0,"training_exposure":0.08783783783783784,"validation_events":0,"validation_exposure":0.05405405405405406},"type":"Feature"},{"geometry":{"coordinates":[[[76.99,10.33],[76.99499999999999,10.33],[76.99499999999999,10.335],[76.99,10.335],[76.99,10.33]]],"type":"Polygon"},"id":"road-2066-15398","properties":{"habitat_codes":{"tt":2},"historical_risk_score":0.7993890351304801,"label":"Balaji Temple","rank":43,"routes":["Balaji Temple"],"selected_for_budget":false,"taxon_group":"mammalia","top_20_percent":false,"training_events":0,"training_exposure":0.09561752988047809,"validation_events":0,"validation_exposure":0.055776892430278883},"type":"Feature"},{"geometry":{"coordinates":[[[76.97500000000001,10.455],[76.98,10.455],[76.98,10.46],[76.97500000000001,10.46],[76.97500000000001,10.455]]],"type":"Polygon"},"id":"road-2091-15395","properties":{"habitat_codes":{"ff":2},"historical_risk_score":0.7984663311766116,"label":"Azhiyar","rank":44,"routes":["Azhiyar"],"selected_for_budget":false,"taxon_group":"mammalia","top_20_percent":false,"training_events":0,"training_exposure":0.09803921568627451,"validation_events":0,"validation_exposure":0.0784313725490196},"type":"Feature"},{"geometry":{"coordinates":[[[76.98,10.435],[76.985,10.435],[76.985,10.440000000000001],[76.98,10.440000000000001],[76.98,10.435]]],"type":"Polygon"},"id":"road-2087-15396","properties":{"habitat_codes":{"ff":2},"historical_risk_score":0.7955352612886859,"label":"Waterfalls","rank":45,"routes":["Waterfalls"],"selected_for_budget":false,"taxon_group":"mammalia","top_20_percent":false,"training_events":0,"training_exposure":0.10576923076923077,"validation_events":0,"validation_exposure":0.07692307692307693},"type":"Feature"},{"geometry":{"coordinates":[[[76.99,10.290000000000001],[76.99499999999999,10.290000000000001],[76.99499999999999,10.295000000000002],[76.99,10.295000000000002],[76.99,10.290000000000001]]],"type":"Polygon"},"id":"road-2058-15398","properties":{"habitat_codes":{"tt":3},"historical_risk_score":0.7944312274209181,"label":"Chinnakallar","rank":46,"routes":["Chinnakallar"],"selected_for_budget":false,"taxon_group":"mammalia","top_20_percent":false,"training_events":0,"training_exposure":0.10869565217391304,"validation_events":0,"validation_exposure":0.08695652173913043},"type":"Feature"},{"geometry":{"coordinates":[[[76.935,10.34],[76.94,10.34],[76.94,10.345],[76.935,10.345],[76.935,10.34]]],"type":"Polygon"},"id":"road-2068-15387","properties":{"habitat_codes":{"vt":3},"historical_risk_score":0.7892833662064431,"label":"Old Valparai","rank":47,"routes":["Old Valparai"],"selected_for_budget":false,"taxon_group":"mammalia","top_20_percent":false,"training_events":0,"training_exposure":0.12244897959183673,"validation_events":0,"validation_exposure":0.09795918367346938},"type":"Feature"},{"geometry":{"coordinates":[[[76.97,10.450000000000001],[76.975,10.450000000000001],[76.975,10.455000000000002],[76.97,10.455000000000002],[76.97,10.450000000000001]]],"type":"Polygon"},"id":"road-2090-15394","properties":{"habitat_codes":{"ff":29},"historical_risk_score":0.7818676070825068,"label":"Azhiyar","rank":48,"routes":["Azhiyar"],"selected_for_budget":false,"taxon_group":"mammalia","top_20_percent":false,"training_events":1,"training_exposure":1.4215686274509804,"validation_events":1,"validation_exposure":1.1372549019607843},"type":"Feature"},{"geometry":{"coordinates":[[[76.99,10.36],[76.99499999999999,10.36],[76.99499999999999,10.365],[76.99,10.365],[76.99,10.36]]],"type":"Polygon"},"id":"road-2072-15398","properties":{"habitat_codes":{"tf":3},"historical_risk_score":0.781558796428685,"label":"Balaji Temple","rank":49,"routes":["Balaji Temple"],"selected_for_budget":false,"taxon_group":"mammalia","top_20_percent":false,"training_events":0,"training_exposure":0.14342629482071714,"validation_events":0,"validation_exposure":0.08366533864541832},"type":"Feature"},{"geometry":{"coordinates":[[[76.985,10.285],[76.99,10.285],[76.99,10.290000000000001],[76.985,10.290000000000001],[76.985,10.285]]],"type":"Polygon"},"id":"road-2057-15397","properties":{"habitat_codes":{"tt":4},"historical_risk_score":0.7810117810117809,"label":"Chinnakallar","rank":50,"routes":["Chinnakallar"],"selected_for_budget":false,"taxon_group":"mammalia","top_20_percent":false,"training_events":0,"training_exposure":0.14492753623188406,"validation_events":0,"validation_exposure":0.11594202898550725},"type":"Feature"},{"geometry":{"coordinates":[[[76.965,10.285],[76.97,10.285],[76.97,10.290000000000001],[76.965,10.290000000000001],[76.965,10.285]]],"type":"Polygon"},"id":"road-2057-15393","properties":{"habitat_codes":{"ff":2,"tt":4},"historical_risk_score":0.7809266756635178,"label":"Neerar Dam","rank":51,"routes":["Neerar Dam"],"selected_for_budget":false,"taxon_group":"mammalia","top_20_percent":false,"training_events":0,"training_exposure":0.14516129032258066,"validation_events":0,"validation_exposure":0.12903225806451613},"type":"Feature"},{"geometry":{"coordinates":[[[76.955,10.305],[76.96,10.305],[76.96,10.31],[76.955,10.31],[76.955,10.305]]],"type":"Polygon"},"id":"road-2061-15391","properties":{"habitat_codes":{"fe":4,"tt":2},"historical_risk_score":0.7809266756635178,"label":"Neerar Dam","rank":52,"routes":["Neerar Dam"],"selected_for_budget":false,"taxon_group":"mammalia","top_20_percent":false,"training_events":0,"training_exposure":0.14516129032258066,"validation_events":0,"validation_exposure":0.12903225806451613},"type":"Feature"},{"geometry":{"coordinates":[[[76.995,10.370000000000001],[77.0,10.370000000000001],[77.0,10.375000000000002],[76.995,10.375000000000002],[76.995,10.370000000000001]]],"type":"Polygon"},"id":"road-2074-15399","properties":{"habitat_codes":{"ff":5},"historical_risk_score":0.7805491511213581,"label":"Waverly","rank":53,"routes":["Waverly"],"selected_for_budget":false,"taxon_group":"mammalia","top_20_percent":false,"training_events":0,"training_exposure":0.14619883040935672,"validation_events":0,"validation_exposure":0.11695906432748537},"type":"Feature"},{"geometry":{"coordinates":[[[76.985,10.42],[76.99,10.42],[76.99,10.425],[76.985,10.425],[76.985,10.42]]],"type":"Polygon"},"id":"road-2084-15397","properties":{"habitat_codes":{"tf":3},"historical_risk_score":0.7760455332838406,"label":"Waterfalls","rank":54,"routes":["Waterfalls"],"selected_for_budget":false,"taxon_group":"mammalia","top_20_percent":false,"training_events":0,"training_exposure":0.15865384615384615,"validation_events":1,"validation_exposure":0.11538461538461539},"type":"Feature"},{"geometry":{"coordinates":[[[76.99,10.435],[76.99499999999999,10.435],[76.99499999999999,10.440000000000001],[76.99,10.440000000000001],[76.99,10.435]]],"type":"Polygon"},"id":"road-2087-15398","properties":{"habitat_codes":{"ff":3},"historical_risk_score":0.7760455332838406,"label":"Waterfalls","rank":55,"routes":["Waterfalls"],"selected_for_budget":false,"taxon_group":"mammalia","top_20_percent":false,"training_events":0,"training_exposure":0.15865384615384615,"validation_events":0,"validation_exposure":0.11538461538461539},"type":"Feature"},{"geometry":{"coordinates":[[[76.91,10.335],[76.91499999999999,10.335],[76.91499999999999,10.340000000000002],[76.91,10.340000000000002],[76.91,10.335]]],"type":"Polygon"},"id":"road-2067-15382","properties":{"habitat_codes":{"tt":9},"historical_risk_score":0.7699366263100554,"label":"Sholayar","rank":56,"routes":["Sholayar"],"selected_for_budget":false,"taxon_group":"mammalia","top_20_percent":false,"training_events":0,"training_exposure":0.17578125,"validation_events":0,"validation_exposure":0.140625},"type":"Feature"},{"geometry":{"coordinates":[[[76.905,10.34],[76.91,10.34],[76.91,10.345],[76.905,10.345],[76.905,10.34]]],"type":"Polygon"},"id":"road-2068-15381","properties":{"habitat_codes":{"tt":9},"historical_risk_score":0.7699366263100554,"label":"Sholayar","rank":57,"routes":["Sholayar"],"selected_for_budget":false,"taxon_group":"mammalia","top_20_percent":false,"training_events":0,"training_exposure":0.17578125,"validation_events":0,"validation_exposure":0.140625},"type":"Feature"},{"geometry":{"coordinates":[[[76.93,10.255],[76.935,10.255],[76.935,10.260000000000002],[76.93,10.260000000000002],[76.93,10.255]]],"type":"Polygon"},"id":"road-2051-15386","properties":{"habitat_codes":{"tt":6},"historical_risk_score":0.7686765991005393,"label":"Nallamudi","rank":58,"routes":["Nallamudi"],"selected_for_budget":false,"taxon_group":"mammalia","top_20_percent":false,"training_events":0,"training_exposure":0.1793478260869565,"validation_events":0,"validation_exposure":0.13043478260869565},"type":"Feature"},{"geometry":{"coordinates":[[[76.935,10.275],[76.94,10.275],[76.94,10.280000000000001],[76.935,10.280000000000001],[76.935,10.275]]],"type":"Polygon"},"id":"road-2055-15387","properties":{"habitat_codes":{"tt":6},"historical_risk_score":0.7686765991005393,"label":"Nallamudi","rank":59,"routes":["Nallamudi"],"selected_for_budget":false,"taxon_group":"mammalia","top_20_percent":false,"training_events":0,"training_exposure":0.1793478260869565,"validation_events":0,"validation_exposure":0.13043478260869565},"type":"Feature"},{"geometry":{"coordinates":[[[76.965,10.3],[76.97,10.3],[76.97,10.305000000000001],[76.965,10.305000000000001],[76.965,10.3]]],"type":"Polygon"},"id":"road-2060-15393","properties":{"habitat_codes":{"tt":8},"historical_risk_score":0.7637003519356461,"label":"Neerar Dam","rank":60,"routes":["Neerar Dam"],"selected_for_budget":false,"taxon_group":"mammalia","top_20_percent":false,"training_events":0,"training_exposure":0.1935483870967742,"validation_events":0,"validation_exposure":0.17204301075268819},"type":"Feature"},{"geometry":{"coordinates":[[[76.94500000000001,10.32],[76.95,10.32],[76.95,10.325000000000001],[76.94500000000001,10.325000000000001],[76.94500000000001,10.32]]],"type":"Polygon"},"id":"road-2064-15389","properties":{"habitat_codes":{"tt":7},"historical_risk_score":0.758276300711725,"label":"Nallamudi","rank":61,"routes":["Nallamudi"],"selected_for_budget":false,"taxon_group":"mammalia","top_20_percent":false,"training_events":0,"training_exposure":0.20923913043478262,"validation_events":0,"validation_exposure":0.15217391304347827},"type":"Feature"},{"geometry":{"coordinates":[[[76.97,10.27],[76.975,10.27],[76.975,10.275],[76.97,10.275],[76.97,10.27]]],"type":"Polygon"},"id":"road-2054-15394","properties":{"habitat_codes":{"tt":9},"historical_risk_score":0.7553690753690754,"label":"Neerar Dam","rank":62,"routes":["Neerar Dam"],"selected_for_budget":false,"taxon_group":"mammalia","top_20_percent":false,"training_events":0,"training_exposure":0.21774193548387097,"validation_events":0,"validation_exposure":0.1935483870967742},"type":"Feature"},{"geometry":{"coordinates":[[[76.985,10.44],[76.99,10.44],[76.99,10.445],[76.985,10.445],[76.985,10.44]]],"type":"Polygon"},"id":"road-2088-15397","properties":{"habitat_codes":{"ff":5},"historical_risk_score":0.7514309560347845,"label":"Attakatti - 1 hpb / Waterfalls","rank":63,"routes":["Attakatti - 1 hpb","Waterfalls"],"selected_for_budget":false,"taxon_group":"mammalia","top_20_percent":false,"training_events":0,"training_exposure":0.22936473638720828,"validation_events":0,"validation_exposure":0.16681071737251513},"type":"Feature"},{"geometry":{"coordinates":[[[76.89,10.315],[76.895,10.315],[76.895,10.32],[76.89,10.32],[76.89,10.315]]],"type":"Polygon"},"id":"road-2063-15378","properties":{"habitat_codes":{"tm":12},"historical_risk_score":0.7497459805152114,"label":"Sholayar","rank":64,"routes":["Sholayar"],"selected_for_budget":false,"taxon_group":"mammalia","top_20_percent":false,"training_events":0,"training_exposure":0.234375,"validation_events":0,"validation_exposure":0.1875},"type":"Feature"},{"geometry":{"coordinates":[[[76.9,10.335],[76.905,10.335],[76.905,10.340000000000002],[76.9,10.340000000000002],[76.9,10.335]]],"type":"Polygon"},"id":"road-2067-15380","properties":{"habitat_codes":{"tt":13},"historical_risk_score":0.7432490482750448,"label":"Sholayar","rank":65,"routes":["Sholayar"],"selected_for_budget":false,"taxon_group":"mammalia","top_20_percent":false,"training_events":0,"training_exposure":0.25390625,"validation_events":0,"validation_exposure":0.203125},"type":"Feature"},{"geometry":{"coordinates":[[[76.93,10.265],[76.935,10.265],[76.935,10.270000000000001],[76.93,10.270000000000001],[76.93,10.265]]],"type":"Polygon"},"id":"road-2053-15386","properties":{"habitat_codes":{"tt":10},"historical_risk_score":0.7286981471378635,"label":"Nallamudi","rank":66,"routes":["Nallamudi"],"selected_for_budget":false,"taxon_group":"mammalia","top_20_percent":false,"training_events":0,"training_exposure":0.29891304347826086,"validation_events":0,"validation_exposure":0.21739130434782608},"type":"Feature"},{"geometry":{"coordinates":[[[76.895,10.34],[76.89999999999999,10.34],[76.89999999999999,10.345],[76.895,10.345],[76.895,10.34]]],"type":"Polygon"},"id":"road-2068-15379","properties":{"habitat_codes":{"tt":16},"historical_risk_score":0.7244167244167244,"label":"Sholayar","rank":67,"routes":["Sholayar"],"selected_for_budget":false,"taxon_group":"mammalia","top_20_percent":false,"training_events":0,"training_exposure":0.3125,"validation_events":0,"validation_exposure":0.25},"type":"Feature"},{"geometry":{"coordinates":[[[76.915,10.345],[76.92,10.345],[76.92,10.350000000000001],[76.915,10.350000000000001],[76.915,10.345]]],"type":"Polygon"},"id":"road-2069-15383","properties":{"habitat_codes":{"tt":16},"historical_risk_score":0.7244167244167244,"label":"Sholayar","rank":68,"routes":["Sholayar"],"selected_for_budget":false,"taxon_group":"mammalia","top_20_percent":false,"training_events":0,"training_exposure":0.3125,"validation_events":0,"validation_exposure":0.25},"type":"Feature"},{"geometry":{"coordinates":[[[76.92,10.35],[76.925,10.35],[76.925,10.355],[76.92,10.355],[76.92,10.35]]],"type":"Polygon"},"id":"road-2070-15384","properties":{"habitat_codes":{"tt":16},"historical_risk_score":0.7244167244167244,"label":"Sholayar","rank":69,"routes":["Sholayar"],"selected_for_budget":false,"taxon_group":"mammalia","top_20_percent":false,"training_events":0,"training_exposure":0.3125,"validation_events":0,"validation_exposure":0.25},"type":"Feature"},{"geometry":{"coordinates":[[[77.01,10.285],[77.015,10.285],[77.015,10.290000000000001],[77.01,10.290000000000001],[77.01,10.285]]],"type":"Polygon"},"id":"road-2057-15402","properties":{"habitat_codes":{"tt":9},"historical_risk_score":0.7201853183161594,"label":"Chinnakallar","rank":70,"routes":["Chinnakallar"],"selected_for_budget":false,"taxon_group":"mammalia","top_20_percent":false,"training_events":0,"training_exposure":0.32608695652173914,"validation_events":0,"validation_exposure":0.2608695652173913},"type":"Feature"},{"geometry":{"coordinates":[[[76.95,10.32],[76.955,10.32],[76.955,10.325000000000001],[76.95,10.325000000000001],[76.95,10.32]]],"type":"Polygon"},"id":"road-2064-15390","properties":{"habitat_codes":{"tt":11},"historical_risk_score":0.71934496205208,"label":"Nallamudi","rank":71,"routes":["Nallamudi"],"selected_for_budget":false,"taxon_group":"mammalia","top_20_percent":false,"training_events":0,"training_exposure":0.328804347826087,"validation_events":0,"validation_exposure":0.2391304347826087},"type":"Feature"},{"geometry":{"coordinates":[[[76.99,10.345],[76.99499999999999,10.345],[76.99499999999999,10.350000000000001],[76.99,10.350000000000001],[76.99,10.345]]],"type":"Polygon"},"id":"road-2069-15398","properties":{"habitat_codes":{"tt":7},"historical_risk_score":0.7175403284618301,"label":"Balaji Temple","rank":72,"routes":["Balaji Temple"],"selected_for_budget":false,"taxon_group":"mammalia","top_20_percent":false,"training_events":0,"training_exposure":0.3346613545816733,"validation_events":0,"validation_exposure":0.1952191235059761},"type":"Feature"},{"geometry":{"coordinates":[[[76.97,10.28],[76.975,10.28],[76.975,10.285],[76.97,10.285],[76.97,10.28]]],"type":"Polygon"},"id":"road-2056-15394","properties":{"habitat_codes":{"tt":14},"historical_risk_score":0.7162982611258473,"label":"Neerar Dam","rank":73,"routes":["Neerar Dam"],"selected_for_budget":false,"taxon_group":"mammalia","top_20_percent":false,"training_events":0,"training_exposure":0.3387096774193548,"validation_events":0,"validation_exposure":0.3010752688172043},"type":"Feature"},{"geometry":{"coordinates":[[[76.965,10.450000000000001],[76.97,10.450000000000001],[76.97,10.455000000000002],[76.965,10.455000000000002],[76.965,10.450000000000001]]],"type":"Polygon"},"id":"road-2090-15393","properties":{"habitat_codes":{"ff":7},"historical_risk_score":0.7149447484175517,"label":"Azhiyar","rank":74,"routes":["Azhiyar"],"selected_for_budget":false,"taxon_group":"mammalia","top_20_percent":false,"training_events":0,"training_exposure":0.3431372549019608,"validation_events":0,"validation_exposure":0.27450980392156865},"type":"Feature"},{"geometry":{"coordinates":[[[76.99,10.38],[76.99499999999999,10.38],[76.99499999999999,10.385000000000002],[76.99,10.385000000000002],[76.99,10.38]]],"type":"Polygon"},"id":"road-2076-15398","properties":{"habitat_codes":{"tt":12},"historical_risk_score":0.7125908916953693,"label":"Waverly","rank":75,"routes":["Waverly"],"selected_for_budget":false,"taxon_group":"mammalia","top_20_percent":false,"training_events":0,"training_exposure":0.3508771929824561,"validation_events":0,"validation_exposure":0.2807017543859649},"type":"Feature"},{"geometry":{"coordinates":[[[76.93,10.33],[76.935,10.33],[76.935,10.335],[76.93,10.335],[76.93,10.33]]],"type":"Polygon"},"id":"road-2066-15386","properties":{"habitat_codes":{"tt":9},"historical_risk_score":0.7076333628057766,"label":"Old Valparai","rank":76,"routes":["Old Valparai"],"selected_for_budget":false,"taxon_group":"mammalia","top_20_percent":false,"training_events":0,"training_exposure":0.3673469387755102,"validation_events":0,"validation_exposure":0.2938775510204082},"type":"Feature"},{"geometry":{"coordinates":[[[76.93,10.345],[76.935,10.345],[76.935,10.350000000000001],[76.93,10.350000000000001],[76.93,10.345]]],"type":"Polygon"},"id":"road-2069-15386","properties":{"habitat_codes":{"cf":4,"ff":5},"historical_risk_score":0.7076333628057766,"label":"Old Valparai","rank":77,"routes":["Old Valparai"],"selected_for_budget":false,"taxon_group":"mammalia","top_20_percent":false,"training_events":0,"training_exposure":0.3673469387755102,"validation_events":1,"validation_exposure":0.2938775510204082},"type":"Feature"},{"geometry":{"coordinates":[[[76.97500000000001,10.445],[76.98,10.445],[76.98,10.450000000000001],[76.97500000000001,10.450000000000001],[76.97500000000001,10.445]]],"type":"Polygon"},"id":"road-2089-15395","properties":{"habitat_codes":{"ff":9},"historical_risk_score":0.706606716085389,"label":"Attakatti - 1 hpb","rank":78,"routes":["Attakatti - 1 hpb"],"selected_for_budget":false,"taxon_group":"mammalia","top_20_percent":false,"training_events":0,"training_exposure":0.3707865168539326,"validation_events":1,"validation_exposure":0.2696629213483146},"type":"Feature"},{"geometry":{"coordinates":[[[76.995,10.365],[77.0,10.365],[77.0,10.370000000000001],[76.995,10.370000000000001],[76.995,10.365]]],"type":"Polygon"},"id":"road-2073-15399","properties":{"habitat_codes":{"tf":8},"historical_risk_score":0.7031415258840008,"label":"Balaji Temple","rank":79,"routes":["Balaji Temple"],"selected_for_budget":false,"taxon_group":"mammalia","top_20_percent":false,"training_events":0,"training_exposure":0.38247011952191234,"validation_events":0,"validation_exposure":0.22310756972111553},"type":"Feature"},{"geometry":{"coordinates":[[[76.92,10.345],[76.925,10.345],[76.925,10.350000000000001],[76.92,10.350000000000001],[76.92,10.345]]],"type":"Polygon"},"id":"road-2069-15384","properties":{"habitat_codes":{"tt":20},"historical_risk_score":0.7007429752527792,"label":"Sholayar","rank":80,"routes":["Sholayar"],"selected_for_budget":false,"taxon_group":"mammalia","top_20_percent":false,"training_events":0,"training_exposure":0.390625,"validation_events":0,"validation_exposure":0.3125},"type":"Feature"},{"geometry":{"coordinates":[[[77.02,10.295],[77.02499999999999,10.295],[77.02499999999999,10.3],[77.02,10.3],[77.02,10.295]]],"type":"Polygon"},"id":"road-2059-15404","properties":{"habitat_codes":{"ft":11},"historical_risk_score":0.6984274537144628,"label":"Chinnakallar","rank":81,"routes":["Chinnakallar"],"selected_for_budget":false,"taxon_group":"mammalia","top_20_percent":false,"training_events":0,"training_exposure":0.39855072463768115,"validation_events":0,"validation_exposure":0.3188405797101449},"type":"Feature"},{"geometry":{"coordinates":[[[76.89,10.31],[76.895,10.31],[76.895,10.315000000000001],[76.89,10.315000000000001],[76.89,10.31]]],"type":"Polygon"},"id":"road-2062-15378","properties":{"habitat_codes":{"tm":22},"historical_risk_score":0.6894770110204194,"label":"Sholayar","rank":82,"routes":["Sholayar"],"selected_for_budget":false,"taxon_group":"mammalia","top_20_percent":false,"training_events":0,"training_exposure":0.4296875,"validation_events":0,"validation_exposure":0.34375},"type":"Feature"},{"geometry":{"coordinates":[[[76.995,10.335],[77.0,10.335],[77.0,10.340000000000002],[76.995,10.340000000000002],[76.995,10.335]]],"type":"Polygon"},"id":"road-2067-15399","properties":{"habitat_codes":{"ee":1,"tt":8},"historical_risk_score":0.6893092335715286,"label":"Balaji Temple","rank":83,"routes":["Balaji Temple"],"selected_for_budget":false,"taxon_group":"mammalia","top_20_percent":false,"training_events":0,"training_exposure":0.4302788844621514,"validation_events":0,"validation_exposure":0.250996015936255},"type":"Feature"},{"geometry":{"coordinates":[[[76.98,10.27],[76.985,10.27],[76.985,10.275],[76.98,10.275],[76.98,10.27]]],"type":"Polygon"},"id":"road-2054-15396","properties":{"habitat_codes":{"ff":18},"historical_risk_score":0.6878360785645554,"label":"Neerar Dam","rank":84,"routes":["Neerar Dam"],"selected_for_budget":false,"taxon_group":"mammalia","top_20_percent":false,"training_events":0,"training_exposure":0.43548387096774194,"validation_events":0,"validation_exposure":0.3870967741935484},"type":"Feature"},{"geometry":{"coordinates":[[[76.93,10.28],[76.935,10.28],[76.935,10.285],[76.93,10.285],[76.93,10.28]]],"type":"Polygon"},"id":"road-2056-15386","properties":{"habitat_codes":{"tt":15},"historical_risk_score":0.6842160182892703,"label":"Nallamudi","rank":85,"routes":["Nallamudi"],"selected_for_budget":false,"taxon_group":"mammalia","top_20_percent":false,"training_events":0,"training_exposure":0.4483695652173913,"validation_events":1,"validation_exposure":0.32608695652173914},"type":"Feature"},{"geometry":{"coordinates":[[[76.935,10.355],[76.94,10.355],[76.94,10.360000000000001],[76.935,10.360000000000001],[76.935,10.355]]],"type":"Polygon"},"id":"road-2071-15387","properties":{"habitat_codes":{"cc":11},"historical_risk_score":0.684045584045584,"label":"Old Valparai","rank":86,"routes":["Old Valparai"],"selected_for_budget":false,"taxon_group":"mammalia","top_20_percent":false,"training_events":0,"training_exposure":0.4489795918367347,"validation_events":0,"validation_exposure":0.35918367346938773},"type":"Feature"},{"geometry":{"coordinates":[[[76.895,10.315],[76.89999999999999,10.315],[76.89999999999999,10.32],[76.895,10.32],[76.895,10.315]]],"type":"Polygon"},"id":"road-2063-15379","properties":{"habitat_codes":{"tm":23},"historical_risk_score":0.6839787892419471,"label":"Sholayar","rank":87,"routes":["Sholayar"],"selected_for_budget":false,"taxon_group":"mammalia","top_20_percent":false,"training_events":0,"training_exposure":0.44921875,"validation_events":1,"validation_exposure":0.359375},"type":"Feature"},{"geometry":{"coordinates":[[[76.9,10.34],[76.905,10.34],[76.905,10.345],[76.9,10.345],[76.9,10.34]]],"type":"Polygon"},"id":"road-2068-15380","properties":{"habitat_codes":{"tt":23},"historical_risk_score":0.6839787892419471,"label":"Sholayar","rank":88,"routes":["Sholayar"],"selected_for_budget":false,"taxon_group":"mammalia","top_20_percent":false,"training_events":0,"training_exposure":0.44921875,"validation_events":0,"validation_exposure":0.359375},"type":"Feature"},{"geometry":{"coordinates":[[[76.925,10.35],[76.92999999999999,10.35],[76.92999999999999,10.355],[76.925,10.355],[76.925,10.35]]],"type":"Polygon"},"id":"road-2070-15385","properties":{"habitat_codes":{"tt":25},"historical_risk_score":0.673241288625904,"label":"Sholayar","rank":89,"routes":["Sholayar"],"selected_for_budget":false,"taxon_group":"mammalia","top_20_percent":false,"training_events":0,"training_exposure":0.48828125,"validation_events":0,"validation_exposure":0.390625},"type":"Feature"},{"geometry":{"coordinates":[[[76.94,10.35],[76.945,10.35],[76.945,10.355],[76.94,10.355],[76.94,10.35]]],"type":"Polygon"},"id":"road-2070-15388","properties":{"habitat_codes":{"ff":5,"vc":7},"historical_risk_score":0.6728317220120499,"label":"Old Valparai","rank":90,"routes":["Old Valparai"],"selected_for_budget":false,"taxon_group":"mammalia","top_20_percent":false,"training_events":0,"training_exposure":0.4897959183673469,"validation_events":0,"validation_exposure":0.39183673469387753},"type":"Feature"},{"geometry":{"coordinates":[[[77.005,10.290000000000001],[77.00999999999999,10.290000000000001],[77.00999999999999,10.295000000000002],[77.005,10.295000000000002],[77.005,10.290000000000001]]],"type":"Polygon"},"id":"road-2058-15401","properties":{"habitat_codes":{"ff":8,"ft":2,"tt":4},"historical_risk_score":0.6681488068771306,"label":"Chinnakallar","rank":91,"routes":["Chinnakallar"],"selected_for_budget":false,"taxon_group":"mammalia","top_20_percent":false,"training_events":0,"training_exposure":0.5072463768115942,"validation_events":0,"validation_exposure":0.4057971014492754},"type":"Feature"},{"geometry":{"coordinates":[[[76.895,10.32],[76.89999999999999,10.32],[76.89999999999999,10.325000000000001],[76.895,10.325000000000001],[76.895,10.32]]],"type":"Polygon"},"id":"road-2064-15379","properties":{"habitat_codes":{"tt":26},"historical_risk_score":0.6679979764091913,"label":"Sholayar","rank":92,"routes":["Sholayar"],"selected_for_budget":false,"taxon_group":"mammalia","top_20_percent":false,"training_events":0,"training_exposure":0.5078125,"validation_events":0,"validation_exposure":0.40625},"type":"Feature"},{"geometry":{"coordinates":[[[76.955,10.47],[76.96,10.47],[76.96,10.475000000000001],[76.955,10.475000000000001],[76.955,10.47]]],"type":"Polygon"},"id":"road-2094-15391","properties":{"habitat_codes":{"ff":11},"historical_risk_score":0.6597366597366597,"label":"Azhiyar","rank":93,"routes":["Azhiyar"],"selected_for_budget":false,"taxon_group":"mammalia","top_20_percent":false,"training_events":0,"training_exposure":0.5392156862745098,"validation_events":0,"validation_exposure":0.43137254901960786},"type":"Feature"},{"geometry":{"coordinates":[[[76.885,10.305],[76.89,10.305],[76.89,10.31],[76.885,10.31],[76.885,10.305]]],"type":"Polygon"},"id":"road-2061-15377","properties":{"habitat_codes":{"tm":28},"historical_risk_score":0.6577526086728541,"label":"Sholayar","rank":94,"routes":["Sholayar"],"selected_for_budget":false,"taxon_group":"mammalia","top_20_percent":false,"training_events":0,"training_exposure":0.546875,"validation_events":0,"validation_exposure":0.4375},"type":"Feature"},{"geometry":{"coordinates":[[[76.885,10.31],[76.89,10.31],[76.89,10.315000000000001],[76.885,10.315000000000001],[76.885,10.31]]],"type":"Polygon"},"id":"road-2062-15377","properties":{"habitat_codes":{"tm":28},"historical_risk_score":0.6577526086728541,"label":"Sholayar","rank":95,"routes":["Sholayar"],"selected_for_budget":false,"taxon_group":"mammalia","top_20_percent":false,"training_events":0,"training_exposure":0.546875,"validation_events":0,"validation_exposure":0.4375},"type":"Feature"},{"geometry":{"coordinates":[[[76.97,10.285],[76.975,10.285],[76.975,10.290000000000001],[76.97,10.290000000000001],[76.97,10.285]]],"type":"Polygon"},"id":"road-2057-15394","properties":{"habitat_codes":{"ff":5,"tf":10,"tt":8},"historical_risk_score":0.655288630052037,"label":"Neerar Dam","rank":96,"routes":["Neerar Dam"],"selected_for_budget":false,"taxon_group":"mammalia","top_20_percent":false,"training_events":0,"training_exposure":0.5564516129032258,"validation_events":1,"validation_exposure":0.4946236559139785},"type":"Feature"},{"geometry":{"coordinates":[[[76.935,10.285],[76.94,10.285],[76.94,10.290000000000001],[76.935,10.290000000000001],[76.935,10.285]]],"type":"Polygon"},"id":"road-2057-15387","properties":{"habitat_codes":{"tt":19},"historical_risk_score":0.6523583412472301,"label":"Nallamudi","rank":97,"routes":["Nallamudi"],"selected_for_budget":false,"taxon_group":"mammalia","top_20_percent":false,"training_events":0,"training_exposure":0.5679347826086957,"validation_events":0,"validation_exposure":0.41304347826086957},"type":"Feature"},{"geometry":{"coordinates":[[[77.015,10.290000000000001],[77.02,10.290000000000001],[77.02,10.295000000000002],[77.015,10.295000000000002],[77.015,10.290000000000001]]],"type":"Polygon"},"id":"road-2058-15403","properties":{"habitat_codes":{"ft":5,"tt":11},"historical_risk_score":0.6493805819648517,"label":"Chinnakallar","rank":98,"routes":["Chinnakallar"],"selected_for_budget":false,"taxon_group":"mammalia","top_20_percent":false,"training_events":0,"training_exposure":0.5797101449275363,"validation_events":0,"validation_exposure":0.463768115942029},"type":"Feature"},{"geometry":{"coordinates":[[[76.965,10.290000000000001],[76.97,10.290000000000001],[76.97,10.295000000000002],[76.965,10.295000000000002],[76.965,10.290000000000001]]],"type":"Polygon"},"id":"road-2058-15393","properties":{"habitat_codes":{"tt":24},"historical_risk_score":0.6491452991452992,"label":"Neerar Dam","rank":99,"routes":["Neerar Dam"],"selected_for_budget":false,"taxon_group":"mammalia","top_20_percent":false,"training_events":0,"training_exposure":0.5806451612903226,"validation_events":0,"validation_exposure":0.5161290322580645},"type":"Feature"},{"geometry":{"coordinates":[[[76.99,10.43],[76.99499999999999,10.43],[76.99499999999999,10.435],[76.99,10.435],[76.99,10.43]]],"type":"Polygon"},"id":"road-2086-15398","properties":{"habitat_codes":{"ff":11},"historical_risk_score":0.6488723360231741,"label":"Waterfalls","rank":100,"routes":["Waterfalls"],"selected_for_budget":false,"taxon_group":"mammalia","top_20_percent":false,"training_events":0,"training_exposure":0.5817307692307693,"validation_events":0,"validation_exposure":0.4230769230769231},"type":"Feature"},{"geometry":{"coordinates":[[[76.895,10.325000000000001],[76.89999999999999,10.325000000000001],[76.89999999999999,10.330000000000002],[76.895,10.330000000000002],[76.895,10.325000000000001]]],"type":"Polygon"},"id":"road-2065-15379","properties":{"habitat_codes":{"tt":31},"historical_risk_score":0.642960570996553,"label":"Sholayar","rank":101,"routes":["Sholayar"],"selected_for_budget":false,"taxon_group":"mammalia","top_20_percent":false,"training_events":0,"training_exposure":0.60546875,"validation_events":1,"validation_exposure":0.484375},"type":"Feature"},{"geometry":{"coordinates":[[[76.97,10.35],[76.975,10.35],[76.975,10.355],[76.97,10.355],[76.97,10.35]]],"type":"Polygon"},"id":"road-2070-15394","properties":{"habitat_codes":{"tt":25},"historical_risk_score":0.6375710530299904,"label":"Puthuthotam","rank":102,"routes":["Puthuthotam"],"selected_for_budget":false,"taxon_group":"mammalia","top_20_percent":false,"training_events":1,"training_exposure":2.195945945945946,"validation_events":1,"validation_exposure":1.3513513513513513},"type":"Feature"},{"geometry":{"coordinates":[[[76.935,10.33],[76.94,10.33],[76.94,10.335],[76.935,10.335],[76.935,10.33]]],"type":"Polygon"},"id":"road-2066-15387","properties":{"habitat_codes":{"tt":16},"historical_risk_score":0.6314266929651545,"label":"Old Valparai","rank":103,"routes":["Old Valparai"],"selected_for_budget":false,"taxon_group":"mammalia","top_20_percent":false,"training_events":0,"training_exposure":0.6530612244897959,"validation_events":0,"validation_exposure":0.5224489795918368},"type":"Feature"},{"geometry":{"coordinates":[[[76.99,10.395],[76.99499999999999,10.395],[76.99499999999999,10.4],[76.99,10.4],[76.99,10.395]]],"type":"Polygon"},"id":"road-2079-15398","properties":{"habitat_codes":{"ff":23},"historical_risk_score":0.6268304999158391,"label":"Waverly","rank":104,"routes":["Waverly"],"selected_for_budget":false,"taxon_group":"mammalia","top_20_percent":false,"training_events":0,"training_exposure":0.672514619883041,"validation_events":4,"validation_exposure":0.5380116959064327},"type":"Feature"},{"geometry":{"coordinates":[[[76.96000000000001,10.3],[76.965,10.3],[76.965,10.305000000000001],[76.96000000000001,10.305000000000001],[76.96000000000001,10.3]]],"type":"Polygon"},"id":"road-2060-15392","properties":{"habitat_codes":{"tt":28},"historical_risk_score":0.6256822160436619,"label":"Neerar Dam","rank":105,"routes":["Neerar Dam"],"selected_for_budget":false,"taxon_group":"mammalia","top_20_percent":false,"training_events":0,"training_exposure":0.6774193548387096,"validation_events":0,"validation_exposure":0.6021505376344086},"type":"Feature"},{"geometry":{"coordinates":[[[76.88,10.3],[76.88499999999999,10.3],[76.88499999999999,10.305000000000001],[76.88,10.305000000000001],[76.88,10.3]]],"type":"Polygon"},"id":"road-2060-15376","properties":{"habitat_codes":{"tm":35},"historical_risk_score":0.6242426504435238,"label":"Sholayar","rank":106,"routes":["Sholayar"],"selected_for_budget":false,"taxon_group":"mammalia","top_20_percent":false,"training_events":0,"training_exposure":0.68359375,"validation_events":1,"validation_exposure":0.546875},"type":"Feature"},{"geometry":{"coordinates":[[[76.965,10.465],[76.97,10.465],[76.97,10.47],[76.965,10.47],[76.965,10.465]]],"type":"Polygon"},"id":"road-2093-15393","properties":{"habitat_codes":{"ff":14},"historical_risk_score":0.62361968931312,"label":"Azhiyar","rank":107,"routes":["Azhiyar"],"selected_for_budget":false,"taxon_group":"mammalia","top_20_percent":false,"training_events":0,"training_exposure":0.6862745098039216,"validation_events":0,"validation_exposure":0.5490196078431373},"type":"Feature"},{"geometry":{"coordinates":[[[76.97,10.445],[76.975,10.445],[76.975,10.450000000000001],[76.97,10.450000000000001],[76.97,10.445]]],"type":"Polygon"},"id":"road-2089-15394","properties":{"habitat_codes":{"ff":17},"historical_risk_score":0.6203634553149117,"label":"Attakatti - 1 hpb","rank":108,"routes":["Attakatti - 1 hpb"],"selected_for_budget":false,"taxon_group":"mammalia","top_20_percent":false,"training_events":0,"training_exposure":0.700374531835206,"validation_events":0,"validation_exposure":0.5093632958801498},"type":"Feature"},{"geometry":{"coordinates":[[[76.965,10.295],[76.97,10.295],[76.97,10.3],[76.965,10.3],[76.965,10.295]]],"type":"Polygon"},"id":"road-2059-15393","properties":{"habitat_codes":{"tt":29},"historical_risk_score":0.6200790917208828,"label":"Neerar Dam","rank":109,"routes":["Neerar Dam"],"selected_for_budget":false,"taxon_group":"mammalia","top_20_percent":false,"training_events":0,"training_exposure":0.7016129032258065,"validation_events":1,"validation_exposure":0.6236559139784946},"type":"Feature"},{"geometry":{"coordinates":[[[76.97,10.34],[76.975,10.34],[76.975,10.345],[76.97,10.345],[76.97,10.34]]],"type":"Polygon"},"id":"road-2068-15394","properties":{"habitat_codes":{"ff":7,"ft":1},"historical_risk_score":0.6198290598290599,"label":"Puthuthotam","rank":110,"routes":["Puthuthotam"],"selected_for_budget":false,"taxon_group":"mammalia","top_20_percent":false,"training_events":0,"training_exposure":0.7027027027027027,"validation_events":0,"validation_exposure":0.43243243243243246},"type":"Feature"},{"geometry":{"coordinates":[[[76.94,10.285],[76.945,10.285],[76.945,10.290000000000001],[76.94,10.290000000000001],[76.94,10.285]]],"type":"Polygon"},"id":"road-2057-15388","properties":{"habitat_codes":{"tt":24},"historical_risk_score":0.6164786324786324,"label":"Nallamudi","rank":111,"routes":["Nallamudi"],"selected_for_budget":false,"taxon_group":"mammalia","top_20_percent":false,"training_events":0,"training_exposure":0.717391304347826,"validation_events":0,"validation_exposure":0.5217391304347826},"type":"Feature"},{"geometry":{"coordinates":[[[76.94500000000001,10.290000000000001],[76.95,10.290000000000001],[76.95,10.295000000000002],[76.94500000000001,10.295000000000002],[76.94500000000001,10.290000000000001]]],"type":"Polygon"},"id":"road-2058-15389","properties":{"habitat_codes":{"tt":24},"historical_risk_score":0.6164786324786324,"label":"Nallamudi","rank":112,"routes":["Nallamudi"],"selected_for_budget":false,"taxon_group":"mammalia","top_20_percent":false,"training_events":0,"training_exposure":0.717391304347826,"validation_events":1,"validation_exposure":0.5217391304347826},"type":"Feature"},{"geometry":{"coordinates":[[[76.915,10.34],[76.92,10.34],[76.92,10.345],[76.915,10.345],[76.915,10.34]]],"type":"Polygon"},"id":"road-2068-15383","properties":{"habitat_codes":{"tt":38},"historical_risk_score":0.6109041322716536,"label":"Sholayar","rank":113,"routes":["Sholayar"],"selected_for_budget":false,"taxon_group":"mammalia","top_20_percent":false,"training_events":0,"training_exposure":0.7421875,"validation_events":0,"validation_exposure":0.59375},"type":"Feature"},{"geometry":{"coordinates":[[[76.94500000000001,10.295],[76.95,10.295],[76.95,10.3],[76.94500000000001,10.3],[76.94500000000001,10.295]]],"type":"Polygon"},"id":"road-2059-15389","properties":{"habitat_codes":{"tt":25},"historical_risk_score":0.609771149830497,"label":"Nallamudi","rank":114,"routes":["Nallamudi"],"selected_for_budget":false,"taxon_group":"mammalia","top_20_percent":false,"training_events":0,"training_exposure":0.7472826086956522,"validation_events":1,"validation_exposure":0.5434782608695652},"type":"Feature"},{"geometry":{"coordinates":[[[76.94500000000001,10.305],[76.95,10.305],[76.95,10.31],[76.94500000000001,10.31],[76.94500000000001,10.305]]],"type":"Polygon"},"id":"road-2061-15389","properties":{"habitat_codes":{"tt":25},"historical_risk_score":0.609771149830497,"label":"Nallamudi","rank":115,"routes":["Nallamudi"],"selected_for_budget":false,"taxon_group":"mammalia","top_20_percent":false,"training_events":0,"training_exposure":0.7472826086956522,"validation_events":0,"validation_exposure":0.5434782608695652},"type":"Feature"},{"geometry":{"coordinates":[[[76.94500000000001,10.31],[76.95,10.31],[76.95,10.315000000000001],[76.94500000000001,10.315000000000001],[76.94500000000001,10.31]]],"type":"Polygon"},"id":"road-2062-15389","properties":{"habitat_codes":{"tt":25},"historical_risk_score":0.609771149830497,"label":"Nallamudi","rank":116,"routes":["Nallamudi"],"selected_for_budget":false,"taxon_group":"mammalia","top_20_percent":false,"training_events":0,"training_exposure":0.7472826086956522,"validation_events":0,"validation_exposure":0.5434782608695652},"type":"Feature"},{"geometry":{"coordinates":[[[76.98,10.28],[76.985,10.28],[76.985,10.285],[76.98,10.285],[76.98,10.28]]],"type":"Polygon"},"id":"road-2056-15396","properties":{"habitat_codes":{"tt":21},"historical_risk_score":0.6067703075577091,"label":"Chinnakallar","rank":117,"routes":["Chinnakallar"],"selected_for_budget":false,"taxon_group":"mammalia","top_20_percent":false,"training_events":0,"training_exposure":0.7608695652173914,"validation_events":0,"validation_exposure":0.6086956521739131},"type":"Feature"},{"geometry":{"coordinates":[[[76.955,10.31],[76.96,10.31],[76.96,10.315000000000001],[76.955,10.315000000000001],[76.955,10.31]]],"type":"Polygon"},"id":"road-2062-15391","properties":{"habitat_codes":{"fe":13,"tt":19},"historical_risk_score":0.6038560922281853,"label":"Neerar Dam","rank":118,"routes":["Neerar Dam"],"selected_for_budget":false,"taxon_group":"mammalia","top_20_percent":false,"training_events":0,"training_exposure":0.7741935483870968,"validation_events":0,"validation_exposure":0.6881720430107527},"type":"Feature"},{"geometry":{"coordinates":[[[76.94500000000001,10.3],[76.95,10.3],[76.95,10.305000000000001],[76.94500000000001,10.305000000000001],[76.94500000000001,10.3]]],"type":"Polygon"},"id":"road-2060-15389","properties":{"habitat_codes":{"tt":26},"historical_risk_score":0.6032080552628497,"label":"Nallamudi","rank":119,"routes":["Nallamudi"],"selected_for_budget":false,"taxon_group":"mammalia","top_20_percent":false,"training_events":0,"training_exposure":0.7771739130434783,"validation_events":0,"validation_exposure":0.5652173913043478},"type":"Feature"},{"geometry":{"coordinates":[[[76.91,10.34],[76.91499999999999,10.34],[76.91499999999999,10.345],[76.91,10.345],[76.91,10.34]]],"type":"Polygon"},"id":"road-2068-15382","properties":{"habitat_codes":{"tt":40},"historical_risk_score":0.6023240180543552,"label":"Sholayar","rank":120,"routes":["Sholayar"],"selected_for_budget":false,"taxon_group":"mammalia","top_20_percent":false,"training_events":0,"training_exposure":0.78125,"validation_events":0,"validation_exposure":0.625},"type":"Feature"},{"geometry":{"coordinates":[[[76.965,10.455],[76.97,10.455],[76.97,10.46],[76.965,10.46],[76.965,10.455]]],"type":"Polygon"},"id":"road-2091-15393","properties":{"habitat_codes":{"ff":16},"historical_risk_score":0.6016612495485736,"label":"Azhiyar","rank":121,"routes":["Azhiyar"],"selected_for_budget":false,"taxon_group":"mammalia","top_20_percent":false,"training_events":0,"training_exposure":0.7843137254901961,"validation_events":0,"validation_exposure":0.6274509803921569},"type":"Feature"},{"geometry":{"coordinates":[[[76.955,10.465],[76.96,10.465],[76.96,10.47],[76.955,10.47],[76.955,10.465]]],"type":"Polygon"},"id":"road-2093-15391","properties":{"habitat_codes":{"ff":16},"historical_risk_score":0.6016612495485736,"label":"Azhiyar","rank":122,"routes":["Azhiyar"],"selected_for_budget":false,"taxon_group":"mammalia","top_20_percent":false,"training_events":0,"training_exposure":0.7843137254901961,"validation_events":0,"validation_exposure":0.6274509803921569},"type":"Feature"},{"geometry":{"coordinates":[[[76.97,10.355],[76.975,10.355],[76.975,10.360000000000001],[76.97,10.360000000000001],[76.97,10.355]]],"type":"Polygon"},"id":"road-2071-15394","properties":{"habitat_codes":{"tt":9},"historical_risk_score":0.6003187020136174,"label":"Puthuthotam","rank":123,"routes":["Puthuthotam"],"selected_for_budget":false,"taxon_group":"mammalia","top_20_percent":false,"training_events":0,"training_exposure":0.7905405405405406,"validation_events":2,"validation_exposure":0.4864864864864865},"type":"Feature"},{"geometry":{"coordinates":[[[76.94500000000001,10.315],[76.95,10.315],[76.95,10.32],[76.94500000000001,10.32],[76.94500000000001,10.315]]],"type":"Polygon"},"id":"road-2063-15389","properties":{"habitat_codes":{"tt":27},"historical_risk_score":0.5967847361845426,"label":"Nallamudi","rank":124,"routes":["Nallamudi"],"selected_for_budget":false,"taxon_group":"mammalia","top_20_percent":false,"training_events":0,"training_exposure":0.8070652173913043,"validation_events":0,"validation_exposure":0.5869565217391305},"type":"Feature"},{"geometry":{"coordinates":[[[77.015,10.295],[77.02,10.295],[77.02,10.3],[77.015,10.3],[77.015,10.295]]],"type":"Polygon"},"id":"road-2059-15403","properties":{"habitat_codes":{"ff":7,"ft":16},"historical_risk_score":0.5912518853695324,"label":"Chinnakallar","rank":125,"routes":["Chinnakallar"],"selected_for_budget":false,"taxon_group":"mammalia","top_20_percent":false,"training_events":0,"training_exposure":0.8333333333333334,"validation_events":0,"validation_exposure":0.6666666666666666},"type":"Feature"},{"geometry":{"coordinates":[[[76.935,10.26],[76.94,10.26],[76.94,10.265],[76.935,10.265],[76.935,10.26]]],"type":"Polygon"},"id":"road-2052-15387","properties":{"habitat_codes":{"tt":28},"historical_risk_score":0.5904967744048204,"label":"Nallamudi","rank":126,"routes":["Nallamudi"],"selected_for_budget":false,"taxon_group":"mammalia","top_20_percent":false,"training_events":0,"training_exposure":0.8369565217391305,"validation_events":0,"validation_exposure":0.6086956521739131},"type":"Feature"},{"geometry":{"coordinates":[[[76.99,10.285],[76.99499999999999,10.285],[76.99499999999999,10.290000000000001],[76.99,10.290000000000001],[76.99,10.285]]],"type":"Polygon"},"id":"road-2057-15398","properties":{"habitat_codes":{"tt":25},"historical_risk_score":0.5765074493254044,"label":"Chinnakallar","rank":127,"routes":["Chinnakallar"],"selected_for_budget":false,"taxon_group":"mammalia","top_20_percent":false,"training_events":0,"training_exposure":0.9057971014492754,"validation_events":1,"validation_exposure":0.7246376811594203},"type":"Feature"},{"geometry":{"coordinates":[[[77.0,10.285],[77.005,10.285],[77.005,10.290000000000001],[77.0,10.290000000000001],[77.0,10.285]]],"type":"Polygon"},"id":"road-2057-15400","properties":{"habitat_codes":{"tf":25},"historical_risk_score":0.5765074493254044,"label":"Chinnakallar","rank":128,"routes":["Chinnakallar"],"selected_for_budget":false,"taxon_group":"mammalia","top_20_percent":false,"training_events":0,"training_exposure":0.9057971014492754,"validation_events":0,"validation_exposure":0.7246376811594203},"type":"Feature"},{"geometry":{"coordinates":[[[76.97,10.455],[76.975,10.455],[76.975,10.46],[76.97,10.46],[76.97,10.455]]],"type":"Polygon"},"id":"road-2091-15394","properties":{"habitat_codes":{"ff":19},"historical_risk_score":0.5714775748220564,"label":"Azhiyar","rank":129,"routes":["Azhiyar"],"selected_for_budget":false,"taxon_group":"mammalia","top_20_percent":false,"training_events":0,"training_exposure":0.9313725490196079,"validation_events":0,"validation_exposure":0.7450980392156863},"type":"Feature"},{"geometry":{"coordinates":[[[76.995,10.285],[77.0,10.285],[77.0,10.290000000000001],[76.995,10.290000000000001],[76.995,10.285]]],"type":"Polygon"},"id":"road-2057-15399","properties":{"habitat_codes":{"tf":16,"tt":10},"historical_risk_score":0.5694076038903626,"label":"Chinnakallar","rank":130,"routes":["Chinnakallar"],"selected_for_budget":false,"taxon_group":"mammalia","top_20_percent":false,"training_events":0,"training_exposure":0.9420289855072463,"validation_events":0,"validation_exposure":0.7536231884057971},"type":"Feature"},{"geometry":{"coordinates":[[[76.97,10.345],[76.975,10.345],[76.975,10.350000000000001],[76.97,10.350000000000001],[76.97,10.345]]],"type":"Polygon"},"id":"road-2069-15394","properties":{"habitat_codes":{"ff":4,"ft":16,"tt":11},"historical_risk_score":0.5664257853099055,"label":"Puthuthotam","rank":131,"routes":["Puthuthotam"],"selected_for_budget":false,"taxon_group":"mammalia","top_20_percent":false,"training_events":1,"training_exposure":2.722972972972973,"validation_events":0,"validation_exposure":1.6756756756756757},"type":"Feature"},{"geometry":{"coordinates":[[[76.93,10.34],[76.935,10.34],[76.935,10.345],[76.93,10.345],[76.93,10.34]]],"type":"Polygon"},"id":"road-2068-15386","properties":{"habitat_codes":{"vt":25},"historical_risk_score":0.5546315546315547,"label":"Old Valparai","rank":132,"routes":["Old Valparai"],"selected_for_budget":false,"taxon_group":"mammalia","top_20_percent":false,"training_events":0,"training_exposure":1.0204081632653061,"validation_events":1,"validation_exposure":0.8163265306122449},"type":"Feature"},{"geometry":{"coordinates":[[[76.93,10.355],[76.935,10.355],[76.935,10.360000000000001],[76.93,10.360000000000001],[76.93,10.355]]],"type":"Polygon"},"id":"road-2071-15386","properties":{"habitat_codes":{"cc":21,"ff":4},"historical_risk_score":0.5546315546315547,"label":"Old Valparai","rank":133,"routes":["Old Valparai"],"selected_for_budget":false,"taxon_group":"mammalia","top_20_percent":false,"training_events":0,"training_exposure":1.0204081632653061,"validation_events":0,"validation_exposure":0.8163265306122449},"type":"Feature"},{"geometry":{"coordinates":[[[76.995,10.345],[77.0,10.345],[77.0,10.350000000000001],[76.995,10.350000000000001],[76.995,10.345]]],"type":"Polygon"},"id":"road-2069-15399","properties":{"habitat_codes":{"tt":22},"historical_risk_score":0.5489277186405124,"label":"Balaji Temple","rank":134,"routes":["Balaji Temple"],"selected_for_budget":false,"taxon_group":"mammalia","top_20_percent":false,"training_events":0,"training_exposure":1.051792828685259,"validation_events":0,"validation_exposure":0.6135458167330677},"type":"Feature"},{"geometry":{"coordinates":[[[76.965,10.335],[76.97,10.335],[76.97,10.340000000000002],[76.965,10.340000000000002],[76.965,10.335]]],"type":"Polygon"},"id":"road-2067-15393","properties":{"habitat_codes":{"ff":11,"tf":2},"historical_risk_score":0.5331862880249977,"label":"Puthuthotam","rank":135,"routes":["Puthuthotam"],"selected_for_budget":false,"taxon_group":"mammalia","top_20_percent":false,"training_events":0,"training_exposure":1.1418918918918919,"validation_events":1,"validation_exposure":0.7027027027027027},"type":"Feature"},{"geometry":{"coordinates":[[[76.96000000000001,10.465],[76.965,10.465],[76.965,10.47],[76.96000000000001,10.47],[76.96000000000001,10.465]]],"type":"Polygon"},"id":"road-2093-15392","properties":{"habitat_codes":{"ff":24},"historical_risk_score":0.5273820829376384,"label":"Azhiyar","rank":136,"routes":["Azhiyar"],"selected_for_budget":false,"taxon_group":"mammalia","top_20_percent":false,"training_events":0,"training_exposure":1.1764705882352942,"validation_events":0,"validation_exposure":0.9411764705882353},"type":"Feature"},{"geometry":{"coordinates":[[[76.985,10.445],[76.99,10.445],[76.99,10.450000000000001],[76.985,10.450000000000001],[76.985,10.445]]],"type":"Polygon"},"id":"road-2089-15397","properties":{"habitat_codes":{"ff":30},"historical_risk_score":0.5176875593542261,"label":"Attakatti - 1 hpb","rank":137,"routes":["Attakatti - 1 hpb"],"selected_for_budget":false,"taxon_group":"mammalia","top_20_percent":false,"training_events":0,"training_exposure":1.2359550561797752,"validation_events":0,"validation_exposure":0.898876404494382},"type":"Feature"},{"geometry":{"coordinates":[[[76.97500000000001,10.275],[76.98,10.275],[76.98,10.280000000000001],[76.97500000000001,10.280000000000001],[76.97500000000001,10.275]]],"type":"Polygon"},"id":"road-2055-15395","properties":{"habitat_codes":{"tt":54},"historical_risk_score":0.5066499895768188,"label":"Neerar Dam","rank":138,"routes":["Neerar Dam"],"selected_for_budget":false,"taxon_group":"mammalia","top_20_percent":false,"training_events":0,"training_exposure":1.3064516129032258,"validation_events":1,"validation_exposure":1.1612903225806452},"type":"Feature"},{"geometry":{"coordinates":[[[76.995,10.36],[77.0,10.36],[77.0,10.365],[76.995,10.365],[76.995,10.36]]],"type":"Polygon"},"id":"road-2072-15399","properties":{"habitat_codes":{"tf":28},"historical_risk_score":0.5017644778981295,"label":"Balaji Temple","rank":139,"routes":["Balaji Temple"],"selected_for_budget":false,"taxon_group":"mammalia","top_20_percent":false,"training_events":0,"training_exposure":1.3386454183266931,"validation_events":0,"validation_exposure":0.7808764940239044},"type":"Feature"},{"geometry":{"coordinates":[[[76.99,10.34],[76.99499999999999,10.34],[76.99499999999999,10.345],[76.99,10.345],[76.99,10.34]]],"type":"Polygon"},"id":"road-2068-15398","properties":{"habitat_codes":{"ee":10,"tt":19},"historical_risk_score":0.4946807440925088,"label":"Balaji Temple","rank":140,"routes":["Balaji Temple"],"selected_for_budget":false,"taxon_group":"mammalia","top_20_percent":false,"training_events":0,"training_exposure":1.3864541832669324,"validation_events":1,"validation_exposure":0.8087649402390438},"type":"Feature"},{"geometry":{"coordinates":[[[76.995,10.35],[77.0,10.35],[77.0,10.355],[76.995,10.355],[76.995,10.35]]],"type":"Polygon"},"id":"road-2070-15399","properties":{"habitat_codes":{"ff":5,"tf":24},"historical_risk_score":0.4946807440925088,"label":"Balaji Temple","rank":141,"routes":["Balaji Temple"],"selected_for_budget":false,"taxon_group":"mammalia","top_20_percent":false,"training_events":0,"training_exposure":1.3864541832669324,"validation_events":0,"validation_exposure":0.8087649402390438},"type":"Feature"},{"geometry":{"coordinates":[[[76.97500000000001,10.28],[76.98,10.28],[76.98,10.285],[76.97500000000001,10.285],[76.97500000000001,10.28]]],"type":"Polygon"},"id":"road-2056-15395","properties":{"habitat_codes":{"tt":54},"historical_risk_score":0.494058398715253,"label":"Chinnakallar / Neerar Dam","rank":142,"routes":["Chinnakallar","Neerar Dam"],"selected_for_budget":false,"taxon_group":"mammalia","top_20_percent":false,"training_events":0,"training_exposure":1.3907199625993456,"validation_events":0,"validation_exposure":1.2136512388966807},"type":"Feature"},{"geometry":{"coordinates":[[[76.935,10.345],[76.94,10.345],[76.94,10.350000000000001],[76.935,10.350000000000001],[76.935,10.345]]],"type":"Polygon"},"id":"road-2069-15387","properties":{"habitat_codes":{"ff":2,"vt":33},"historical_risk_score":0.48860398860398857,"label":"Old Valparai","rank":143,"routes":["Old Valparai"],"selected_for_budget":false,"taxon_group":"mammalia","top_20_percent":false,"training_events":0,"training_exposure":1.4285714285714286,"validation_events":0,"validation_exposure":1.1428571428571428},"type":"Feature"},{"geometry":{"coordinates":[[[76.99,10.335],[76.99499999999999,10.335],[76.99499999999999,10.340000000000002],[76.99,10.340000000000002],[76.99,10.335]]],"type":"Polygon"},"id":"road-2067-15398","properties":{"habitat_codes":{"ee":12,"tt":26},"historical_risk_score":0.43891297753510694,"label":"Balaji Temple","rank":144,"routes":["Balaji Temple"],"selected_for_budget":false,"taxon_group":"mammalia","top_20_percent":false,"training_events":0,"training_exposure":1.8167330677290836,"validation_events":1,"validation_exposure":1.0597609561752988},"type":"Feature"},{"geometry":{"coordinates":[[[76.995,10.33],[77.0,10.33],[77.0,10.335],[76.995,10.335],[76.995,10.33]]],"type":"Polygon"},"id":"road-2066-15399","properties":{"habitat_codes":{"tt":47},"historical_risk_score":0.39444524622761024,"label":"Balaji Temple","rank":145,"routes":["Balaji Temple"],"selected_for_budget":false,"taxon_group":"mammalia","top_20_percent":false,"training_events":0,"training_exposure":2.247011952191235,"validation_events":0,"validation_exposure":1.3107569721115537},"type":"Feature"},{"geometry":{"coordinates":[[[76.98,10.450000000000001],[76.985,10.450000000000001],[76.985,10.455000000000002],[76.98,10.455000000000002],[76.98,10.450000000000001]]],"type":"Polygon"},"id":"road-2090-15396","properties":{"habitat_codes":{"ff":61},"historical_risk_score":0.3692686240339398,"label":"Attakatti - 1 hpb / Azhiyar","rank":146,"routes":["Attakatti - 1 hpb","Azhiyar"],"selected_for_budget":false,"taxon_group":"mammalia","top_20_percent":false,"training_events":0,"training_exposure":2.536571932143644,"validation_events":1,"validation_exposure":1.8554747741793347},"type":"Feature"},{"geometry":{"coordinates":[[[76.98,10.445],[76.985,10.445],[76.985,10.450000000000001],[76.98,10.450000000000001],[76.98,10.445]]],"type":"Polygon"},"id":"road-2089-15396","properties":{"habitat_codes":{"ff":98},"historical_risk_score":0.277470255137749,"label":"Attakatti - 1 hpb","rank":147,"routes":["Attakatti - 1 hpb"],"selected_for_budget":false,"taxon_group":"mammalia","top_20_percent":false,"training_events":0,"training_exposure":4.037453183520599,"validation_events":0,"validation_exposure":2.9363295880149813},"type":"Feature"}],"type":"FeatureCollection"}