{"features":[{"geometry":{"coordinates":[76.9978091922276,10.3590795913548],"type":"Point"},"id":"roadkill-2011-18","properties":{"count":1,"date":"2011-06-15","habitat":"forest_tea","recorded_name":"Hystrix indica","route":"Balaji Temple","source_row":18,"taxon_group":"mammalia"},"type":"Feature"},{"geometry":{"coordinates":[76.9979340788708,10.3586178165632],"type":"Point"},"id":"roadkill-2011-104","properties":{"count":1,"date":"2011-08-31","habitat":"forest_tea","recorded_name":"Muridae","route":"Balaji Temple","source_row":104,"taxon_group":"mammalia"},"type":"Feature"},{"geometry":{"coordinates":[76.9982745691316,10.3576033115733],"type":"Point"},"id":"roadkill-2011-181","properties":{"count":1,"date":"2011-10-13","habitat":"forest_tea","recorded_name":"Hystrix indica","route":"Balaji Temple","source_row":181,"taxon_group":"mammalia"},"type":"Feature"},{"geometry":{"coordinates":[76.9854531629123,10.2900869488472],"type":"Point"},"id":"roadkill-2011-236","properties":{"count":1,"date":"2011-09-26","habitat":"tea","recorded_name":"Muridae","route":"Chinnakallar","source_row":236,"taxon_group":"mammalia"},"type":"Feature"},{"geometry":{"coordinates":[77.0053792214032,10.2887709604692],"type":"Point"},"id":"roadkill-2011-257","properties":{"count":1,"date":"2011-10-15","habitat":"forest","recorded_name":"Muridae","route":"Chinnakallar","source_row":257,"taxon_group":"mammalia"},"type":"Feature"},{"geometry":{"coordinates":[76.9846268596478,10.2893146353457],"type":"Point"},"id":"roadkill-2011-264","properties":{"count":1,"date":"2011-10-24","habitat":"tea","recorded_name":"Muridae","route":"Chinnakallar","source_row":264,"taxon_group":"mammalia"},"type":"Feature"},{"geometry":{"coordinates":[77.0129285856989,10.2918155056855],"type":"Point"},"id":"roadkill-2011-272","properties":{"count":1,"date":"2011-11-01","habitat":"tea","recorded_name":"Hystrix indica","route":"Chinnakallar","source_row":272,"taxon_group":"mammalia"},"type":"Feature"},{"geometry":{"coordinates":[76.9345679292271,10.3381418915946],"type":"Point"},"id":"roadkill-2011-328","properties":{"count":1,"date":"2011-08-30","habitat":"forest","recorded_name":"Paradoxurus jerdoni","route":"Old Valparai","source_row":328,"taxon_group":"mammalia"},"type":"Feature"},{"geometry":{"coordinates":[76.9340813903026,10.3391933975357],"type":"Point"},"id":"roadkill-2011-332","properties":{"count":1,"date":"2011-08-30","habitat":"tea","recorded_name":"Funambulus tristriatus","route":"Old Valparai","source_row":332,"taxon_group":"mammalia"},"type":"Feature"},{"geometry":{"coordinates":[76.9360636334894,10.3513034940561],"type":"Point"},"id":"roadkill-2011-348","properties":{"count":1,"date":"2011-09-06","habitat":"coffee_forest","recorded_name":"Muridae","route":"Old Valparai","source_row":348,"taxon_group":"mammalia"},"type":"Feature"},{"geometry":{"coordinates":[76.9364959780479,10.3518342250703],"type":"Point"},"id":"roadkill-2011-367","properties":{"count":1,"date":"2011-09-14","habitat":"coffee_forest","recorded_name":"Muridae","route":"Old Valparai","source_row":367,"taxon_group":"mammalia"},"type":"Feature"},{"geometry":{"coordinates":[76.9357017007403,10.3533214834862],"type":"Point"},"id":"roadkill-2011-399","properties":{"count":1,"date":"2011-09-22","habitat":"coffee","recorded_name":"Muridae","route":"Old Valparai","source_row":399,"taxon_group":"mammalia"},"type":"Feature"},{"geometry":{"coordinates":[76.9370307985012,10.3526988005669],"type":"Point"},"id":"roadkill-2011-414","properties":{"count":1,"date":"2011-09-30","habitat":"coffee","recorded_name":"Platacanthomys lasiurus","route":"Old Valparai","source_row":414,"taxon_group":"mammalia"},"type":"Feature"},{"geometry":{"coordinates":[76.9359860533212,10.350562720049],"type":"Point"},"id":"roadkill-2011-490","properties":{"count":1,"date":"2011-10-30","habitat":"forest","recorded_name":"Muridae","route":"Old Valparai","source_row":490,"taxon_group":"mammalia"},"type":"Feature"},{"geometry":{"coordinates":[76.9615146574166,10.3053558166303],"type":"Point"},"id":"roadkill-2011-535","properties":{"count":1,"date":"2011-09-03","habitat":"tea","recorded_name":"Hystrix indica","route":"Neerar Dam","source_row":535,"taxon_group":"mammalia"},"type":"Feature"},{"geometry":{"coordinates":[76.9761166453882,10.2726258130531],"type":"Point"},"id":"roadkill-2011-552","properties":{"count":1,"date":"2011-09-19","habitat":"tea","recorded_name":"Soricidae","route":"Neerar Dam","source_row":552,"taxon_group":"mammalia"},"type":"Feature"},{"geometry":{"coordinates":[76.975041601469,10.2729397008002],"type":"Point"},"id":"roadkill-2011-629","properties":{"count":1,"date":"2011-09-25","habitat":"tea","recorded_name":"Muridae","route":"Neerar Dam","source_row":629,"taxon_group":"mammalia"},"type":"Feature"},{"geometry":{"coordinates":[76.9729203315924,10.3485667911264],"type":"Point"},"id":"roadkill-2011-656","properties":{"count":1,"date":"2011-06-13","habitat":"forest_tea","recorded_name":"Rhinolophus sp.","route":"Puthuthotam","source_row":656,"taxon_group":"mammalia"},"type":"Feature"},{"geometry":{"coordinates":[76.9648923959497,10.3392330065031],"type":"Point"},"id":"roadkill-2011-659","properties":{"count":1,"date":"2011-06-13","habitat":"forest","recorded_name":"Soricidae","route":"Puthuthotam","source_row":659,"taxon_group":"mammalia"},"type":"Feature"},{"geometry":{"coordinates":[76.9692871756716,10.3427586486657],"type":"Point"},"id":"roadkill-2011-717","properties":{"count":1,"date":"2011-08-28","habitat":"forest","recorded_name":"Muridae","route":"Puthuthotam","source_row":717,"taxon_group":"mammalia"},"type":"Feature"},{"geometry":{"coordinates":[76.9724759323303,10.3548789686976],"type":"Point"},"id":"roadkill-2011-740","properties":{"count":1,"date":"2011-09-11","habitat":"tea","recorded_name":"Muridae","route":"Puthuthotam","source_row":740,"taxon_group":"mammalia"},"type":"Feature"},{"geometry":{"coordinates":[76.9643209666274,10.3383596699104],"type":"Point"},"id":"roadkill-2011-766","properties":{"count":1,"date":"2011-09-28","habitat":"forest","recorded_name":"Muridae","route":"Puthuthotam","source_row":766,"taxon_group":"mammalia"},"type":"Feature"},{"geometry":{"coordinates":[76.962679299546,10.3371403139631],"type":"Point"},"id":"roadkill-2011-773","properties":{"count":1,"date":"2011-10-04","habitat":"forest_tea","recorded_name":"Rhinolophus sp.","route":"Puthuthotam","source_row":773,"taxon_group":"mammalia"},"type":"Feature"},{"geometry":{"coordinates":[76.9667973516009,10.3402157171022],"type":"Point"},"id":"roadkill-2011-777","properties":{"count":1,"date":"2011-10-04","habitat":"forest","recorded_name":"Muridae","route":"Puthuthotam","source_row":777,"taxon_group":"mammalia"},"type":"Feature"},{"geometry":{"coordinates":[76.9647893387352,10.3388087839885],"type":"Point"},"id":"roadkill-2011-817","properties":{"count":1,"date":"2011-10-04","habitat":"forest","recorded_name":"Muridae","route":"Puthuthotam","source_row":817,"taxon_group":"mammalia"},"type":"Feature"},{"geometry":{"coordinates":[76.9691168847096,10.3432658934269],"type":"Point"},"id":"roadkill-2011-818","properties":{"count":1,"date":"2011-10-04","habitat":"forest","recorded_name":"Muridae","route":"Puthuthotam","source_row":818,"taxon_group":"mammalia"},"type":"Feature"},{"geometry":{"coordinates":[76.9062854436397,10.3381205731494],"type":"Point"},"id":"roadkill-2011-918","properties":{"count":1,"date":"2011-08-27","habitat":"tea","recorded_name":"Muridae","route":"Sholayar","source_row":918,"taxon_group":"mammalia"},"type":"Feature"},{"geometry":{"coordinates":[76.9295881753294,10.3553559331188],"type":"Point"},"id":"roadkill-2011-965","properties":{"count":1,"date":"2011-09-13","habitat":"tea","recorded_name":"Muridae","route":"Sholayar","source_row":965,"taxon_group":"mammalia"},"type":"Feature"},{"geometry":{"coordinates":[76.9297995326772,10.3555806544075],"type":"Point"},"id":"roadkill-2011-1003","properties":{"count":1,"date":"2011-09-29","habitat":"tea","recorded_name":"Muridae","route":"Sholayar","source_row":1003,"taxon_group":"mammalia"},"type":"Feature"},{"geometry":{"coordinates":[76.9298362712747,10.3556165922756],"type":"Point"},"id":"roadkill-2011-1020","properties":{"count":1,"date":"2011-10-07","habitat":"tea","recorded_name":"Muridae","route":"Sholayar","source_row":1020,"taxon_group":"mammalia"},"type":"Feature"},{"geometry":{"coordinates":[76.9297450330184,10.3556261789768],"type":"Point"},"id":"roadkill-2011-1033","properties":{"count":1,"date":"2011-10-18","habitat":"tea","recorded_name":"Muridae","route":"Sholayar","source_row":1033,"taxon_group":"mammalia"},"type":"Feature"},{"geometry":{"coordinates":[76.8955873763989,10.3353271135652],"type":"Point"},"id":"roadkill-2011-1040","properties":{"count":1,"date":"2011-10-29","habitat":"tea","recorded_name":"Rhinolophus sp.","route":"Sholayar","source_row":1040,"taxon_group":"mammalia"},"type":"Feature"},{"geometry":{"coordinates":[76.8959299536351,10.3376483086148],"type":"Point"},"id":"roadkill-2011-1041","properties":{"count":1,"date":"2011-10-29","habitat":"tea","recorded_name":"Lepus nigricollis","route":"Sholayar","source_row":1041,"taxon_group":"mammalia"},"type":"Feature"},{"geometry":{"coordinates":[76.8950470329382,10.3319946292906],"type":"Point"},"id":"roadkill-2011-1046","properties":{"count":1,"date":"2011-10-29","habitat":"tea","recorded_name":"Muridae","route":"Sholayar","source_row":1046,"taxon_group":"mammalia"},"type":"Feature"},{"geometry":{"coordinates":[76.9795779815929,10.4546921881987],"type":"Point"},"id":"roadkill-2011-1096","properties":{"count":1,"date":"2011-11-22","habitat":"forest","recorded_name":"Muridae","route":"Azhiyar","source_row":1096,"taxon_group":"mammalia"},"type":"Feature"},{"geometry":{"coordinates":[76.9711387708696,10.4545456029757],"type":"Point"},"id":"roadkill-2011-1114","properties":{"count":1,"date":"2011-12-12","habitat":"forest","recorded_name":"Muridae","route":"Azhiyar","source_row":1114,"taxon_group":"mammalia"},"type":"Feature"},{"geometry":{"coordinates":[76.9669875365974,10.4609801068317],"type":"Point"},"id":"roadkill-2011-1122","properties":{"count":1,"date":"2011-12-15","habitat":"forest","recorded_name":"Muridae","route":"Azhiyar","source_row":1122,"taxon_group":"mammalia"},"type":"Feature"},{"geometry":{"coordinates":[76.9663516174249,10.4629636400849],"type":"Point"},"id":"roadkill-2011-1123","properties":{"count":1,"date":"2011-12-15","habitat":"forest","recorded_name":"Muridae","route":"Azhiyar","source_row":1123,"taxon_group":"mammalia"},"type":"Feature"},{"geometry":{"coordinates":[76.9924700583864,10.3679982640708],"type":"Point"},"id":"roadkill-2011-1134","properties":{"count":1,"date":"2011-08-16","habitat":"forest_tea","recorded_name":"Muridae","route":"Waverly","source_row":1134,"taxon_group":"mammalia"},"type":"Feature"},{"geometry":{"coordinates":[76.9970221126981,10.3904414497514],"type":"Point"},"id":"roadkill-2011-1135","properties":{"count":1,"date":"2011-08-16","habitat":"forest","recorded_name":"Muridae","route":"Waverly","source_row":1135,"taxon_group":"mammalia"},"type":"Feature"},{"geometry":{"coordinates":[76.9932334780941,10.3703346883156],"type":"Point"},"id":"roadkill-2011-1154","properties":{"count":1,"date":"2011-08-22","habitat":"forest","recorded_name":"Muridae","route":"Waverly","source_row":1154,"taxon_group":"mammalia"},"type":"Feature"},{"geometry":{"coordinates":[76.9974418278602,10.3803330233955],"type":"Point"},"id":"roadkill-2011-1155","properties":{"count":1,"date":"2011-08-22","habitat":"tea","recorded_name":"Muridae","route":"Waverly","source_row":1155,"taxon_group":"mammalia"},"type":"Feature"},{"geometry":{"coordinates":[76.9984623015872,10.3914991032082],"type":"Point"},"id":"roadkill-2011-1156","properties":{"count":1,"date":"2011-08-22","habitat":"forest_tea","recorded_name":"Muridae","route":"Waverly","source_row":1156,"taxon_group":"mammalia"},"type":"Feature"},{"geometry":{"coordinates":[76.9921623064348,10.3943766099317],"type":"Point"},"id":"roadkill-2011-1172","properties":{"count":1,"date":"2011-08-29","habitat":"forest","recorded_name":"Muridae","route":"Waverly","source_row":1172,"taxon_group":"mammalia"},"type":"Feature"},{"geometry":{"coordinates":[76.9942917132692,10.391814317938],"type":"Point"},"id":"roadkill-2011-1173","properties":{"count":1,"date":"2011-08-29","habitat":"forest","recorded_name":"Muridae","route":"Waverly","source_row":1173,"taxon_group":"mammalia"},"type":"Feature"},{"geometry":{"coordinates":[76.9957595272556,10.3914707371251],"type":"Point"},"id":"roadkill-2011-1174","properties":{"count":1,"date":"2011-08-29","habitat":"forest_tea","recorded_name":"Muridae","route":"Waverly","source_row":1174,"taxon_group":"mammalia"},"type":"Feature"},{"geometry":{"coordinates":[76.9950937428577,10.3887088846406],"type":"Point"},"id":"roadkill-2011-1175","properties":{"count":1,"date":"2011-08-29","habitat":"forest","recorded_name":"Muridae","route":"Waverly","source_row":1175,"taxon_group":"mammalia"},"type":"Feature"},{"geometry":{"coordinates":[76.9964931692341,10.3847862080279],"type":"Point"},"id":"roadkill-2011-1176","properties":{"count":1,"date":"2011-08-29","habitat":"tea","recorded_name":"Muridae","route":"Waverly","source_row":1176,"taxon_group":"mammalia"},"type":"Feature"},{"geometry":{"coordinates":[76.9934334907184,10.37164413403],"type":"Point"},"id":"roadkill-2011-1177","properties":{"count":1,"date":"2011-08-29","habitat":"forest","recorded_name":"Muridae","route":"Waverly","source_row":1177,"taxon_group":"mammalia"},"type":"Feature"},{"geometry":{"coordinates":[76.9932071355794,10.3676140468884],"type":"Point"},"id":"roadkill-2011-1178","properties":{"count":1,"date":"2011-08-29","habitat":"forest_tea","recorded_name":"Muridae","route":"Waverly","source_row":1178,"taxon_group":"mammalia"},"type":"Feature"},{"geometry":{"coordinates":[76.9925926845421,10.3686212102202],"type":"Point"},"id":"roadkill-2011-1204","properties":{"count":1,"date":"2011-09-07","habitat":"forest","recorded_name":"Muridae","route":"Waverly","source_row":1204,"taxon_group":"mammalia"},"type":"Feature"},{"geometry":{"coordinates":[76.9990895710446,10.391070352683],"type":"Point"},"id":"roadkill-2011-1205","properties":{"count":1,"date":"2011-09-07","habitat":"forest","recorded_name":"Muridae","route":"Waverly","source_row":1205,"taxon_group":"mammalia"},"type":"Feature"},{"geometry":{"coordinates":[76.9944800606541,10.3912798338312],"type":"Point"},"id":"roadkill-2011-1206","properties":{"count":1,"date":"2011-09-07","habitat":"forest","recorded_name":"Muridae","route":"Waverly","source_row":1206,"taxon_group":"mammalia"},"type":"Feature"},{"geometry":{"coordinates":[76.9939989654492,10.3931629794334],"type":"Point"},"id":"roadkill-2011-1207","properties":{"count":1,"date":"2011-09-07","habitat":"forest","recorded_name":"Muridae","route":"Waverly","source_row":1207,"taxon_group":"mammalia"},"type":"Feature"},{"geometry":{"coordinates":[76.9914834260138,10.4010698450625],"type":"Point"},"id":"roadkill-2011-1208","properties":{"count":1,"date":"2011-09-07","habitat":"forest","recorded_name":"Muridae","route":"Waverly","source_row":1208,"taxon_group":"mammalia"},"type":"Feature"},{"geometry":{"coordinates":[76.9921919631247,10.3687773611403],"type":"Point"},"id":"roadkill-2011-1224","properties":{"count":2,"date":"2011-09-15","habitat":"forest","recorded_name":"Muridae","route":"Waverly","source_row":1224,"taxon_group":"mammalia"},"type":"Feature"},{"geometry":{"coordinates":[76.9939947683256,10.3708903966179],"type":"Point"},"id":"roadkill-2011-1225","properties":{"count":1,"date":"2011-09-15","habitat":"forest","recorded_name":"Muridae","route":"Waverly","source_row":1225,"taxon_group":"mammalia"},"type":"Feature"},{"geometry":{"coordinates":[76.9935012634019,10.3708121056807],"type":"Point"},"id":"roadkill-2011-1226","properties":{"count":1,"date":"2011-09-15","habitat":"forest","recorded_name":"Muridae","route":"Waverly","source_row":1226,"taxon_group":"mammalia"},"type":"Feature"},{"geometry":{"coordinates":[76.9941115893503,10.3720376516992],"type":"Point"},"id":"roadkill-2011-1227","properties":{"count":1,"date":"2011-09-15","habitat":"forest","recorded_name":"Muridae","route":"Waverly","source_row":1227,"taxon_group":"mammalia"},"type":"Feature"},{"geometry":{"coordinates":[76.9992114801923,10.3915757867103],"type":"Point"},"id":"roadkill-2011-1228","properties":{"count":1,"date":"2011-09-15","habitat":"forest_tea","recorded_name":"Muridae","route":"Waverly","source_row":1228,"taxon_group":"mammalia"},"type":"Feature"},{"geometry":{"coordinates":[76.9963627980652,10.3915754529061],"type":"Point"},"id":"roadkill-2011-1246","properties":{"count":1,"date":"2011-09-23","habitat":"forest_tea","recorded_name":"Soricidae","route":"Waverly","source_row":1246,"taxon_group":"mammalia"},"type":"Feature"},{"geometry":{"coordinates":[76.9956584656923,10.3913719348364],"type":"Point"},"id":"roadkill-2011-1249","properties":{"count":1,"date":"2011-10-01","habitat":"forest_tea","recorded_name":"Rhinolophus sp.","route":"Waverly","source_row":1249,"taxon_group":"mammalia"},"type":"Feature"},{"geometry":{"coordinates":[76.9943242049115,10.3868606327319],"type":"Point"},"id":"roadkill-2011-1257","properties":{"count":1,"date":"2011-10-01","habitat":"forest","recorded_name":"Platacanthomys lasiurus","route":"Waverly","source_row":1257,"taxon_group":"mammalia"},"type":"Feature"},{"geometry":{"coordinates":[76.9931798618726,10.367632294452],"type":"Point"},"id":"roadkill-2011-1260","properties":{"count":1,"date":"2011-10-01","habitat":"forest_tea","recorded_name":"Muridae","route":"Waverly","source_row":1260,"taxon_group":"mammalia"},"type":"Feature"},{"geometry":{"coordinates":[76.9955832808575,10.3752012750556],"type":"Point"},"id":"roadkill-2011-1261","properties":{"count":1,"date":"2011-10-01","habitat":"forest_tea","recorded_name":"Muridae","route":"Waverly","source_row":1261,"taxon_group":"mammalia"},"type":"Feature"},{"geometry":{"coordinates":[76.9959430461452,10.391614222192],"type":"Point"},"id":"roadkill-2011-1262","properties":{"count":1,"date":"2011-10-01","habitat":"forest_tea","recorded_name":"Muridae","route":"Waverly","source_row":1262,"taxon_group":"mammalia"},"type":"Feature"},{"geometry":{"coordinates":[76.9941234032199,10.3926288927134],"type":"Point"},"id":"roadkill-2011-1263","properties":{"count":1,"date":"2011-10-01","habitat":"forest","recorded_name":"Muridae","route":"Waverly","source_row":1263,"taxon_group":"mammalia"},"type":"Feature"},{"geometry":{"coordinates":[76.9995223031457,10.3916371232724],"type":"Point"},"id":"roadkill-2011-1295","properties":{"count":1,"date":"2011-10-11","habitat":"forest_tea","recorded_name":"Muridae","route":"Waverly","source_row":1295,"taxon_group":"mammalia"},"type":"Feature"},{"geometry":{"coordinates":[76.9959135493883,10.3754523206373],"type":"Point"},"id":"roadkill-2011-1317","properties":{"count":1,"date":"2011-10-21","habitat":"forest_tea","recorded_name":"Muridae","route":"Waverly","source_row":1317,"taxon_group":"mammalia"},"type":"Feature"},{"geometry":{"coordinates":[76.9977968409614,10.390228724112],"type":"Point"},"id":"roadkill-2011-1318","properties":{"count":1,"date":"2011-10-21","habitat":"forest","recorded_name":"Muridae","route":"Waverly","source_row":1318,"taxon_group":"mammalia"},"type":"Feature"},{"geometry":{"coordinates":[76.9964864489587,10.3851658959758],"type":"Point"},"id":"roadkill-2011-1334","properties":{"count":1,"date":"2011-10-31","habitat":"tea","recorded_name":"Muridae","route":"Waverly","source_row":1334,"taxon_group":"mammalia"},"type":"Feature"},{"geometry":{"coordinates":[76.9977103658576,10.3909885542083],"type":"Point"},"id":"roadkill-2011-1335","properties":{"count":1,"date":"2011-10-31","habitat":"forest_tea","recorded_name":"Muridae","route":"Waverly","source_row":1335,"taxon_group":"mammalia"},"type":"Feature"},{"geometry":{"coordinates":[76.9784972924901,10.4527644952945],"type":"Point"},"id":"roadkill-2011-1384","properties":{"count":1,"date":"2011-11-14","habitat":"forest","recorded_name":"Funambulus palmarum","route":"Attakatti - 1 hpb","source_row":1384,"taxon_group":"mammalia"},"type":"Feature"},{"geometry":{"coordinates":[76.9791988183086,10.4539442842004],"type":"Point"},"id":"roadkill-2011-1406","properties":{"count":1,"date":"2011-12-14","habitat":"forest","recorded_name":"Muridae","route":"Attakatti - 1 hpb","source_row":1406,"taxon_group":"mammalia"},"type":"Feature"},{"geometry":{"coordinates":[76.9755484037382,10.4500077197231],"type":"Point"},"id":"roadkill-2011-1408","properties":{"count":1,"date":"2011-12-17","habitat":"forest","recorded_name":"Macaca radiata","route":"Attakatti - 1 hpb","source_row":1408,"taxon_group":"mammalia"},"type":"Feature"},{"geometry":{"coordinates":[76.9842263641912,10.431667500422],"type":"Point"},"id":"roadkill-2011-1441","properties":{"count":1,"date":"2011-11-08","habitat":"forest","recorded_name":"Muridae","route":"Waterfalls","source_row":1441,"taxon_group":"mammalia"},"type":"Feature"},{"geometry":{"coordinates":[76.9871993578522,10.4324896730412],"type":"Point"},"id":"roadkill-2011-1442","properties":{"count":1,"date":"2011-11-08","habitat":"forest","recorded_name":"Muridae","route":"Waterfalls","source_row":1442,"taxon_group":"mammalia"},"type":"Feature"},{"geometry":{"coordinates":[76.9853951023218,10.4374091890478],"type":"Point"},"id":"roadkill-2011-1443","properties":{"count":1,"date":"2011-11-08","habitat":"forest","recorded_name":"Muridae","route":"Waterfalls","source_row":1443,"taxon_group":"mammalia"},"type":"Feature"},{"geometry":{"coordinates":[76.9869931584768,10.4374082900333],"type":"Point"},"id":"roadkill-2011-1444","properties":{"count":1,"date":"2011-11-08","habitat":"forest","recorded_name":"Muridae","route":"Waterfalls","source_row":1444,"taxon_group":"mammalia"},"type":"Feature"},{"geometry":{"coordinates":[76.9873356478553,10.4309431191167],"type":"Point"},"id":"roadkill-2011-1455","properties":{"count":1,"date":"2011-11-11","habitat":"forest","recorded_name":"Muridae","route":"Waterfalls","source_row":1455,"taxon_group":"mammalia"},"type":"Feature"},{"geometry":{"coordinates":[76.9891890570396,10.4352071329213],"type":"Point"},"id":"roadkill-2011-1456","properties":{"count":1,"date":"2011-11-11","habitat":"forest","recorded_name":"Muridae","route":"Waterfalls","source_row":1456,"taxon_group":"mammalia"},"type":"Feature"},{"geometry":{"coordinates":[76.9889831323893,10.4257895582923],"type":"Point"},"id":"roadkill-2011-1468","properties":{"count":1,"date":"2011-11-16","habitat":"forest","recorded_name":"Muridae","route":"Waterfalls","source_row":1468,"taxon_group":"mammalia"},"type":"Feature"},{"geometry":{"coordinates":[76.9878418897941,10.4301354802578],"type":"Point"},"id":"roadkill-2011-1469","properties":{"count":1,"date":"2011-11-16","habitat":"forest","recorded_name":"Muridae","route":"Waterfalls","source_row":1469,"taxon_group":"mammalia"},"type":"Feature"},{"geometry":{"coordinates":[76.985406916775,10.4392711958655],"type":"Point"},"id":"roadkill-2011-1470","properties":{"count":1,"date":"2011-11-16","habitat":"forest","recorded_name":"Muridae","route":"Waterfalls","source_row":1470,"taxon_group":"mammalia"},"type":"Feature"},{"geometry":{"coordinates":[76.9892753715692,10.4329829505589],"type":"Point"},"id":"roadkill-2011-1493","properties":{"count":1,"date":"2011-11-23","habitat":"forest","recorded_name":"Muridae","route":"Waterfalls","source_row":1493,"taxon_group":"mammalia"},"type":"Feature"},{"geometry":{"coordinates":[76.9859564149395,10.432325655593],"type":"Point"},"id":"roadkill-2011-1499","properties":{"count":1,"date":"2011-11-26","habitat":"forest","recorded_name":"Muridae","route":"Waterfalls","source_row":1499,"taxon_group":"mammalia"},"type":"Feature"},{"geometry":{"coordinates":[76.9891738363655,10.43281183776],"type":"Point"},"id":"roadkill-2011-1508","properties":{"count":1,"date":"2011-11-30","habitat":"forest","recorded_name":"Muridae","route":"Waterfalls","source_row":1508,"taxon_group":"mammalia"},"type":"Feature"},{"geometry":{"coordinates":[76.9878418897941,10.4301354802578],"type":"Point"},"id":"roadkill-2011-1515","properties":{"count":1,"date":"2011-12-13","habitat":"forest","recorded_name":"Muridae","route":"Waterfalls","source_row":1515,"taxon_group":"mammalia"},"type":"Feature"},{"geometry":{"coordinates":[76.9887775361242,10.4264868566773],"type":"Point"},"id":"roadkill-2011-1516","properties":{"count":1,"date":"2011-12-13","habitat":"forest","recorded_name":"Funambulus palmarum","route":"Waterfalls","source_row":1516,"taxon_group":"mammalia"},"type":"Feature"},{"geometry":{"coordinates":[76.9356501268456,10.2836631222219],"type":"Point"},"id":"roadkill-2011-1766","properties":{"count":1,"date":"2011-10-03","habitat":"tea","recorded_name":"Muridae","route":"Nallamudi","source_row":1766,"taxon_group":"mammalia"},"type":"Feature"},{"geometry":{"coordinates":[76.9340594941843,10.2772635720684],"type":"Point"},"id":"roadkill-2011-1811","properties":{"count":1,"date":"2011-10-14","habitat":"tea","recorded_name":"Funambulus tristriatus","route":"Nallamudi","source_row":1811,"taxon_group":"mammalia"},"type":"Feature"},{"geometry":{"coordinates":[76.9361145819384,10.2670004451604],"type":"Point"},"id":"roadkill-2011-1812","properties":{"count":1,"date":"2011-10-14","habitat":"tea","recorded_name":"Funambulus tristriatus","route":"Nallamudi","source_row":1812,"taxon_group":"mammalia"},"type":"Feature"},{"geometry":{"coordinates":[76.9454260210105,10.2896700682925],"type":"Point"},"id":"roadkill-2011-1821","properties":{"count":1,"date":"2011-10-23","habitat":"tea","recorded_name":"Muridae","route":"Nallamudi","source_row":1821,"taxon_group":"mammalia"},"type":"Feature"},{"geometry":{"coordinates":[76.9932621473234,10.3719796480389],"type":"Point"},"id":"roadkill-2011-2427","properties":{"count":1,"date":"2011-12-08","habitat":"forest","recorded_name":"Ratufa indica","route":"Opportunistic","source_row":2427,"taxon_group":"mammalia"},"type":"Feature"},{"geometry":{"coordinates":[76.9693065037585,10.3414659027925],"type":"Point"},"id":"roadkill-2011-2453","properties":{"count":1,"date":"2011-08-08","habitat":"forest","recorded_name":"Hystrix indica","route":"Opportunistic","source_row":2453,"taxon_group":"mammalia"},"type":"Feature"},{"geometry":{"coordinates":[76.9792080075121,10.453953266417],"type":"Point"},"id":"roadkill-2011-2455","properties":{"count":1,"date":"2011-06-29","habitat":"forest","recorded_name":"Muridae","route":"Opportunistic","source_row":2455,"taxon_group":"mammalia"},"type":"Feature"},{"geometry":{"coordinates":[76.933963776021,10.2720302338709],"type":"Point"},"id":"roadkill-2011-2461","properties":{"count":1,"date":"2011-09-30","habitat":"tea","recorded_name":"Funambulus tristriatus","route":"Opportunistic","source_row":2461,"taxon_group":"mammalia"},"type":"Feature"}],"type":"FeatureCollection"}