{"features":[{"geometry":{"coordinates":[76.83482091,10.30674099],"type":"Point"},"id":"CH05_08U","properties":{"absolute_error":10.610371014155977,"comparison_class":"Fragment","held_out_error":-10.610371014155977,"held_out_group":"Candura","held_out_prediction":16.610371014155977,"label":"Candura","neighbour_count_selected_inside_training_fold":9,"observed":6.0,"outcome":"regeneration_tree_species_richness","outcome_label":"regenerating tree species richness","plot_id":"CH05_08U","priority_rank":null,"selected_for_budget":false,"source_row":18},"type":"Feature"},{"geometry":{"coordinates":[76.83390807,10.30674617],"type":"Point"},"id":"CH06_09U","properties":{"absolute_error":5.712613498477422,"comparison_class":"Fragment","held_out_error":5.712613498477422,"held_out_group":"Candura","held_out_prediction":15.287386501522578,"label":"Candura","neighbour_count_selected_inside_training_fold":9,"observed":21.0,"outcome":"regeneration_tree_species_richness","outcome_label":"regenerating tree species richness","plot_id":"CH06_09U","priority_rank":null,"selected_for_budget":false,"source_row":19},"type":"Feature"},{"geometry":{"coordinates":[76.83481,10.30804],"type":"Point"},"id":"J07","properties":{"absolute_error":9.926271001465983,"comparison_class":"Fragment","held_out_error":-9.926271001465983,"held_out_group":"Candura","held_out_prediction":11.926271001465983,"label":"Candura","neighbour_count_selected_inside_training_fold":9,"observed":2.0,"outcome":"regeneration_tree_species_richness","outcome_label":"regenerating tree species richness","plot_id":"J07","priority_rank":null,"selected_for_budget":false,"source_row":55},"type":"Feature"},{"geometry":{"coordinates":[76.83305,10.3167],"type":"Point"},"id":"L17","properties":{"absolute_error":0.5409556477119608,"comparison_class":"Fragment","held_out_error":-0.5409556477119608,"held_out_group":"Candura","held_out_prediction":12.54095564771196,"label":"Candura","neighbour_count_selected_inside_training_fold":9,"observed":12.0,"outcome":"regeneration_tree_species_richness","outcome_label":"regenerating tree species richness","plot_id":"L17","priority_rank":null,"selected_for_budget":false,"source_row":56},"type":"Feature"},{"geometry":{"coordinates":[76.83305,10.31579],"type":"Point"},"id":"L16","properties":{"absolute_error":11.374168005352168,"comparison_class":"Fragment","held_out_error":11.374168005352168,"held_out_group":"Candura","held_out_prediction":7.625831994647833,"label":"Candura","neighbour_count_selected_inside_training_fold":9,"observed":19.0,"outcome":"regeneration_tree_species_richness","outcome_label":"regenerating tree species richness","plot_id":"L16","priority_rank":null,"selected_for_budget":false,"source_row":57},"type":"Feature"},{"geometry":{"coordinates":[76.83214,10.3167],"type":"Point"},"id":"M17","properties":{"absolute_error":2.7455265231374675,"comparison_class":"Fragment","held_out_error":-2.7455265231374675,"held_out_group":"Candura","held_out_prediction":12.745526523137467,"label":"Candura","neighbour_count_selected_inside_training_fold":9,"observed":10.0,"outcome":"regeneration_tree_species_richness","outcome_label":"regenerating tree species richness","plot_id":"M17","priority_rank":null,"selected_for_budget":false,"source_row":58},"type":"Feature"},{"geometry":{"coordinates":[76.83121,10.31399],"type":"Point"},"id":"N14","properties":{"absolute_error":6.910690170693858,"comparison_class":"Fragment","held_out_error":6.910690170693858,"held_out_group":"Candura","held_out_prediction":17.089309829306142,"label":"Candura","neighbour_count_selected_inside_training_fold":9,"observed":24.0,"outcome":"regeneration_tree_species_richness","outcome_label":"regenerating tree species richness","plot_id":"N14","priority_rank":null,"selected_for_budget":false,"source_row":59},"type":"Feature"},{"geometry":{"coordinates":[76.83395,10.31307],"type":"Point"},"id":"K13","properties":{"absolute_error":11.988715865714013,"comparison_class":"Fragment","held_out_error":-11.988715865714013,"held_out_group":"Candura","held_out_prediction":15.988715865714013,"label":"Candura","neighbour_count_selected_inside_training_fold":9,"observed":4.0,"outcome":"regeneration_tree_species_richness","outcome_label":"regenerating tree species richness","plot_id":"K13","priority_rank":null,"selected_for_budget":false,"source_row":60},"type":"Feature"},{"geometry":{"coordinates":[76.83396,10.31488],"type":"Point"},"id":"K15","properties":{"absolute_error":1.5626856859322977,"comparison_class":"Fragment","held_out_error":-1.5626856859322977,"held_out_group":"Candura","held_out_prediction":16.562685685932298,"label":"Candura","neighbour_count_selected_inside_training_fold":9,"observed":15.0,"outcome":"regeneration_tree_species_richness","outcome_label":"regenerating tree species richness","plot_id":"K15","priority_rank":null,"selected_for_budget":false,"source_row":61},"type":"Feature"},{"geometry":{"coordinates":[76.83393,10.31127],"type":"Point"},"id":"K11","properties":{"absolute_error":3.287760544665156,"comparison_class":"Fragment","held_out_error":-3.287760544665156,"held_out_group":"Candura","held_out_prediction":15.287760544665156,"label":"Candura","neighbour_count_selected_inside_training_fold":9,"observed":12.0,"outcome":"regeneration_tree_species_richness","outcome_label":"regenerating tree species richness","plot_id":"K11","priority_rank":null,"selected_for_budget":false,"source_row":62},"type":"Feature"},{"geometry":{"coordinates":[76.83119,10.31038],"type":"Point"},"id":"N10","properties":{"absolute_error":11.12620846149387,"comparison_class":"Fragment","held_out_error":-11.12620846149387,"held_out_group":"Candura","held_out_prediction":17.12620846149387,"label":"Candura","neighbour_count_selected_inside_training_fold":9,"observed":6.0,"outcome":"regeneration_tree_species_richness","outcome_label":"regenerating tree species richness","plot_id":"N10","priority_rank":null,"selected_for_budget":false,"source_row":63},"type":"Feature"},{"geometry":{"coordinates":[76.83302,10.31217],"type":"Point"},"id":"L12","properties":{"absolute_error":2.455146783741032,"comparison_class":"Fragment","held_out_error":2.455146783741032,"held_out_group":"Candura","held_out_prediction":16.544853216258968,"label":"Candura","neighbour_count_selected_inside_training_fold":9,"observed":19.0,"outcome":"regeneration_tree_species_richness","outcome_label":"regenerating tree species richness","plot_id":"L12","priority_rank":null,"selected_for_budget":false,"source_row":64},"type":"Feature"},{"geometry":{"coordinates":[76.83301,10.30946],"type":"Point"},"id":"L09","properties":{"absolute_error":16.95905494147287,"comparison_class":"Fragment","held_out_error":16.95905494147287,"held_out_group":"Candura","held_out_prediction":13.040945058527127,"label":"Candura","neighbour_count_selected_inside_training_fold":9,"observed":30.0,"outcome":"regeneration_tree_species_richness","outcome_label":"regenerating tree species richness","plot_id":"L09","priority_rank":1,"selected_for_budget":true,"source_row":65},"type":"Feature"},{"geometry":{"coordinates":[76.83392,10.30855],"type":"Point"},"id":"K08","properties":{"absolute_error":8.965437015280257,"comparison_class":"Fragment","held_out_error":-8.965437015280257,"held_out_group":"Candura","held_out_prediction":14.965437015280257,"label":"Candura","neighbour_count_selected_inside_training_fold":9,"observed":6.0,"outcome":"regeneration_tree_species_richness","outcome_label":"regenerating tree species richness","plot_id":"K08","priority_rank":null,"selected_for_budget":false,"source_row":66},"type":"Feature"},{"geometry":{"coordinates":[76.833,10.30766],"type":"Point"},"id":"L07","properties":{"absolute_error":10.844591664191956,"comparison_class":"Fragment","held_out_error":10.844591664191956,"held_out_group":"Candura","held_out_prediction":17.155408335808044,"label":"Candura","neighbour_count_selected_inside_training_fold":9,"observed":28.0,"outcome":"regeneration_tree_species_richness","outcome_label":"regenerating tree species richness","plot_id":"L07","priority_rank":null,"selected_for_budget":false,"source_row":67},"type":"Feature"},{"geometry":{"coordinates":[76.83482,10.30674],"type":"Point"},"id":"J06","properties":{"absolute_error":1.7350238116207883,"comparison_class":"Fragment","held_out_error":1.7350238116207883,"held_out_group":"Candura","held_out_prediction":15.264976188379212,"label":"Candura","neighbour_count_selected_inside_training_fold":9,"observed":17.0,"outcome":"regeneration_tree_species_richness","outcome_label":"regenerating tree species richness","plot_id":"J06","priority_rank":null,"selected_for_budget":false,"source_row":68},"type":"Feature"},{"geometry":{"coordinates":[76.83846,10.30401],"type":"Point"},"id":"F03","properties":{"absolute_error":10.295356501636618,"comparison_class":"Fragment","held_out_error":10.295356501636618,"held_out_group":"Candura","held_out_prediction":7.704643498363381,"label":"Candura","neighbour_count_selected_inside_training_fold":9,"observed":18.0,"outcome":"regeneration_tree_species_richness","outcome_label":"regenerating tree species richness","plot_id":"F03","priority_rank":null,"selected_for_budget":false,"source_row":69},"type":"Feature"},{"geometry":{"coordinates":[76.83938,10.30491],"type":"Point"},"id":"E04","properties":{"absolute_error":2.374096158743942,"comparison_class":"Fragment","held_out_error":-2.374096158743942,"held_out_group":"Candura","held_out_prediction":9.374096158743942,"label":"Candura","neighbour_count_selected_inside_training_fold":9,"observed":7.0,"outcome":"regeneration_tree_species_richness","outcome_label":"regenerating tree species richness","plot_id":"E04","priority_rank":null,"selected_for_budget":false,"source_row":71},"type":"Feature"},{"geometry":{"coordinates":[76.84028,10.30309],"type":"Point"},"id":"D02","properties":{"absolute_error":1.3097693562162807,"comparison_class":"Fragment","held_out_error":-1.3097693562162807,"held_out_group":"Candura","held_out_prediction":14.30976935621628,"label":"Candura","neighbour_count_selected_inside_training_fold":9,"observed":13.0,"outcome":"regeneration_tree_species_richness","outcome_label":"regenerating tree species richness","plot_id":"D02","priority_rank":null,"selected_for_budget":false,"source_row":72},"type":"Feature"},{"geometry":{"coordinates":[76.83845,10.31216],"type":"Point"},"id":"J12","properties":{"absolute_error":2.6292681349514915,"comparison_class":"Fragment","held_out_error":2.6292681349514915,"held_out_group":"Candura","held_out_prediction":12.370731865048509,"label":"Candura","neighbour_count_selected_inside_training_fold":9,"observed":15.0,"outcome":"regeneration_tree_species_richness","outcome_label":"regenerating tree species richness","plot_id":"J12","priority_rank":null,"selected_for_budget":false,"source_row":73},"type":"Feature"},{"geometry":{"coordinates":[76.8312,10.31219],"type":"Point"},"id":"N12","properties":{"absolute_error":5.9819368737803735,"comparison_class":"Fragment","held_out_error":-5.9819368737803735,"held_out_group":"Candura","held_out_prediction":19.981936873780374,"label":"Candura","neighbour_count_selected_inside_training_fold":9,"observed":14.0,"outcome":"regeneration_tree_species_richness","outcome_label":"regenerating tree species richness","plot_id":"N12","priority_rank":null,"selected_for_budget":false,"source_row":74},"type":"Feature"},{"geometry":{"coordinates":[76.83211,10.31218],"type":"Point"},"id":"M12","properties":{"absolute_error":5.288980552784839,"comparison_class":"Fragment","held_out_error":5.288980552784839,"held_out_group":"Candura","held_out_prediction":15.711019447215161,"label":"Candura","neighbour_count_selected_inside_training_fold":9,"observed":21.0,"outcome":"regeneration_tree_species_richness","outcome_label":"regenerating tree species richness","plot_id":"M12","priority_rank":null,"selected_for_budget":false,"source_row":75},"type":"Feature"},{"geometry":{"coordinates":[76.83394,10.31217],"type":"Point"},"id":"K12","properties":{"absolute_error":2.027546686129746,"comparison_class":"Fragment","held_out_error":-2.027546686129746,"held_out_group":"Candura","held_out_prediction":13.027546686129746,"label":"Candura","neighbour_count_selected_inside_training_fold":9,"observed":11.0,"outcome":"regeneration_tree_species_richness","outcome_label":"regenerating tree species richness","plot_id":"K12","priority_rank":null,"selected_for_budget":false,"source_row":76},"type":"Feature"},{"geometry":{"coordinates":[76.82121,10.31309],"type":"Point"},"id":"N13","properties":{"absolute_error":8.537774687538231,"comparison_class":"Fragment","held_out_error":8.537774687538231,"held_out_group":"Candura","held_out_prediction":18.46222531246177,"label":"Candura","neighbour_count_selected_inside_training_fold":9,"observed":27.0,"outcome":"regeneration_tree_species_richness","outcome_label":"regenerating tree species richness","plot_id":"N13","priority_rank":null,"selected_for_budget":false,"source_row":77},"type":"Feature"},{"geometry":{"coordinates":[76.83304,10.31398],"type":"Point"},"id":"L14","properties":{"absolute_error":2.933929607888661,"comparison_class":"Fragment","held_out_error":-2.933929607888661,"held_out_group":"Candura","held_out_prediction":13.933929607888661,"label":"Candura","neighbour_count_selected_inside_training_fold":9,"observed":11.0,"outcome":"regeneration_tree_species_richness","outcome_label":"regenerating tree species richness","plot_id":"L14","priority_rank":null,"selected_for_budget":false,"source_row":78},"type":"Feature"},{"geometry":{"coordinates":[76.83395,10.31398],"type":"Point"},"id":"K14","properties":{"absolute_error":14.360630412936068,"comparison_class":"Fragment","held_out_error":-14.360630412936068,"held_out_group":"Candura","held_out_prediction":17.360630412936068,"label":"Candura","neighbour_count_selected_inside_training_fold":9,"observed":3.0,"outcome":"regeneration_tree_species_richness","outcome_label":"regenerating tree species richness","plot_id":"K14","priority_rank":null,"selected_for_budget":false,"source_row":79},"type":"Feature"},{"geometry":{"coordinates":[76.83212,10.31399],"type":"Point"},"id":"M14","properties":{"absolute_error":1.7853607256340478,"comparison_class":"Fragment","held_out_error":1.7853607256340478,"held_out_group":"Candura","held_out_prediction":14.214639274365952,"label":"Candura","neighbour_count_selected_inside_training_fold":9,"observed":16.0,"outcome":"regeneration_tree_species_richness","outcome_label":"regenerating tree species richness","plot_id":"M14","priority_rank":null,"selected_for_budget":false,"source_row":80},"type":"Feature"},{"geometry":{"coordinates":[76.83212,10.31308],"type":"Point"},"id":"M13","properties":{"absolute_error":1.9532464647718015,"comparison_class":"Fragment","held_out_error":1.9532464647718015,"held_out_group":"Candura","held_out_prediction":15.046753535228198,"label":"Candura","neighbour_count_selected_inside_training_fold":9,"observed":17.0,"outcome":"regeneration_tree_species_richness","outcome_label":"regenerating tree species richness","plot_id":"M13","priority_rank":null,"selected_for_budget":false,"source_row":81},"type":"Feature"},{"geometry":{"coordinates":[76.83303,10.31308],"type":"Point"},"id":"L13","properties":{"absolute_error":7.90525393277726,"comparison_class":"Fragment","held_out_error":-7.90525393277726,"held_out_group":"Candura","held_out_prediction":8.90525393277726,"label":"Candura","neighbour_count_selected_inside_training_fold":9,"observed":1.0,"outcome":"regeneration_tree_species_richness","outcome_label":"regenerating tree species richness","plot_id":"L13","priority_rank":null,"selected_for_budget":false,"source_row":82},"type":"Feature"},{"geometry":{"coordinates":[76.8312,10.31128],"type":"Point"},"id":"N11","properties":{"absolute_error":6.968215316610701,"comparison_class":"Fragment","held_out_error":6.968215316610701,"held_out_group":"Candura","held_out_prediction":8.031784683389299,"label":"Candura","neighbour_count_selected_inside_training_fold":9,"observed":15.0,"outcome":"regeneration_tree_species_richness","outcome_label":"regenerating tree species richness","plot_id":"N11","priority_rank":null,"selected_for_budget":false,"source_row":83},"type":"Feature"},{"geometry":{"coordinates":[76.83211,10.31128],"type":"Point"},"id":"M11","properties":{"absolute_error":0.47971234433380516,"comparison_class":"Fragment","held_out_error":0.47971234433380516,"held_out_group":"Candura","held_out_prediction":16.520287655666195,"label":"Candura","neighbour_count_selected_inside_training_fold":9,"observed":17.0,"outcome":"regeneration_tree_species_richness","outcome_label":"regenerating tree species richness","plot_id":"M11","priority_rank":null,"selected_for_budget":false,"source_row":84},"type":"Feature"},{"geometry":{"coordinates":[76.83302,10.31127],"type":"Point"},"id":"L11","properties":{"absolute_error":2.7976787818871074,"comparison_class":"Fragment","held_out_error":-2.7976787818871074,"held_out_group":"Candura","held_out_prediction":17.797678781887107,"label":"Candura","neighbour_count_selected_inside_training_fold":9,"observed":15.0,"outcome":"regeneration_tree_species_richness","outcome_label":"regenerating tree species richness","plot_id":"L11","priority_rank":null,"selected_for_budget":false,"source_row":85},"type":"Feature"},{"geometry":{"coordinates":[76.83485,10.31126],"type":"Point"},"id":"J11","properties":{"absolute_error":6.016319989846869,"comparison_class":"Fragment","held_out_error":-6.016319989846869,"held_out_group":"Candura","held_out_prediction":12.016319989846869,"label":"Candura","neighbour_count_selected_inside_training_fold":9,"observed":6.0,"outcome":"regeneration_tree_species_richness","outcome_label":"regenerating tree species richness","plot_id":"J11","priority_rank":null,"selected_for_budget":false,"source_row":86},"type":"Feature"},{"geometry":{"coordinates":[76.8421,10.30308],"type":"Point"},"id":"B02","properties":{"absolute_error":7.592201747472222,"comparison_class":"Fragment","held_out_error":-7.592201747472222,"held_out_group":"Candura","held_out_prediction":10.592201747472222,"label":"Candura","neighbour_count_selected_inside_training_fold":9,"observed":3.0,"outcome":"regeneration_tree_species_richness","outcome_label":"regenerating tree species richness","plot_id":"B02","priority_rank":null,"selected_for_budget":false,"source_row":87},"type":"Feature"},{"geometry":{"coordinates":[76.84119,10.30309],"type":"Point"},"id":"C02","properties":{"absolute_error":6.850689151705554,"comparison_class":"Fragment","held_out_error":-6.850689151705554,"held_out_group":"Candura","held_out_prediction":15.850689151705554,"label":"Candura","neighbour_count_selected_inside_training_fold":9,"observed":9.0,"outcome":"regeneration_tree_species_richness","outcome_label":"regenerating tree species richness","plot_id":"C02","priority_rank":null,"selected_for_budget":false,"source_row":88},"type":"Feature"},{"geometry":{"coordinates":[76.83936,10.3031],"type":"Point"},"id":"E02","properties":{"absolute_error":5.65426870729037,"comparison_class":"Fragment","held_out_error":-5.65426870729037,"held_out_group":"Candura","held_out_prediction":16.65426870729037,"label":"Candura","neighbour_count_selected_inside_training_fold":9,"observed":11.0,"outcome":"regeneration_tree_species_richness","outcome_label":"regenerating tree species richness","plot_id":"E02","priority_rank":null,"selected_for_budget":false,"source_row":89},"type":"Feature"},{"geometry":{"coordinates":[76.83845,10.3031],"type":"Point"},"id":"F02","properties":{"absolute_error":4.55653177317711,"comparison_class":"Fragment","held_out_error":-4.55653177317711,"held_out_group":"Candura","held_out_prediction":8.55653177317711,"label":"Candura","neighbour_count_selected_inside_training_fold":9,"observed":4.0,"outcome":"regeneration_tree_species_richness","outcome_label":"regenerating tree species richness","plot_id":"F02","priority_rank":null,"selected_for_budget":false,"source_row":90},"type":"Feature"},{"geometry":{"coordinates":[76.84118,10.3021],"type":"Point"},"id":"C01","properties":{"absolute_error":0.8581799099272835,"comparison_class":"Fragment","held_out_error":-0.8581799099272835,"held_out_group":"Candura","held_out_prediction":8.858179909927284,"label":"Candura","neighbour_count_selected_inside_training_fold":9,"observed":8.0,"outcome":"regeneration_tree_species_richness","outcome_label":"regenerating tree species richness","plot_id":"C01","priority_rank":null,"selected_for_budget":false,"source_row":91},"type":"Feature"},{"geometry":{"coordinates":[76.8421,10.30218],"type":"Point"},"id":"B01","properties":{"absolute_error":1.056184555533422,"comparison_class":"Fragment","held_out_error":-1.056184555533422,"held_out_group":"Candura","held_out_prediction":9.056184555533422,"label":"Candura","neighbour_count_selected_inside_training_fold":9,"observed":8.0,"outcome":"regeneration_tree_species_richness","outcome_label":"regenerating tree species richness","plot_id":"B01","priority_rank":null,"selected_for_budget":false,"source_row":92},"type":"Feature"},{"geometry":{"coordinates":[76.84301,10.30217],"type":"Point"},"id":"A01","properties":{"absolute_error":7.059690692094398,"comparison_class":"Fragment","held_out_error":-7.059690692094398,"held_out_group":"Candura","held_out_prediction":10.059690692094398,"label":"Candura","neighbour_count_selected_inside_training_fold":9,"observed":3.0,"outcome":"regeneration_tree_species_richness","outcome_label":"regenerating tree species richness","plot_id":"A01","priority_rank":null,"selected_for_budget":false,"source_row":93},"type":"Feature"},{"geometry":{"coordinates":[76.83663,10.30402],"type":"Point"},"id":"H03","properties":{"absolute_error":6.866362176104607,"comparison_class":"Fragment","held_out_error":-6.866362176104607,"held_out_group":"Candura","held_out_prediction":12.866362176104607,"label":"Candura","neighbour_count_selected_inside_training_fold":9,"observed":6.0,"outcome":"regeneration_tree_species_richness","outcome_label":"regenerating tree species richness","plot_id":"H03","priority_rank":null,"selected_for_budget":false,"source_row":94},"type":"Feature"},{"geometry":{"coordinates":[76.83754,10.30401],"type":"Point"},"id":"G03","properties":{"absolute_error":1.9821842903398732,"comparison_class":"Fragment","held_out_error":-1.9821842903398732,"held_out_group":"Candura","held_out_prediction":13.982184290339873,"label":"Candura","neighbour_count_selected_inside_training_fold":9,"observed":12.0,"outcome":"regeneration_tree_species_richness","outcome_label":"regenerating tree species richness","plot_id":"G03","priority_rank":null,"selected_for_budget":false,"source_row":95},"type":"Feature"},{"geometry":{"coordinates":[76.83937,10.304],"type":"Point"},"id":"E03","properties":{"absolute_error":1.2369284221624213,"comparison_class":"Fragment","held_out_error":-1.2369284221624213,"held_out_group":"Candura","held_out_prediction":16.23692842216242,"label":"Candura","neighbour_count_selected_inside_training_fold":9,"observed":15.0,"outcome":"regeneration_tree_species_richness","outcome_label":"regenerating tree species richness","plot_id":"E03","priority_rank":null,"selected_for_budget":false,"source_row":96},"type":"Feature"},{"geometry":{"coordinates":[76.84028,10.304],"type":"Point"},"id":"D03","properties":{"absolute_error":2.7691950933469984,"comparison_class":"Fragment","held_out_error":-2.7691950933469984,"held_out_group":"Candura","held_out_prediction":6.769195093346998,"label":"Candura","neighbour_count_selected_inside_training_fold":9,"observed":4.0,"outcome":"regeneration_tree_species_richness","outcome_label":"regenerating tree species richness","plot_id":"D03","priority_rank":null,"selected_for_budget":false,"source_row":97},"type":"Feature"},{"geometry":{"coordinates":[76.8412,10.30399],"type":"Point"},"id":"C03","properties":{"absolute_error":0.3453356628194637,"comparison_class":"Fragment","held_out_error":0.3453356628194637,"held_out_group":"Candura","held_out_prediction":8.654664337180536,"label":"Candura","neighbour_count_selected_inside_training_fold":9,"observed":9.0,"outcome":"regeneration_tree_species_richness","outcome_label":"regenerating tree species richness","plot_id":"C03","priority_rank":null,"selected_for_budget":false,"source_row":98},"type":"Feature"},{"geometry":{"coordinates":[76.83572,10.30402],"type":"Point"},"id":"I03","properties":{"absolute_error":3.8479032541027696,"comparison_class":"Fragment","held_out_error":3.8479032541027696,"held_out_group":"Candura","held_out_prediction":13.15209674589723,"label":"Candura","neighbour_count_selected_inside_training_fold":9,"observed":17.0,"outcome":"regeneration_tree_species_richness","outcome_label":"regenerating tree species richness","plot_id":"I03","priority_rank":null,"selected_for_budget":false,"source_row":99},"type":"Feature"},{"geometry":{"coordinates":[76.83664,10.30492],"type":"Point"},"id":"H04","properties":{"absolute_error":9.266263184563405,"comparison_class":"Fragment","held_out_error":9.266263184563405,"held_out_group":"Candura","held_out_prediction":14.733736815436595,"label":"Candura","neighbour_count_selected_inside_training_fold":9,"observed":24.0,"outcome":"regeneration_tree_species_richness","outcome_label":"regenerating tree species richness","plot_id":"H04","priority_rank":null,"selected_for_budget":false,"source_row":100},"type":"Feature"},{"geometry":{"coordinates":[76.83755,10.30492],"type":"Point"},"id":"G04","properties":{"absolute_error":4.868612751198203,"comparison_class":"Fragment","held_out_error":-4.868612751198203,"held_out_group":"Candura","held_out_prediction":12.868612751198203,"label":"Candura","neighbour_count_selected_inside_training_fold":9,"observed":8.0,"outcome":"regeneration_tree_species_richness","outcome_label":"regenerating tree species richness","plot_id":"G04","priority_rank":null,"selected_for_budget":false,"source_row":101},"type":"Feature"},{"geometry":{"coordinates":[76.83846,10.30491],"type":"Point"},"id":"F04","properties":{"absolute_error":3.5246890181605917,"comparison_class":"Fragment","held_out_error":-3.5246890181605917,"held_out_group":"Candura","held_out_prediction":7.524689018160592,"label":"Candura","neighbour_count_selected_inside_training_fold":9,"observed":4.0,"outcome":"regeneration_tree_species_richness","outcome_label":"regenerating tree species richness","plot_id":"F04","priority_rank":null,"selected_for_budget":false,"source_row":102},"type":"Feature"},{"geometry":{"coordinates":[76.83756,10.30763],"type":"Point"},"id":"G07","properties":{"absolute_error":1.4166968081249287,"comparison_class":"Fragment","held_out_error":-1.4166968081249287,"held_out_group":"Candura","held_out_prediction":12.416696808124929,"label":"Candura","neighbour_count_selected_inside_training_fold":9,"observed":11.0,"outcome":"regeneration_tree_species_richness","outcome_label":"regenerating tree species richness","plot_id":"G07","priority_rank":null,"selected_for_budget":false,"source_row":103},"type":"Feature"},{"geometry":{"coordinates":[76.83847,10.30582],"type":"Point"},"id":"F05","properties":{"absolute_error":4.706277174386015,"comparison_class":"Fragment","held_out_error":4.706277174386015,"held_out_group":"Candura","held_out_prediction":9.293722825613985,"label":"Candura","neighbour_count_selected_inside_training_fold":9,"observed":14.0,"outcome":"regeneration_tree_species_richness","outcome_label":"regenerating tree species richness","plot_id":"F05","priority_rank":null,"selected_for_budget":false,"source_row":104},"type":"Feature"},{"geometry":{"coordinates":[76.83755,10.30582],"type":"Point"},"id":"G05","properties":{"absolute_error":8.080541316629276,"comparison_class":"Fragment","held_out_error":-8.080541316629276,"held_out_group":"Candura","held_out_prediction":16.080541316629276,"label":"Candura","neighbour_count_selected_inside_training_fold":9,"observed":8.0,"outcome":"regeneration_tree_species_richness","outcome_label":"regenerating tree species richness","plot_id":"G05","priority_rank":null,"selected_for_budget":false,"source_row":105},"type":"Feature"},{"geometry":{"coordinates":[76.83756,10.30673],"type":"Point"},"id":"G06","properties":{"absolute_error":2.4998442194028225,"comparison_class":"Fragment","held_out_error":-2.4998442194028225,"held_out_group":"Candura","held_out_prediction":11.499844219402823,"label":"Candura","neighbour_count_selected_inside_training_fold":9,"observed":9.0,"outcome":"regeneration_tree_species_richness","outcome_label":"regenerating tree species richness","plot_id":"G06","priority_rank":null,"selected_for_budget":false,"source_row":106},"type":"Feature"},{"geometry":{"coordinates":[76.833,10.30765],"type":"Point"},"id":"L06","properties":{"absolute_error":4.7325181639075655,"comparison_class":"Fragment","held_out_error":-4.7325181639075655,"held_out_group":"Candura","held_out_prediction":15.732518163907566,"label":"Candura","neighbour_count_selected_inside_training_fold":9,"observed":11.0,"outcome":"regeneration_tree_species_richness","outcome_label":"regenerating tree species richness","plot_id":"L06","priority_rank":null,"selected_for_budget":false,"source_row":107},"type":"Feature"},{"geometry":{"coordinates":[76.83665,10.30763],"type":"Point"},"id":"H07","properties":{"absolute_error":9.924064126208501,"comparison_class":"Fragment","held_out_error":-9.924064126208501,"held_out_group":"Candura","held_out_prediction":13.924064126208501,"label":"Candura","neighbour_count_selected_inside_training_fold":9,"observed":4.0,"outcome":"regeneration_tree_species_richness","outcome_label":"regenerating tree species richness","plot_id":"H07","priority_rank":null,"selected_for_budget":false,"source_row":108},"type":"Feature"},{"geometry":{"coordinates":[76.83573,10.30674],"type":"Point"},"id":"I06","properties":{"absolute_error":4.90558529260923,"comparison_class":"Fragment","held_out_error":-4.90558529260923,"held_out_group":"Candura","held_out_prediction":13.90558529260923,"label":"Candura","neighbour_count_selected_inside_training_fold":9,"observed":9.0,"outcome":"regeneration_tree_species_richness","outcome_label":"regenerating tree species richness","plot_id":"I06","priority_rank":null,"selected_for_budget":false,"source_row":109},"type":"Feature"},{"geometry":{"coordinates":[76.83298,10.30494],"type":"Point"},"id":"L04","properties":{"absolute_error":7.212949581833943,"comparison_class":"Fragment","held_out_error":7.212949581833943,"held_out_group":"Candura","held_out_prediction":14.787050418166057,"label":"Candura","neighbour_count_selected_inside_training_fold":9,"observed":22.0,"outcome":"regeneration_tree_species_richness","outcome_label":"regenerating tree species richness","plot_id":"L04","priority_rank":null,"selected_for_budget":false,"source_row":110},"type":"Feature"},{"geometry":{"coordinates":[76.8339,10.30584],"type":"Point"},"id":"K05","properties":{"absolute_error":1.6647718617286635,"comparison_class":"Fragment","held_out_error":-1.6647718617286635,"held_out_group":"Candura","held_out_prediction":16.664771861728664,"label":"Candura","neighbour_count_selected_inside_training_fold":9,"observed":15.0,"outcome":"regeneration_tree_species_richness","outcome_label":"regenerating tree species richness","plot_id":"K05","priority_rank":null,"selected_for_budget":false,"source_row":111},"type":"Feature"},{"geometry":{"coordinates":[76.83482,10.30584],"type":"Point"},"id":"J05","properties":{"absolute_error":8.361154946977381,"comparison_class":"Fragment","held_out_error":-8.361154946977381,"held_out_group":"Candura","held_out_prediction":14.361154946977381,"label":"Candura","neighbour_count_selected_inside_training_fold":9,"observed":6.0,"outcome":"regeneration_tree_species_richness","outcome_label":"regenerating tree species richness","plot_id":"J05","priority_rank":null,"selected_for_budget":false,"source_row":112},"type":"Feature"},{"geometry":{"coordinates":[76.8339,10.30494],"type":"Point"},"id":"K04","properties":{"absolute_error":2.019628283494775,"comparison_class":"Fragment","held_out_error":2.019628283494775,"held_out_group":"Candura","held_out_prediction":17.980371716505225,"label":"Candura","neighbour_count_selected_inside_training_fold":9,"observed":20.0,"outcome":"regeneration_tree_species_richness","outcome_label":"regenerating tree species richness","plot_id":"K04","priority_rank":null,"selected_for_budget":false,"source_row":113},"type":"Feature"},{"geometry":{"coordinates":[76.83481,10.30493],"type":"Point"},"id":"J04","properties":{"absolute_error":5.902550765558898,"comparison_class":"Fragment","held_out_error":-5.902550765558898,"held_out_group":"Candura","held_out_prediction":15.902550765558898,"label":"Candura","neighbour_count_selected_inside_training_fold":9,"observed":10.0,"outcome":"regeneration_tree_species_richness","outcome_label":"regenerating tree species richness","plot_id":"J04","priority_rank":null,"selected_for_budget":false,"source_row":114},"type":"Feature"},{"geometry":{"coordinates":[76.83666,10.30854],"type":"Point"},"id":"H08","properties":{"absolute_error":8.100043466359114,"comparison_class":"Fragment","held_out_error":-8.100043466359114,"held_out_group":"Candura","held_out_prediction":11.100043466359114,"label":"Candura","neighbour_count_selected_inside_training_fold":9,"observed":3.0,"outcome":"regeneration_tree_species_richness","outcome_label":"regenerating tree species richness","plot_id":"H08","priority_rank":null,"selected_for_budget":false,"source_row":116},"type":"Feature"},{"geometry":{"coordinates":[76.83209,10.30766],"type":"Point"},"id":"M07","properties":{"absolute_error":4.776849038697495,"comparison_class":"Fragment","held_out_error":-4.776849038697495,"held_out_group":"Candura","held_out_prediction":16.776849038697495,"label":"Candura","neighbour_count_selected_inside_training_fold":9,"observed":12.0,"outcome":"regeneration_tree_species_richness","outcome_label":"regenerating tree species richness","plot_id":"M07","priority_rank":null,"selected_for_budget":false,"source_row":119},"type":"Feature"},{"geometry":{"coordinates":[76.83301,10.30856],"type":"Point"},"id":"L08","properties":{"absolute_error":10.591058439713798,"comparison_class":"Fragment","held_out_error":10.591058439713798,"held_out_group":"Candura","held_out_prediction":10.408941560286202,"label":"Candura","neighbour_count_selected_inside_training_fold":9,"observed":21.0,"outcome":"regeneration_tree_species_richness","outcome_label":"regenerating tree species richness","plot_id":"L08","priority_rank":null,"selected_for_budget":false,"source_row":120},"type":"Feature"},{"geometry":{"coordinates":[76.8321,10.31037],"type":"Point"},"id":"M10","properties":{"absolute_error":0.4613302351249189,"comparison_class":"Fragment","held_out_error":-0.4613302351249189,"held_out_group":"Candura","held_out_prediction":16.46133023512492,"label":"Candura","neighbour_count_selected_inside_training_fold":9,"observed":16.0,"outcome":"regeneration_tree_species_richness","outcome_label":"regenerating tree species richness","plot_id":"M10","priority_rank":null,"selected_for_budget":false,"source_row":124},"type":"Feature"},{"geometry":{"coordinates":[76.83302,10.31037],"type":"Point"},"id":"L10","properties":{"absolute_error":0.3955007488536282,"comparison_class":"Fragment","held_out_error":0.3955007488536282,"held_out_group":"Candura","held_out_prediction":18.604499251146372,"label":"Candura","neighbour_count_selected_inside_training_fold":9,"observed":19.0,"outcome":"regeneration_tree_species_richness","outcome_label":"regenerating tree species richness","plot_id":"L10","priority_rank":null,"selected_for_budget":false,"source_row":125},"type":"Feature"},{"geometry":{"coordinates":[76.83392,10.30946],"type":"Point"},"id":"K09","properties":{"absolute_error":7.894589226726607,"comparison_class":"Fragment","held_out_error":-7.894589226726607,"held_out_group":"Candura","held_out_prediction":14.894589226726607,"label":"Candura","neighbour_count_selected_inside_training_fold":9,"observed":7.0,"outcome":"regeneration_tree_species_richness","outcome_label":"regenerating tree species richness","plot_id":"K09","priority_rank":null,"selected_for_budget":false,"source_row":127},"type":"Feature"},{"geometry":{"coordinates":[76.8321,10.30947],"type":"Point"},"id":"M09","properties":{"absolute_error":6.167156601081357,"comparison_class":"Fragment","held_out_error":-6.167156601081357,"held_out_group":"Candura","held_out_prediction":11.167156601081357,"label":"Candura","neighbour_count_selected_inside_training_fold":9,"observed":5.0,"outcome":"regeneration_tree_species_richness","outcome_label":"regenerating tree species richness","plot_id":"M09","priority_rank":null,"selected_for_budget":false,"source_row":128},"type":"Feature"},{"geometry":{"coordinates":[76.83119,10.30947],"type":"Point"},"id":"N09","properties":{"absolute_error":5.5202112861753,"comparison_class":"Fragment","held_out_error":5.5202112861753,"held_out_group":"Candura","held_out_prediction":18.4797887138247,"label":"Candura","neighbour_count_selected_inside_training_fold":9,"observed":24.0,"outcome":"regeneration_tree_species_richness","outcome_label":"regenerating tree species richness","plot_id":"N09","priority_rank":null,"selected_for_budget":false,"source_row":129},"type":"Feature"},{"geometry":{"coordinates":[76.83027,10.30857],"type":"Point"},"id":"O08","properties":{"absolute_error":3.806334481041789,"comparison_class":"Fragment","held_out_error":-3.806334481041789,"held_out_group":"Candura","held_out_prediction":12.80633448104179,"label":"Candura","neighbour_count_selected_inside_training_fold":9,"observed":9.0,"outcome":"regeneration_tree_species_richness","outcome_label":"regenerating tree species richness","plot_id":"O08","priority_rank":null,"selected_for_budget":false,"source_row":130},"type":"Feature"},{"geometry":{"coordinates":[76.92426,10.32413],"type":"Point"},"id":"INOA_03U","properties":{"absolute_error":1.8207259895592962,"comparison_class":"Fragment","held_out_error":-1.8207259895592962,"held_out_group":"Injipara","held_out_prediction":3.820725989559296,"label":"Injipara","neighbour_count_selected_inside_training_fold":15,"observed":2.0,"outcome":"regeneration_tree_species_richness","outcome_label":"regenerating tree species richness","plot_id":"INOA_03U","priority_rank":null,"selected_for_budget":false,"source_row":38},"type":"Feature"},{"geometry":{"coordinates":[76.92616,10.32487],"type":"Point"},"id":"INBS_04U","properties":{"absolute_error":0.16340963225292304,"comparison_class":"Fragment","held_out_error":-0.16340963225292304,"held_out_group":"Injipara","held_out_prediction":3.163409632252923,"label":"Injipara","neighbour_count_selected_inside_training_fold":15,"observed":3.0,"outcome":"regeneration_tree_species_richness","outcome_label":"regenerating tree species richness","plot_id":"INBS_04U","priority_rank":null,"selected_for_budget":false,"source_row":39},"type":"Feature"},{"geometry":{"coordinates":[76.92998,10.32414],"type":"Point"},"id":"INDS_03U","properties":{"absolute_error":0.5379292376873046,"comparison_class":"Fragment","held_out_error":0.5379292376873046,"held_out_group":"Injipara","held_out_prediction":10.462070762312695,"label":"Injipara","neighbour_count_selected_inside_training_fold":15,"observed":11.0,"outcome":"regeneration_tree_species_richness","outcome_label":"regenerating tree species richness","plot_id":"INDS_03U","priority_rank":null,"selected_for_budget":false,"source_row":40},"type":"Feature"},{"geometry":{"coordinates":[76.92351,10.32322],"type":"Point"},"id":"INME_03U","properties":{"absolute_error":8.956528741485553,"comparison_class":"Fragment","held_out_error":8.956528741485553,"held_out_group":"Injipara","held_out_prediction":7.0434712585144466,"label":"Injipara","neighbour_count_selected_inside_training_fold":15,"observed":16.0,"outcome":"regeneration_tree_species_richness","outcome_label":"regenerating tree species richness","plot_id":"INME_03U","priority_rank":6,"selected_for_budget":true,"source_row":41},"type":"Feature"},{"geometry":{"coordinates":[76.98968,10.35028],"type":"Point"},"id":"IPTO_04U","properties":{"absolute_error":3.8442174918794034,"comparison_class":"Fragment","held_out_error":-3.8442174918794034,"held_out_group":"Iyerpadi Top","held_out_prediction":10.844217491879403,"label":"Iyerpadi Top","neighbour_count_selected_inside_training_fold":3,"observed":7.0,"outcome":"regeneration_tree_species_richness","outcome_label":"regenerating tree species richness","plot_id":"IPTO_04U","priority_rank":null,"selected_for_budget":false,"source_row":2},"type":"Feature"},{"geometry":{"coordinates":[76.98984,10.3502],"type":"Point"},"id":"IPTO_05U","properties":{"absolute_error":0.9627151333008559,"comparison_class":"Fragment","held_out_error":-0.9627151333008559,"held_out_group":"Iyerpadi Top","held_out_prediction":10.962715133300856,"label":"Iyerpadi Top","neighbour_count_selected_inside_training_fold":3,"observed":10.0,"outcome":"regeneration_tree_species_richness","outcome_label":"regenerating tree species richness","plot_id":"IPTO_05U","priority_rank":null,"selected_for_budget":false,"source_row":3},"type":"Feature"},{"geometry":{"coordinates":[76.99557,10.35952],"type":"Point"},"id":"IPCO_07U","properties":{"absolute_error":0.862105827193612,"comparison_class":"Fragment","held_out_error":-0.862105827193612,"held_out_group":"Iyerpadi Top","held_out_prediction":5.862105827193612,"label":"Iyerpadi Top","neighbour_count_selected_inside_training_fold":3,"observed":5.0,"outcome":"regeneration_tree_species_richness","outcome_label":"regenerating tree species richness","plot_id":"IPCO_07U","priority_rank":null,"selected_for_budget":false,"source_row":13},"type":"Feature"},{"geometry":{"coordinates":[76.99491,10.35956],"type":"Point"},"id":"IPCO_08U","properties":{"absolute_error":4.009328871491025,"comparison_class":"Fragment","held_out_error":4.009328871491025,"held_out_group":"Iyerpadi Top","held_out_prediction":3.990671128508975,"label":"Iyerpadi Top","neighbour_count_selected_inside_training_fold":3,"observed":8.0,"outcome":"regeneration_tree_species_richness","outcome_label":"regenerating tree species richness","plot_id":"IPCO_08U","priority_rank":null,"selected_for_budget":false,"source_row":14},"type":"Feature"},{"geometry":{"coordinates":[76.98991,10.34976],"type":"Point"},"id":"IPTO_06U","properties":{"absolute_error":0.6757218572564154,"comparison_class":"Fragment","held_out_error":0.6757218572564154,"held_out_group":"Iyerpadi Top","held_out_prediction":2.3242781427435846,"label":"Iyerpadi Top","neighbour_count_selected_inside_training_fold":3,"observed":3.0,"outcome":"regeneration_tree_species_richness","outcome_label":"regenerating tree species richness","plot_id":"IPTO_06U","priority_rank":null,"selected_for_budget":false,"source_row":15},"type":"Feature"},{"geometry":{"coordinates":[76.98985,10.34987],"type":"Point"},"id":"IPTO_07U","properties":{"absolute_error":4.2585979946465855,"comparison_class":"Fragment","held_out_error":-4.2585979946465855,"held_out_group":"Iyerpadi Top","held_out_prediction":7.2585979946465855,"label":"Iyerpadi Top","neighbour_count_selected_inside_training_fold":3,"observed":3.0,"outcome":"regeneration_tree_species_richness","outcome_label":"regenerating tree species richness","plot_id":"IPTO_07U","priority_rank":null,"selected_for_budget":false,"source_row":16},"type":"Feature"},{"geometry":{"coordinates":[76.99002,10.36707],"type":"Point"},"id":"HP40_05U","properties":{"absolute_error":5.002664713149026,"comparison_class":"Fragment","held_out_error":5.002664713149026,"held_out_group":"Iyerpadi-Akkamalai","held_out_prediction":6.997335286850974,"label":"Iyerpadi-Akkamalai","neighbour_count_selected_inside_training_fold":12,"observed":12.0,"outcome":"regeneration_tree_species_richness","outcome_label":"regenerating tree species richness","plot_id":"HP40_05U","priority_rank":null,"selected_for_budget":false,"source_row":6},"type":"Feature"},{"geometry":{"coordinates":[76.99062,10.36812],"type":"Point"},"id":"HP40_08U","properties":{"absolute_error":3.976008662108131,"comparison_class":"Fragment","held_out_error":3.976008662108131,"held_out_group":"Iyerpadi-Akkamalai","held_out_prediction":7.023991337891869,"label":"Iyerpadi-Akkamalai","neighbour_count_selected_inside_training_fold":12,"observed":11.0,"outcome":"regeneration_tree_species_richness","outcome_label":"regenerating tree species richness","plot_id":"HP40_08U","priority_rank":null,"selected_for_budget":false,"source_row":7},"type":"Feature"},{"geometry":{"coordinates":[76.99353,10.3727],"type":"Point"},"id":"HP37_P1B","properties":{"absolute_error":7.592827155023496,"comparison_class":"Benchmark","held_out_error":7.592827155023496,"held_out_group":"Iyerpadi-Akkamalai","held_out_prediction":15.407172844976504,"label":"Iyerpadi-Akkamalai","neighbour_count_selected_inside_training_fold":12,"observed":23.0,"outcome":"regeneration_tree_species_richness","outcome_label":"regenerating tree species richness","plot_id":"HP37_P1B","priority_rank":null,"selected_for_budget":false,"source_row":20},"type":"Feature"},{"geometry":{"coordinates":[76.99343,10.37457],"type":"Point"},"id":"HP37_P2B","properties":{"absolute_error":5.353527566268955,"comparison_class":"Benchmark","held_out_error":5.353527566268955,"held_out_group":"Iyerpadi-Akkamalai","held_out_prediction":17.646472433731045,"label":"Iyerpadi-Akkamalai","neighbour_count_selected_inside_training_fold":12,"observed":23.0,"outcome":"regeneration_tree_species_richness","outcome_label":"regenerating tree species richness","plot_id":"HP37_P2B","priority_rank":null,"selected_for_budget":false,"source_row":21},"type":"Feature"},{"geometry":{"coordinates":[76.99171,10.37526],"type":"Point"},"id":"HP37_P3B","properties":{"absolute_error":12.56684431129182,"comparison_class":"Benchmark","held_out_error":12.56684431129182,"held_out_group":"Iyerpadi-Akkamalai","held_out_prediction":16.43315568870818,"label":"Iyerpadi-Akkamalai","neighbour_count_selected_inside_training_fold":12,"observed":29.0,"outcome":"regeneration_tree_species_richness","outcome_label":"regenerating tree species richness","plot_id":"HP37_P3B","priority_rank":null,"selected_for_budget":false,"source_row":22},"type":"Feature"},{"geometry":{"coordinates":[76.99097,10.37456],"type":"Point"},"id":"HP37_P4B","properties":{"absolute_error":2.2315562817031793,"comparison_class":"Benchmark","held_out_error":2.2315562817031793,"held_out_group":"Iyerpadi-Akkamalai","held_out_prediction":15.76844371829682,"label":"Iyerpadi-Akkamalai","neighbour_count_selected_inside_training_fold":12,"observed":18.0,"outcome":"regeneration_tree_species_richness","outcome_label":"regenerating tree species richness","plot_id":"HP37_P4B","priority_rank":null,"selected_for_budget":false,"source_row":23},"type":"Feature"},{"geometry":{"coordinates":[76.99772,10.36442],"type":"Point"},"id":"HP36_P1B","properties":{"absolute_error":9.194250681736339,"comparison_class":"Benchmark","held_out_error":9.194250681736339,"held_out_group":"Iyerpadi-Akkamalai","held_out_prediction":15.805749318263661,"label":"Iyerpadi-Akkamalai","neighbour_count_selected_inside_training_fold":12,"observed":25.0,"outcome":"regeneration_tree_species_richness","outcome_label":"regenerating tree species richness","plot_id":"HP36_P1B","priority_rank":null,"selected_for_budget":false,"source_row":24},"type":"Feature"},{"geometry":{"coordinates":[76.99726,10.3638],"type":"Point"},"id":"HP36_P2B","properties":{"absolute_error":12.573499423954923,"comparison_class":"Benchmark","held_out_error":12.573499423954923,"held_out_group":"Iyerpadi-Akkamalai","held_out_prediction":11.426500576045077,"label":"Iyerpadi-Akkamalai","neighbour_count_selected_inside_training_fold":12,"observed":24.0,"outcome":"regeneration_tree_species_richness","outcome_label":"regenerating tree species richness","plot_id":"HP36_P2B","priority_rank":null,"selected_for_budget":false,"source_row":25},"type":"Feature"},{"geometry":{"coordinates":[76.99734,10.36657],"type":"Point"},"id":"HP36_P3B","properties":{"absolute_error":12.669076041837458,"comparison_class":"Benchmark","held_out_error":12.669076041837458,"held_out_group":"Iyerpadi-Akkamalai","held_out_prediction":15.330923958162542,"label":"Iyerpadi-Akkamalai","neighbour_count_selected_inside_training_fold":12,"observed":28.0,"outcome":"regeneration_tree_species_richness","outcome_label":"regenerating tree species richness","plot_id":"HP36_P3B","priority_rank":2,"selected_for_budget":true,"source_row":26},"type":"Feature"},{"geometry":{"coordinates":[76.99519,10.36889],"type":"Point"},"id":"HP36_P4B","properties":{"absolute_error":0.6748083449224254,"comparison_class":"Benchmark","held_out_error":0.6748083449224254,"held_out_group":"Iyerpadi-Akkamalai","held_out_prediction":16.325191655077575,"label":"Iyerpadi-Akkamalai","neighbour_count_selected_inside_training_fold":12,"observed":17.0,"outcome":"regeneration_tree_species_richness","outcome_label":"regenerating tree species richness","plot_id":"HP36_P4B","priority_rank":null,"selected_for_budget":false,"source_row":27},"type":"Feature"},{"geometry":{"coordinates":[76.89621,10.3477],"type":"Point"},"id":"UPMA_P1B","properties":{"absolute_error":3.895263154344965,"comparison_class":"Benchmark","held_out_error":3.895263154344965,"held_out_group":"Manamboli","held_out_prediction":14.104736845655035,"label":"Manamboli","neighbour_count_selected_inside_training_fold":5,"observed":18.0,"outcome":"regeneration_tree_species_richness","outcome_label":"regenerating tree species richness","plot_id":"UPMA_P1B","priority_rank":null,"selected_for_budget":false,"source_row":30},"type":"Feature"},{"geometry":{"coordinates":[76.89461,10.34762],"type":"Point"},"id":"UPMA_P2B","properties":{"absolute_error":0.007493803016551226,"comparison_class":"Benchmark","held_out_error":0.007493803016551226,"held_out_group":"Manamboli","held_out_prediction":24.99250619698345,"label":"Manamboli","neighbour_count_selected_inside_training_fold":5,"observed":25.0,"outcome":"regeneration_tree_species_richness","outcome_label":"regenerating tree species richness","plot_id":"UPMA_P2B","priority_rank":null,"selected_for_budget":false,"source_row":31},"type":"Feature"},{"geometry":{"coordinates":[76.89386,10.34778],"type":"Point"},"id":"UPMA_P3B","properties":{"absolute_error":11.093122782002887,"comparison_class":"Benchmark","held_out_error":-11.093122782002887,"held_out_group":"Manamboli","held_out_prediction":20.093122782002887,"label":"Manamboli","neighbour_count_selected_inside_training_fold":5,"observed":9.0,"outcome":"regeneration_tree_species_richness","outcome_label":"regenerating tree species richness","plot_id":"UPMA_P3B","priority_rank":3,"selected_for_budget":true,"source_row":32},"type":"Feature"},{"geometry":{"coordinates":[76.89232,10.34822],"type":"Point"},"id":"UPMA_P4B","properties":{"absolute_error":1.4915010556955615,"comparison_class":"Benchmark","held_out_error":1.4915010556955615,"held_out_group":"Manamboli","held_out_prediction":19.50849894430444,"label":"Manamboli","neighbour_count_selected_inside_training_fold":5,"observed":21.0,"outcome":"regeneration_tree_species_richness","outcome_label":"regenerating tree species richness","plot_id":"UPMA_P4B","priority_rank":null,"selected_for_budget":false,"source_row":33},"type":"Feature"},{"geometry":{"coordinates":[76.89059,10.3486],"type":"Point"},"id":"UPMA_P5B","properties":{"absolute_error":3.710852422842887,"comparison_class":"Benchmark","held_out_error":-3.710852422842887,"held_out_group":"Manamboli","held_out_prediction":19.710852422842887,"label":"Manamboli","neighbour_count_selected_inside_training_fold":5,"observed":16.0,"outcome":"regeneration_tree_species_richness","outcome_label":"regenerating tree species richness","plot_id":"UPMA_P5B","priority_rank":null,"selected_for_budget":false,"source_row":34},"type":"Feature"},{"geometry":{"coordinates":[76.89074,10.34717],"type":"Point"},"id":"UPMA_P6B","properties":{"absolute_error":8.550718135205798,"comparison_class":"Benchmark","held_out_error":-8.550718135205798,"held_out_group":"Manamboli","held_out_prediction":22.5507181352058,"label":"Manamboli","neighbour_count_selected_inside_training_fold":5,"observed":14.0,"outcome":"regeneration_tree_species_richness","outcome_label":"regenerating tree species richness","plot_id":"UPMA_P6B","priority_rank":null,"selected_for_budget":false,"source_row":46},"type":"Feature"},{"geometry":{"coordinates":[76.97489,10.37132],"type":"Point"},"id":"OLCA_P1B","properties":{"absolute_error":4.573553771835005,"comparison_class":"Benchmark","held_out_error":-4.573553771835005,"held_out_group":"Old Kavarkal","held_out_prediction":18.573553771835005,"label":"Old Kavarkal","neighbour_count_selected_inside_training_fold":5,"observed":14.0,"outcome":"regeneration_tree_species_richness","outcome_label":"regenerating tree species richness","plot_id":"OLCA_P1B","priority_rank":null,"selected_for_budget":false,"source_row":28},"type":"Feature"},{"geometry":{"coordinates":[76.97376,10.37068],"type":"Point"},"id":"OLCA_P2B","properties":{"absolute_error":9.213302411180951,"comparison_class":"Benchmark","held_out_error":-9.213302411180951,"held_out_group":"Old Kavarkal","held_out_prediction":18.21330241118095,"label":"Old Kavarkal","neighbour_count_selected_inside_training_fold":5,"observed":9.0,"outcome":"regeneration_tree_species_richness","outcome_label":"regenerating tree species richness","plot_id":"OLCA_P2B","priority_rank":5,"selected_for_budget":true,"source_row":29},"type":"Feature"},{"geometry":{"coordinates":[76.97517,10.37043],"type":"Point"},"id":"OLCA_P3B","properties":{"absolute_error":6.784545534905483,"comparison_class":"Benchmark","held_out_error":-6.784545534905483,"held_out_group":"Old Kavarkal","held_out_prediction":20.784545534905483,"label":"Old Kavarkal","neighbour_count_selected_inside_training_fold":5,"observed":14.0,"outcome":"regeneration_tree_species_richness","outcome_label":"regenerating tree species richness","plot_id":"OLCA_P3B","priority_rank":null,"selected_for_budget":false,"source_row":52},"type":"Feature"},{"geometry":{"coordinates":[76.97445,10.36989],"type":"Point"},"id":"OLCA_P4B","properties":{"absolute_error":3.091220482791769,"comparison_class":"Benchmark","held_out_error":-3.091220482791769,"held_out_group":"Old Kavarkal","held_out_prediction":16.09122048279177,"label":"Old Kavarkal","neighbour_count_selected_inside_training_fold":5,"observed":13.0,"outcome":"regeneration_tree_species_richness","outcome_label":"regenerating tree species richness","plot_id":"OLCA_P4B","priority_rank":null,"selected_for_budget":false,"source_row":53},"type":"Feature"},{"geometry":{"coordinates":[76.97558,10.36953],"type":"Point"},"id":"OLCA_P5B","properties":{"absolute_error":1.5617988309216209,"comparison_class":"Benchmark","held_out_error":1.5617988309216209,"held_out_group":"Old Kavarkal","held_out_prediction":17.43820116907838,"label":"Old Kavarkal","neighbour_count_selected_inside_training_fold":5,"observed":19.0,"outcome":"regeneration_tree_species_richness","outcome_label":"regenerating tree species richness","plot_id":"OLCA_P5B","priority_rank":null,"selected_for_budget":false,"source_row":54},"type":"Feature"},{"geometry":{"coordinates":[76.93798,10.3517],"type":"Point"},"id":"OLV2_08U","properties":{"absolute_error":1.605346271522711,"comparison_class":"Fragment","held_out_error":1.605346271522711,"held_out_group":"Old Valparai","held_out_prediction":8.394653728477289,"label":"Old Valparai","neighbour_count_selected_inside_training_fold":9,"observed":10.0,"outcome":"regeneration_tree_species_richness","outcome_label":"regenerating tree species richness","plot_id":"OLV2_08U","priority_rank":null,"selected_for_budget":false,"source_row":8},"type":"Feature"},{"geometry":{"coordinates":[76.9368,10.35079],"type":"Point"},"id":"OLV1_10U","properties":{"absolute_error":3.0862226326042776,"comparison_class":"Fragment","held_out_error":-3.0862226326042776,"held_out_group":"Old Valparai","held_out_prediction":5.086222632604278,"label":"Old Valparai","neighbour_count_selected_inside_training_fold":9,"observed":2.0,"outcome":"regeneration_tree_species_richness","outcome_label":"regenerating tree species richness","plot_id":"OLV1_10U","priority_rank":null,"selected_for_budget":false,"source_row":9},"type":"Feature"},{"geometry":{"coordinates":[76.8932,10.29779],"type":"Point"},"id":"PANM_P1B","properties":{"absolute_error":0.3698851471144149,"comparison_class":"Fragment","held_out_error":0.3698851471144149,"held_out_group":"Pannimade","held_out_prediction":13.630114852885585,"label":"Pannimade","neighbour_count_selected_inside_training_fold":7,"observed":14.0,"outcome":"regeneration_tree_species_richness","outcome_label":"regenerating tree species richness","plot_id":"PANM_P1B","priority_rank":null,"selected_for_budget":false,"source_row":42},"type":"Feature"},{"geometry":{"coordinates":[76.89266,10.29697],"type":"Point"},"id":"PANM_P2B","properties":{"absolute_error":3.665278456654839,"comparison_class":"Fragment","held_out_error":-3.665278456654839,"held_out_group":"Pannimade","held_out_prediction":14.665278456654839,"label":"Pannimade","neighbour_count_selected_inside_training_fold":7,"observed":11.0,"outcome":"regeneration_tree_species_richness","outcome_label":"regenerating tree species richness","plot_id":"PANM_P2B","priority_rank":null,"selected_for_budget":false,"source_row":43},"type":"Feature"},{"geometry":{"coordinates":[76.89201,10.29629],"type":"Point"},"id":"PANM_P3B","properties":{"absolute_error":3.7970729115524158,"comparison_class":"Fragment","held_out_error":-3.7970729115524158,"held_out_group":"Pannimade","held_out_prediction":13.797072911552416,"label":"Pannimade","neighbour_count_selected_inside_training_fold":7,"observed":10.0,"outcome":"regeneration_tree_species_richness","outcome_label":"regenerating tree species richness","plot_id":"PANM_P3B","priority_rank":null,"selected_for_budget":false,"source_row":44},"type":"Feature"},{"geometry":{"coordinates":[76.89453,10.29793],"type":"Point"},"id":"PANM_P4B","properties":{"absolute_error":3.2795083817616817,"comparison_class":"Fragment","held_out_error":3.2795083817616817,"held_out_group":"Pannimade","held_out_prediction":9.720491618238318,"label":"Pannimade","neighbour_count_selected_inside_training_fold":7,"observed":13.0,"outcome":"regeneration_tree_species_richness","outcome_label":"regenerating tree species richness","plot_id":"PANM_P4B","priority_rank":null,"selected_for_budget":false,"source_row":45},"type":"Feature"},{"geometry":{"coordinates":[76.96782,10.33952],"type":"Point"},"id":"PTTM_P1D","properties":{"absolute_error":1.448656778360844,"comparison_class":"Fragment","held_out_error":-1.448656778360844,"held_out_group":"Puthuthottam","held_out_prediction":10.448656778360844,"label":"Puthuthottam","neighbour_count_selected_inside_training_fold":12,"observed":9.0,"outcome":"regeneration_tree_species_richness","outcome_label":"regenerating tree species richness","plot_id":"PTTM_P1D","priority_rank":null,"selected_for_budget":false,"source_row":47},"type":"Feature"},{"geometry":{"coordinates":[76.96769,10.33872],"type":"Point"},"id":"PTTM_P2D","properties":{"absolute_error":1.014353846448575,"comparison_class":"Fragment","held_out_error":1.014353846448575,"held_out_group":"Puthuthottam","held_out_prediction":10.985646153551425,"label":"Puthuthottam","neighbour_count_selected_inside_training_fold":12,"observed":12.0,"outcome":"regeneration_tree_species_richness","outcome_label":"regenerating tree species richness","plot_id":"PTTM_P2D","priority_rank":null,"selected_for_budget":false,"source_row":48},"type":"Feature"},{"geometry":{"coordinates":[76.93429,10.33783],"type":"Point"},"id":"SEL1_07U","properties":{"absolute_error":0.7224226932983484,"comparison_class":"Fragment","held_out_error":0.7224226932983484,"held_out_group":"Selaliparai 1","held_out_prediction":4.277577306701652,"label":"Selaliparai 1","neighbour_count_selected_inside_training_fold":7,"observed":5.0,"outcome":"regeneration_tree_species_richness","outcome_label":"regenerating tree species richness","plot_id":"SEL1_07U","priority_rank":null,"selected_for_budget":false,"source_row":4},"type":"Feature"},{"geometry":{"coordinates":[76.93364,10.34395],"type":"Point"},"id":"SEL2_07U","properties":{"absolute_error":4.735936094467309,"comparison_class":"Fragment","held_out_error":-4.735936094467309,"held_out_group":"Selaliparai 2","held_out_prediction":5.735936094467309,"label":"Selaliparai 2","neighbour_count_selected_inside_training_fold":15,"observed":1.0,"outcome":"regeneration_tree_species_richness","outcome_label":"regenerating tree species richness","plot_id":"SEL2_07U","priority_rank":null,"selected_for_budget":false,"source_row":5},"type":"Feature"},{"geometry":{"coordinates":[76.95877,10.31167],"type":"Point"},"id":"SIRK_P1D","properties":{"absolute_error":3.6084327860174508,"comparison_class":"Fragment","held_out_error":-3.6084327860174508,"held_out_group":"Sirikundra","held_out_prediction":9.60843278601745,"label":"Sirikundra","neighbour_count_selected_inside_training_fold":3,"observed":6.0,"outcome":"regeneration_tree_species_richness","outcome_label":"regenerating tree species richness","plot_id":"SIRK_P1D","priority_rank":null,"selected_for_budget":false,"source_row":49},"type":"Feature"},{"geometry":{"coordinates":[76.95982,10.31081],"type":"Point"},"id":"SIRK_P2D","properties":{"absolute_error":3.18177099831275,"comparison_class":"Fragment","held_out_error":-3.18177099831275,"held_out_group":"Sirikundra","held_out_prediction":7.18177099831275,"label":"Sirikundra","neighbour_count_selected_inside_training_fold":3,"observed":4.0,"outcome":"regeneration_tree_species_richness","outcome_label":"regenerating tree species richness","plot_id":"SIRK_P2D","priority_rank":null,"selected_for_budget":false,"source_row":50},"type":"Feature"},{"geometry":{"coordinates":[76.95985,10.31213],"type":"Point"},"id":"SIRK_P3D","properties":{"absolute_error":2.7603867267399345,"comparison_class":"Fragment","held_out_error":2.7603867267399345,"held_out_group":"Sirikundra","held_out_prediction":7.2396132732600655,"label":"Sirikundra","neighbour_count_selected_inside_training_fold":3,"observed":10.0,"outcome":"regeneration_tree_species_richness","outcome_label":"regenerating tree species richness","plot_id":"SIRK_P3D","priority_rank":null,"selected_for_budget":false,"source_row":51},"type":"Feature"},{"geometry":{"coordinates":[76.93313,10.32936],"type":"Point"},"id":"STM2_04U","properties":{"absolute_error":2.39569559934316,"comparison_class":"Fragment","held_out_error":-2.39569559934316,"held_out_group":"Stanmore","held_out_prediction":4.39569559934316,"label":"Stanmore","neighbour_count_selected_inside_training_fold":7,"observed":2.0,"outcome":"regeneration_tree_species_richness","outcome_label":"regenerating tree species richness","plot_id":"STM2_04U","priority_rank":null,"selected_for_budget":false,"source_row":35},"type":"Feature"},{"geometry":{"coordinates":[76.93306,10.3301],"type":"Point"},"id":"STM1_02U","properties":{"absolute_error":7.350583604039388,"comparison_class":"Fragment","held_out_error":-7.350583604039388,"held_out_group":"Stanmore","held_out_prediction":8.350583604039388,"label":"Stanmore","neighbour_count_selected_inside_training_fold":7,"observed":1.0,"outcome":"regeneration_tree_species_richness","outcome_label":"regenerating tree species richness","plot_id":"STM1_02U","priority_rank":8,"selected_for_budget":true,"source_row":36},"type":"Feature"},{"geometry":{"coordinates":[76.93286,10.32914],"type":"Point"},"id":"STIN_02U","properties":{"absolute_error":1.3209712999917125,"comparison_class":"Fragment","held_out_error":-1.3209712999917125,"held_out_group":"Stanmore","held_out_prediction":4.3209712999917125,"label":"Stanmore","neighbour_count_selected_inside_training_fold":7,"observed":3.0,"outcome":"regeneration_tree_species_richness","outcome_label":"regenerating tree species richness","plot_id":"STIN_02U","priority_rank":null,"selected_for_budget":false,"source_row":37},"type":"Feature"},{"geometry":{"coordinates":[76.93575,10.34759],"type":"Point"},"id":"AGO_01U","properties":{"absolute_error":2.2962439456235177,"comparison_class":"Fragment","held_out_error":-2.2962439456235177,"held_out_group":"TATA AG Office","held_out_prediction":4.296243945623518,"label":"TATA AG Office","neighbour_count_selected_inside_training_fold":9,"observed":2.0,"outcome":"regeneration_tree_species_richness","outcome_label":"regenerating tree species richness","plot_id":"AGO_01U","priority_rank":null,"selected_for_budget":false,"source_row":131},"type":"Feature"},{"geometry":{"coordinates":[76.93464,10.34684],"type":"Point"},"id":"AGO_02U","properties":{"absolute_error":2.6877951571799406,"comparison_class":"Fragment","held_out_error":-2.6877951571799406,"held_out_group":"TATA AG Office","held_out_prediction":4.6877951571799406,"label":"TATA AG Office","neighbour_count_selected_inside_training_fold":9,"observed":2.0,"outcome":"regeneration_tree_species_richness","outcome_label":"regenerating tree species richness","plot_id":"AGO_02U","priority_rank":null,"selected_for_budget":false,"source_row":132},"type":"Feature"},{"geometry":{"coordinates":[76.93373,10.3453],"type":"Point"},"id":"AGO_03U","properties":{"absolute_error":8.792257502433353,"comparison_class":"Fragment","held_out_error":-8.792257502433353,"held_out_group":"TATA AG Office","held_out_prediction":10.792257502433353,"label":"TATA AG Office","neighbour_count_selected_inside_training_fold":9,"observed":2.0,"outcome":"regeneration_tree_species_richness","outcome_label":"regenerating tree species richness","plot_id":"AGO_03U","priority_rank":7,"selected_for_budget":true,"source_row":133},"type":"Feature"},{"geometry":{"coordinates":[76.93964,10.35466],"type":"Point"},"id":"THEN_10U","properties":{"absolute_error":4.005873755669596,"comparison_class":"Fragment","held_out_error":-4.005873755669596,"held_out_group":"Thenmalai","held_out_prediction":10.005873755669596,"label":"Thenmalai","neighbour_count_selected_inside_training_fold":5,"observed":6.0,"outcome":"regeneration_tree_species_richness","outcome_label":"regenerating tree species richness","plot_id":"THEN_10U","priority_rank":null,"selected_for_budget":false,"source_row":17},"type":"Feature"},{"geometry":{"coordinates":[76.9193,10.34875],"type":"Point"},"id":"VAR3_10U","properties":{"absolute_error":4.1810135689093535,"comparison_class":"Fragment","held_out_error":-4.1810135689093535,"held_out_group":"Varattuparai 3","held_out_prediction":9.181013568909353,"label":"Varattuparai 3","neighbour_count_selected_inside_training_fold":5,"observed":5.0,"outcome":"regeneration_tree_species_richness","outcome_label":"regenerating tree species richness","plot_id":"VAR3_10U","priority_rank":null,"selected_for_budget":false,"source_row":11},"type":"Feature"},{"geometry":{"coordinates":[76.92072,10.3467],"type":"Point"},"id":"VAR4_10U","properties":{"absolute_error":10.370264695327176,"comparison_class":"Fragment","held_out_error":-10.370264695327176,"held_out_group":"Varattuparai 4","held_out_prediction":15.370264695327176,"label":"Varattuparai 4","neighbour_count_selected_inside_training_fold":15,"observed":5.0,"outcome":"regeneration_tree_species_richness","outcome_label":"regenerating tree species richness","plot_id":"VAR4_10U","priority_rank":4,"selected_for_budget":true,"source_row":12},"type":"Feature"}],"type":"FeatureCollection"}