{"features":[{"geometry":{"coordinates":[7.701,46.60344],"type":"Point"},"id":"failed-gate-001","properties":{"coordinate_uncertainty_m":15,"count":4,"event_date":"2021-05-23","scope_role":"donor","source_id":"source-b","source_row":1},"type":"Feature"},{"geometry":{"coordinates":[7.70541,46.60286],"type":"Point"},"id":"failed-gate-002","properties":{"coordinate_uncertainty_m":30,"count":5,"event_date":"2023-05-12","scope_role":"donor","source_id":"source-a","source_row":2},"type":"Feature"},{"geometry":{"coordinates":[7.70802,46.60589],"type":"Point"},"id":"failed-gate-003","properties":{"coordinate_uncertainty_m":120,"count":1,"event_date":"2023-05-09","scope_role":"donor","source_id":"source-b","source_row":3},"type":"Feature"},{"geometry":{"coordinates":[7.71192,46.60366],"type":"Point"},"id":"failed-gate-004","properties":{"coordinate_uncertainty_m":120,"count":1,"event_date":"2021-07-23","scope_role":"donor","source_id":"source-a","source_row":4},"type":"Feature"},{"geometry":{"coordinates":[7.71484,46.60321],"type":"Point"},"id":"failed-gate-005","properties":{"coordinate_uncertainty_m":120,"count":3,"event_date":"2022-01-18","scope_role":"donor","source_id":"source-a","source_row":5},"type":"Feature"},{"geometry":{"coordinates":[7.7182,46.60393],"type":"Point"},"id":"failed-gate-006","properties":{"coordinate_uncertainty_m":75,"count":6,"event_date":"2023-11-13","scope_role":"donor","source_id":"source-a","source_row":6},"type":"Feature"},{"geometry":{"coordinates":[7.70127,46.61552],"type":"Point"},"id":"failed-gate-007","properties":{"coordinate_uncertainty_m":15,"count":5,"event_date":"2021-04-02","scope_role":"donor","source_id":"source-b","source_row":7},"type":"Feature"},{"geometry":{"coordinates":[7.70554,46.61502],"type":"Point"},"id":"failed-gate-008","properties":{"coordinate_uncertainty_m":120,"count":6,"event_date":"2021-10-11","scope_role":"donor","source_id":"source-b","source_row":8},"type":"Feature"},{"geometry":{"coordinates":[7.70848,46.61504],"type":"Point"},"id":"failed-gate-009","properties":{"coordinate_uncertainty_m":120,"count":2,"event_date":"2022-03-05","scope_role":"donor","source_id":"source-a","source_row":9},"type":"Feature"},{"geometry":{"coordinates":[7.7112,46.61306],"type":"Point"},"id":"failed-gate-010","properties":{"coordinate_uncertainty_m":30,"count":3,"event_date":"2023-12-08","scope_role":"donor","source_id":"source-b","source_row":10},"type":"Feature"},{"geometry":{"coordinates":[7.7156,46.6131],"type":"Point"},"id":"failed-gate-011","properties":{"coordinate_uncertainty_m":30,"count":1,"event_date":"2023-11-09","scope_role":"donor","source_id":"source-a","source_row":11},"type":"Feature"},{"geometry":{"coordinates":[7.71859,46.61517],"type":"Point"},"id":"failed-gate-012","properties":{"coordinate_uncertainty_m":30,"count":6,"event_date":"2023-10-11","scope_role":"donor","source_id":"source-a","source_row":12},"type":"Feature"},{"geometry":{"coordinates":[7.70229,46.62295],"type":"Point"},"id":"failed-gate-013","properties":{"coordinate_uncertainty_m":120,"count":3,"event_date":"2022-09-13","scope_role":"donor","source_id":"source-b","source_row":13},"type":"Feature"},{"geometry":{"coordinates":[7.70538,46.62327],"type":"Point"},"id":"failed-gate-014","properties":{"coordinate_uncertainty_m":75,"count":6,"event_date":"2022-08-28","scope_role":"donor","source_id":"source-a","source_row":14},"type":"Feature"},{"geometry":{"coordinates":[7.70897,46.62337],"type":"Point"},"id":"failed-gate-015","properties":{"coordinate_uncertainty_m":120,"count":1,"event_date":"2021-07-18","scope_role":"donor","source_id":"source-b","source_row":15},"type":"Feature"},{"geometry":{"coordinates":[7.71139,46.62326],"type":"Point"},"id":"failed-gate-016","properties":{"coordinate_uncertainty_m":50,"count":5,"event_date":"2022-01-20","scope_role":"donor","source_id":"source-a","source_row":16},"type":"Feature"},{"geometry":{"coordinates":[7.71561,46.62352],"type":"Point"},"id":"failed-gate-017","properties":{"coordinate_uncertainty_m":75,"count":6,"event_date":"2021-04-21","scope_role":"donor","source_id":"source-b","source_row":17},"type":"Feature"},{"geometry":{"coordinates":[7.71868,46.62252],"type":"Point"},"id":"failed-gate-018","properties":{"coordinate_uncertainty_m":50,"count":6,"event_date":"2023-12-20","scope_role":"donor","source_id":"source-b","source_row":18},"type":"Feature"}],"type":"FeatureCollection"}