{"features":[{"geometry":{"coordinates":[7.71261,46.62229],"type":"Point"},"id":"observed-points-001","properties":{"coordinate_uncertainty_m":120,"count":5,"event_date":"2021-02-18","scope_role":"target","source_id":"source-a","source_row":1},"type":"Feature"},{"geometry":{"coordinates":[7.70359,46.60564],"type":"Point"},"id":"observed-points-002","properties":{"coordinate_uncertainty_m":120,"count":2,"event_date":"2021-03-23","scope_role":"context","source_id":"source-a","source_row":2},"type":"Feature"},{"geometry":{"coordinates":[7.71878,46.60007],"type":"Point"},"id":"observed-points-003","properties":{"coordinate_uncertainty_m":75,"count":6,"event_date":"2022-02-26","scope_role":"context","source_id":"source-a","source_row":3},"type":"Feature"},{"geometry":{"coordinates":[7.71388,46.61674],"type":"Point"},"id":"observed-points-004","properties":{"coordinate_uncertainty_m":30,"count":1,"event_date":"2022-11-28","scope_role":"target","source_id":"source-a","source_row":4},"type":"Feature"},{"geometry":{"coordinates":[7.70051,46.62332],"type":"Point"},"id":"observed-points-005","properties":{"coordinate_uncertainty_m":30,"count":1,"event_date":"2022-11-12","scope_role":"context","source_id":"source-a","source_row":5},"type":"Feature"},{"geometry":{"coordinates":[7.70686,46.62349],"type":"Point"},"id":"observed-points-006","properties":{"coordinate_uncertainty_m":50,"count":2,"event_date":"2023-12-21","scope_role":"context","source_id":"source-a","source_row":6},"type":"Feature"},{"geometry":{"coordinates":[7.71174,46.60922],"type":"Point"},"id":"observed-points-007","properties":{"coordinate_uncertainty_m":50,"count":3,"event_date":"2023-02-25","scope_role":"target","source_id":"source-b","source_row":7},"type":"Feature"},{"geometry":{"coordinates":[7.7068,46.60776],"type":"Point"},"id":"observed-points-008","properties":{"coordinate_uncertainty_m":75,"count":1,"event_date":"2023-10-16","scope_role":"context","source_id":"source-b","source_row":8},"type":"Feature"},{"geometry":{"coordinates":[7.70754,46.60606],"type":"Point"},"id":"observed-points-009","properties":{"coordinate_uncertainty_m":15,"count":4,"event_date":"2021-09-14","scope_role":"target","source_id":"source-b","source_row":9},"type":"Feature"},{"geometry":{"coordinates":[7.70437,46.61012],"type":"Point"},"id":"observed-points-010","properties":{"coordinate_uncertainty_m":120,"count":1,"event_date":"2023-10-22","scope_role":"context","source_id":"source-b","source_row":10},"type":"Feature"},{"geometry":{"coordinates":[7.71806,46.6209],"type":"Point"},"id":"observed-points-011","properties":{"coordinate_uncertainty_m":250,"count":6,"event_date":"2023-07-08","scope_role":"context","source_id":"source-b","source_row":11},"type":"Feature"},{"geometry":{"coordinates":[7.70668,46.61386],"type":"Point"},"id":"observed-points-012","properties":{"coordinate_uncertainty_m":50,"count":3,"event_date":"2023-01-09","scope_role":"context","source_id":"source-b","source_row":12},"type":"Feature"},{"geometry":{"coordinates":[7.70751,46.61328],"type":"Point"},"id":"observed-points-013","properties":{"coordinate_uncertainty_m":250,"count":6,"event_date":"2021-11-24","scope_role":"target","source_id":"source-a","source_row":13},"type":"Feature"},{"geometry":{"coordinates":[7.71875,46.62571],"type":"Point"},"id":"observed-points-014","properties":{"coordinate_uncertainty_m":50,"count":3,"event_date":"2021-07-11","scope_role":"context","source_id":"source-a","source_row":14},"type":"Feature"},{"geometry":{"coordinates":[7.70215,46.6146],"type":"Point"},"id":"observed-points-015","properties":{"coordinate_uncertainty_m":120,"count":4,"event_date":"2023-07-23","scope_role":"context","source_id":"source-a","source_row":15},"type":"Feature"},{"geometry":{"coordinates":[7.70196,46.62728],"type":"Point"},"id":"observed-points-016","properties":{"coordinate_uncertainty_m":50,"count":2,"event_date":"2023-11-05","scope_role":"context","source_id":"source-a","source_row":16},"type":"Feature"},{"geometry":{"coordinates":[7.71683,46.62513],"type":"Point"},"id":"observed-points-017","properties":{"coordinate_uncertainty_m":50,"count":2,"event_date":"2021-05-03","scope_role":"context","source_id":"source-b","source_row":17},"type":"Feature"},{"geometry":{"coordinates":[7.70514,46.62189],"type":"Point"},"id":"observed-points-018","properties":{"coordinate_uncertainty_m":15,"count":4,"event_date":"2022-11-19","scope_role":"context","source_id":"source-b","source_row":18},"type":"Feature"},{"geometry":{"coordinates":[7.72094,46.60147],"type":"Point"},"id":"observed-points-019","properties":{"coordinate_uncertainty_m":120,"count":2,"event_date":"2023-03-02","scope_role":"context","source_id":"source-b","source_row":19},"type":"Feature"},{"geometry":{"coordinates":[7.71804,46.60428],"type":"Point"},"id":"observed-points-020","properties":{"coordinate_uncertainty_m":250,"count":2,"event_date":"2022-03-19","scope_role":"context","source_id":"source-a","source_row":20},"type":"Feature"},{"geometry":{"coordinates":[7.71731,46.61851],"type":"Point"},"id":"observed-points-021","properties":{"coordinate_uncertainty_m":50,"count":1,"event_date":"2021-12-22","scope_role":"context","source_id":"source-b","source_row":21},"type":"Feature"},{"geometry":{"coordinates":[7.72018,46.6225],"type":"Point"},"id":"observed-points-022","properties":{"coordinate_uncertainty_m":30,"count":4,"event_date":"2022-11-01","scope_role":"context","source_id":"source-b","source_row":22},"type":"Feature"},{"geometry":{"coordinates":[7.71793,46.60218],"type":"Point"},"id":"observed-points-023","properties":{"coordinate_uncertainty_m":75,"count":3,"event_date":"2022-07-15","scope_role":"context","source_id":"source-a","source_row":23},"type":"Feature"},{"geometry":{"coordinates":[7.7128,46.62444],"type":"Point"},"id":"observed-points-024","properties":{"coordinate_uncertainty_m":75,"count":3,"event_date":"2021-12-23","scope_role":"target","source_id":"source-b","source_row":24},"type":"Feature"},{"geometry":{"coordinates":[7.70646,46.60752],"type":"Point"},"id":"observed-points-025","properties":{"coordinate_uncertainty_m":250,"count":6,"event_date":"2023-12-07","scope_role":"context","source_id":"source-a","source_row":25},"type":"Feature"},{"geometry":{"coordinates":[7.70203,46.61177],"type":"Point"},"id":"observed-points-026","properties":{"coordinate_uncertainty_m":120,"count":6,"event_date":"2022-01-05","scope_role":"context","source_id":"source-b","source_row":26},"type":"Feature"},{"geometry":{"coordinates":[7.71335,46.61416],"type":"Point"},"id":"observed-points-027","properties":{"coordinate_uncertainty_m":75,"count":2,"event_date":"2023-02-04","scope_role":"target","source_id":"source-a","source_row":27},"type":"Feature"},{"geometry":{"coordinates":[7.70841,46.60399],"type":"Point"},"id":"observed-points-028","properties":{"coordinate_uncertainty_m":120,"count":5,"event_date":"2023-07-05","scope_role":"target","source_id":"source-a","source_row":28},"type":"Feature"},{"geometry":{"coordinates":[7.71302,46.61567],"type":"Point"},"id":"observed-points-029","properties":{"coordinate_uncertainty_m":50,"count":5,"event_date":"2021-12-05","scope_role":"target","source_id":"source-a","source_row":29},"type":"Feature"},{"geometry":{"coordinates":[7.71708,46.61901],"type":"Point"},"id":"observed-points-030","properties":{"coordinate_uncertainty_m":250,"count":5,"event_date":"2022-02-03","scope_role":"context","source_id":"source-a","source_row":30},"type":"Feature"},{"geometry":{"coordinates":[7.71722,46.62711],"type":"Point"},"id":"observed-points-031","properties":{"coordinate_uncertainty_m":30,"count":2,"event_date":"2023-09-25","scope_role":"context","source_id":"source-b","source_row":31},"type":"Feature"},{"geometry":{"coordinates":[7.70849,46.60661],"type":"Point"},"id":"observed-points-032","properties":{"coordinate_uncertainty_m":30,"count":4,"event_date":"2022-01-16","scope_role":"target","source_id":"source-b","source_row":32},"type":"Feature"}],"type":"FeatureCollection"}