{"features":[{"geometry":{"coordinates":[7.70199,46.60297],"type":"Point"},"id":"modelled-passing-gates-001","properties":{"coordinate_uncertainty_m":120,"count":1,"event_date":"2021-07-20","scope_role":"donor","source_id":"source-b","source_row":1},"type":"Feature"},{"geometry":{"coordinates":[7.70527,46.60377],"type":"Point"},"id":"modelled-passing-gates-002","properties":{"coordinate_uncertainty_m":50,"count":3,"event_date":"2021-12-24","scope_role":"donor","source_id":"source-b","source_row":2},"type":"Feature"},{"geometry":{"coordinates":[7.7077,46.60396],"type":"Point"},"id":"modelled-passing-gates-003","properties":{"coordinate_uncertainty_m":30,"count":2,"event_date":"2021-07-25","scope_role":"donor","source_id":"source-b","source_row":3},"type":"Feature"},{"geometry":{"coordinates":[7.71154,46.6034],"type":"Point"},"id":"modelled-passing-gates-004","properties":{"coordinate_uncertainty_m":15,"count":6,"event_date":"2022-06-23","scope_role":"donor","source_id":"source-a","source_row":4},"type":"Feature"},{"geometry":{"coordinates":[7.71499,46.60391],"type":"Point"},"id":"modelled-passing-gates-005","properties":{"coordinate_uncertainty_m":50,"count":4,"event_date":"2021-07-13","scope_role":"donor","source_id":"source-b","source_row":5},"type":"Feature"},{"geometry":{"coordinates":[7.71868,46.60245],"type":"Point"},"id":"modelled-passing-gates-006","properties":{"coordinate_uncertainty_m":250,"count":1,"event_date":"2023-12-01","scope_role":"donor","source_id":"source-a","source_row":6},"type":"Feature"},{"geometry":{"coordinates":[7.7019,46.61032],"type":"Point"},"id":"modelled-passing-gates-007","properties":{"coordinate_uncertainty_m":50,"count":6,"event_date":"2022-01-18","scope_role":"donor","source_id":"source-b","source_row":7},"type":"Feature"},{"geometry":{"coordinates":[7.70497,46.61163],"type":"Point"},"id":"modelled-passing-gates-008","properties":{"coordinate_uncertainty_m":50,"count":4,"event_date":"2022-02-23","scope_role":"donor","source_id":"source-b","source_row":8},"type":"Feature"},{"geometry":{"coordinates":[7.7084,46.60932],"type":"Point"},"id":"modelled-passing-gates-009","properties":{"coordinate_uncertainty_m":50,"count":6,"event_date":"2022-04-27","scope_role":"donor","source_id":"source-b","source_row":9},"type":"Feature"},{"geometry":{"coordinates":[7.71102,46.61064],"type":"Point"},"id":"modelled-passing-gates-010","properties":{"coordinate_uncertainty_m":15,"count":3,"event_date":"2021-04-20","scope_role":"donor","source_id":"source-a","source_row":10},"type":"Feature"},{"geometry":{"coordinates":[7.71448,46.6116],"type":"Point"},"id":"modelled-passing-gates-011","properties":{"coordinate_uncertainty_m":15,"count":2,"event_date":"2022-04-12","scope_role":"donor","source_id":"source-b","source_row":11},"type":"Feature"},{"geometry":{"coordinates":[7.71767,46.60997],"type":"Point"},"id":"modelled-passing-gates-012","properties":{"coordinate_uncertainty_m":75,"count":3,"event_date":"2021-08-11","scope_role":"donor","source_id":"source-b","source_row":12},"type":"Feature"},{"geometry":{"coordinates":[7.70155,46.6185],"type":"Point"},"id":"modelled-passing-gates-013","properties":{"coordinate_uncertainty_m":120,"count":6,"event_date":"2021-12-20","scope_role":"donor","source_id":"source-b","source_row":13},"type":"Feature"},{"geometry":{"coordinates":[7.70531,46.61765],"type":"Point"},"id":"modelled-passing-gates-014","properties":{"coordinate_uncertainty_m":30,"count":3,"event_date":"2021-05-22","scope_role":"donor","source_id":"source-b","source_row":14},"type":"Feature"},{"geometry":{"coordinates":[7.70885,46.61845],"type":"Point"},"id":"modelled-passing-gates-015","properties":{"coordinate_uncertainty_m":50,"count":1,"event_date":"2021-04-14","scope_role":"donor","source_id":"source-a","source_row":15},"type":"Feature"},{"geometry":{"coordinates":[7.71181,46.61666],"type":"Point"},"id":"modelled-passing-gates-016","properties":{"coordinate_uncertainty_m":75,"count":6,"event_date":"2021-05-17","scope_role":"donor","source_id":"source-b","source_row":16},"type":"Feature"},{"geometry":{"coordinates":[7.71463,46.61748],"type":"Point"},"id":"modelled-passing-gates-017","properties":{"coordinate_uncertainty_m":30,"count":5,"event_date":"2022-02-11","scope_role":"donor","source_id":"source-b","source_row":17},"type":"Feature"},{"geometry":{"coordinates":[7.71834,46.61806],"type":"Point"},"id":"modelled-passing-gates-018","properties":{"coordinate_uncertainty_m":75,"count":2,"event_date":"2022-05-13","scope_role":"donor","source_id":"source-a","source_row":18},"type":"Feature"},{"geometry":{"coordinates":[7.70201,46.62408],"type":"Point"},"id":"modelled-passing-gates-019","properties":{"coordinate_uncertainty_m":50,"count":2,"event_date":"2021-07-25","scope_role":"donor","source_id":"source-b","source_row":19},"type":"Feature"},{"geometry":{"coordinates":[7.70549,46.62368],"type":"Point"},"id":"modelled-passing-gates-020","properties":{"coordinate_uncertainty_m":75,"count":1,"event_date":"2023-01-15","scope_role":"donor","source_id":"source-a","source_row":20},"type":"Feature"},{"geometry":{"coordinates":[7.70895,46.62496],"type":"Point"},"id":"modelled-passing-gates-021","properties":{"coordinate_uncertainty_m":15,"count":4,"event_date":"2021-01-24","scope_role":"donor","source_id":"source-b","source_row":21},"type":"Feature"},{"geometry":{"coordinates":[7.71202,46.62539],"type":"Point"},"id":"modelled-passing-gates-022","properties":{"coordinate_uncertainty_m":15,"count":4,"event_date":"2022-07-01","scope_role":"donor","source_id":"source-a","source_row":22},"type":"Feature"},{"geometry":{"coordinates":[7.71451,46.6247],"type":"Point"},"id":"modelled-passing-gates-023","properties":{"coordinate_uncertainty_m":75,"count":6,"event_date":"2022-03-02","scope_role":"donor","source_id":"source-a","source_row":23},"type":"Feature"},{"geometry":{"coordinates":[7.71783,46.62413],"type":"Point"},"id":"modelled-passing-gates-024","properties":{"coordinate_uncertainty_m":75,"count":1,"event_date":"2022-02-01","scope_role":"donor","source_id":"source-a","source_row":24},"type":"Feature"}],"type":"FeatureCollection"}