{"features":[{"geometry":{"coordinates":[[[7.7,46.6],[7.707,46.6],[7.707,46.607],[7.7,46.607],[7.7,46.6]]],"type":"Polygon"},"id":"cell-r0-c0","properties":{"records":2,"scope_role":"context"},"type":"Feature"},{"geometry":{"coordinates":[[[7.707,46.6],[7.714,46.6],[7.714,46.607],[7.707,46.607],[7.707,46.6]]],"type":"Polygon"},"id":"cell-r0-c1","properties":{"records":5,"scope_role":"target"},"type":"Feature"},{"geometry":{"coordinates":[[[7.714,46.6],[7.721,46.6],[7.721,46.607],[7.714,46.607],[7.714,46.6]]],"type":"Polygon"},"id":"cell-r0-c2","properties":{"records":3,"scope_role":"context"},"type":"Feature"},{"geometry":{"coordinates":[[[7.7,46.607],[7.707,46.607],[7.707,46.614],[7.7,46.614],[7.7,46.607]]],"type":"Polygon"},"id":"cell-r1-c0","properties":{"records":7,"scope_role":"context"},"type":"Feature"},{"geometry":{"coordinates":[[[7.707,46.607],[7.714,46.607],[7.714,46.614],[7.707,46.614],[7.707,46.607]]],"type":"Polygon"},"id":"cell-r1-c1","properties":{"records":13,"scope_role":"target"},"type":"Feature"},{"geometry":{"coordinates":[[[7.714,46.607],[7.721,46.607],[7.721,46.614],[7.714,46.614],[7.714,46.607]]],"type":"Polygon"},"id":"cell-r1-c2","properties":{"records":8,"scope_role":"context"},"type":"Feature"},{"geometry":{"coordinates":[[[7.7,46.614],[7.707,46.614],[7.707,46.621],[7.7,46.621],[7.7,46.614]]],"type":"Polygon"},"id":"cell-r2-c0","properties":{"records":10,"scope_role":"context"},"type":"Feature"},{"geometry":{"coordinates":[[[7.707,46.614],[7.714,46.614],[7.714,46.621],[7.707,46.621],[7.707,46.614]]],"type":"Polygon"},"id":"cell-r2-c1","properties":{"records":19,"scope_role":"target"},"type":"Feature"},{"geometry":{"coordinates":[[[7.714,46.614],[7.721,46.614],[7.721,46.621],[7.714,46.621],[7.714,46.614]]],"type":"Polygon"},"id":"cell-r2-c2","properties":{"records":12,"scope_role":"context"},"type":"Feature"},{"geometry":{"coordinates":[[[7.7,46.621],[7.707,46.621],[7.707,46.628],[7.7,46.628],[7.7,46.621]]],"type":"Polygon"},"id":"cell-r3-c0","properties":{"records":3,"scope_role":"context"},"type":"Feature"},{"geometry":{"coordinates":[[[7.707,46.621],[7.714,46.621],[7.714,46.628],[7.707,46.628],[7.707,46.621]]],"type":"Polygon"},"id":"cell-r3-c1","properties":{"records":7,"scope_role":"target"},"type":"Feature"},{"geometry":{"coordinates":[[[7.714,46.621],[7.721,46.621],[7.721,46.628],[7.714,46.628],[7.714,46.621]]],"type":"Polygon"},"id":"cell-r3-c2","properties":{"records":4,"scope_role":"context"},"type":"Feature"}],"type":"FeatureCollection"}