{"features":[{"geometry":{"coordinates":[[[7.72,46.6],[7.727,46.6],[7.727,46.607],[7.72,46.607],[7.72,46.6]]],"type":"Polygon"},"id":"cell-r0-c0","properties":{"estimate":0.55,"scope_role":"target","uncertainty":0.24,"unit":"index_value"},"type":"Feature"},{"geometry":{"coordinates":[[[7.727,46.6],[7.734,46.6],[7.734,46.607],[7.727,46.607],[7.727,46.6]]],"type":"Polygon"},"id":"cell-r0-c1","properties":{"estimate":0.62,"scope_role":"target","uncertainty":0.18,"unit":"index_value"},"type":"Feature"},{"geometry":{"coordinates":[[[7.734,46.6],[7.741,46.6],[7.741,46.607],[7.734,46.607],[7.734,46.6]]],"type":"Polygon"},"id":"cell-r0-c2","properties":{"estimate":0.58,"scope_role":"target","uncertainty":0.22,"unit":"index_value"},"type":"Feature"},{"geometry":{"coordinates":[[[7.72,46.607],[7.727,46.607],[7.727,46.614],[7.72,46.614],[7.72,46.607]]],"type":"Polygon"},"id":"cell-r1-c0","properties":{"estimate":0.66,"scope_role":"target","uncertainty":0.16,"unit":"index_value"},"type":"Feature"},{"geometry":{"coordinates":[[[7.727,46.607],[7.734,46.607],[7.734,46.614],[7.727,46.614],[7.727,46.607]]],"type":"Polygon"},"id":"cell-r1-c1","properties":{"estimate":0.74,"scope_role":"target","uncertainty":0.12,"unit":"index_value"},"type":"Feature"},{"geometry":{"coordinates":[[[7.734,46.607],[7.741,46.607],[7.741,46.614],[7.734,46.614],[7.734,46.607]]],"type":"Polygon"},"id":"cell-r1-c2","properties":{"estimate":0.69,"scope_role":"target","uncertainty":0.15,"unit":"index_value"},"type":"Feature"},{"geometry":{"coordinates":[[[7.72,46.614],[7.727,46.614],[7.727,46.621],[7.72,46.621],[7.72,46.614]]],"type":"Polygon"},"id":"cell-r2-c0","properties":{"estimate":0.71,"scope_role":"target","uncertainty":0.13,"unit":"index_value"},"type":"Feature"},{"geometry":{"coordinates":[[[7.727,46.614],[7.734,46.614],[7.734,46.621],[7.727,46.621],[7.727,46.614]]],"type":"Polygon"},"id":"cell-r2-c1","properties":{"estimate":0.81,"scope_role":"target","uncertainty":0.09,"unit":"index_value"},"type":"Feature"},{"geometry":{"coordinates":[[[7.734,46.614],[7.741,46.614],[7.741,46.621],[7.734,46.621],[7.734,46.614]]],"type":"Polygon"},"id":"cell-r2-c2","properties":{"estimate":0.76,"scope_role":"target","uncertainty":0.11,"unit":"index_value"},"type":"Feature"},{"geometry":{"coordinates":[[[7.72,46.621],[7.727,46.621],[7.727,46.628],[7.72,46.628],[7.72,46.621]]],"type":"Polygon"},"id":"cell-r3-c0","properties":{"estimate":0.52,"scope_role":"target","uncertainty":0.26,"unit":"index_value"},"type":"Feature"},{"geometry":{"coordinates":[[[7.727,46.621],[7.734,46.621],[7.734,46.628],[7.727,46.628],[7.727,46.621]]],"type":"Polygon"},"id":"cell-r3-c1","properties":{"estimate":0.58,"scope_role":"target","uncertainty":0.21,"unit":"index_value"},"type":"Feature"},{"geometry":{"coordinates":[[[7.734,46.621],[7.741,46.621],[7.741,46.628],[7.734,46.628],[7.734,46.621]]],"type":"Polygon"},"id":"cell-r3-c2","properties":{"estimate":0.55,"scope_role":"target","uncertainty":0.25,"unit":"index_value"},"type":"Feature"}],"type":"FeatureCollection"}