{"features":[{"geometry":{"coordinates":[7.7184,46.60308],"type":"Point"},"id":"partial-source-outage-001","properties":{"coordinate_uncertainty_m":50,"count":5,"event_date":"2023-11-26","freshness":"current","scope_role":"context","source_id":"source-a","source_row":1},"type":"Feature"},{"geometry":{"coordinates":[7.70151,46.62129],"type":"Point"},"id":"partial-source-outage-002","properties":{"coordinate_uncertainty_m":30,"count":6,"event_date":"2022-11-25","freshness":"stale","scope_role":"context","source_id":"source-c","source_row":2},"type":"Feature"},{"geometry":{"coordinates":[7.71094,46.60537],"type":"Point"},"id":"partial-source-outage-003","properties":{"coordinate_uncertainty_m":120,"count":2,"event_date":"2021-06-07","freshness":"stale","scope_role":"target","source_id":"source-c","source_row":3},"type":"Feature"},{"geometry":{"coordinates":[7.70932,46.60321],"type":"Point"},"id":"partial-source-outage-004","properties":{"coordinate_uncertainty_m":75,"count":4,"event_date":"2023-02-09","freshness":"current","scope_role":"target","source_id":"source-a","source_row":4},"type":"Feature"},{"geometry":{"coordinates":[7.71214,46.60929],"type":"Point"},"id":"partial-source-outage-005","properties":{"coordinate_uncertainty_m":15,"count":4,"event_date":"2021-10-12","freshness":"current","scope_role":"target","source_id":"source-a","source_row":5},"type":"Feature"},{"geometry":{"coordinates":[7.71331,46.6092],"type":"Point"},"id":"partial-source-outage-006","properties":{"coordinate_uncertainty_m":50,"count":3,"event_date":"2021-05-06","freshness":"current","scope_role":"target","source_id":"source-a","source_row":6},"type":"Feature"},{"geometry":{"coordinates":[7.704,46.62743],"type":"Point"},"id":"partial-source-outage-007","properties":{"coordinate_uncertainty_m":30,"count":3,"event_date":"2023-08-23","freshness":"current","scope_role":"context","source_id":"source-b","source_row":7},"type":"Feature"},{"geometry":{"coordinates":[7.71104,46.6163],"type":"Point"},"id":"partial-source-outage-008","properties":{"coordinate_uncertainty_m":120,"count":4,"event_date":"2022-05-15","freshness":"current","scope_role":"target","source_id":"source-a","source_row":8},"type":"Feature"},{"geometry":{"coordinates":[7.70512,46.62229],"type":"Point"},"id":"partial-source-outage-009","properties":{"coordinate_uncertainty_m":120,"count":4,"event_date":"2023-03-11","freshness":"current","scope_role":"context","source_id":"source-b","source_row":9},"type":"Feature"},{"geometry":{"coordinates":[7.71905,46.62576],"type":"Point"},"id":"partial-source-outage-010","properties":{"coordinate_uncertainty_m":250,"count":3,"event_date":"2021-01-01","freshness":"stale","scope_role":"context","source_id":"source-c","source_row":10},"type":"Feature"},{"geometry":{"coordinates":[7.71864,46.60557],"type":"Point"},"id":"partial-source-outage-011","properties":{"coordinate_uncertainty_m":75,"count":1,"event_date":"2021-12-22","freshness":"current","scope_role":"context","source_id":"source-b","source_row":11},"type":"Feature"},{"geometry":{"coordinates":[7.72065,46.62423],"type":"Point"},"id":"partial-source-outage-012","properties":{"coordinate_uncertainty_m":15,"count":4,"event_date":"2022-12-12","freshness":"current","scope_role":"context","source_id":"source-b","source_row":12},"type":"Feature"},{"geometry":{"coordinates":[7.7162,46.60321],"type":"Point"},"id":"partial-source-outage-013","properties":{"coordinate_uncertainty_m":15,"count":2,"event_date":"2022-11-06","freshness":"current","scope_role":"context","source_id":"source-a","source_row":13},"type":"Feature"},{"geometry":{"coordinates":[7.71099,46.61715],"type":"Point"},"id":"partial-source-outage-014","properties":{"coordinate_uncertainty_m":15,"count":2,"event_date":"2023-06-28","freshness":"stale","scope_role":"target","source_id":"source-c","source_row":14},"type":"Feature"},{"geometry":{"coordinates":[7.71978,46.62583],"type":"Point"},"id":"partial-source-outage-015","properties":{"coordinate_uncertainty_m":250,"count":5,"event_date":"2023-03-01","freshness":"current","scope_role":"context","source_id":"source-b","source_row":15},"type":"Feature"},{"geometry":{"coordinates":[7.71935,46.61897],"type":"Point"},"id":"partial-source-outage-016","properties":{"coordinate_uncertainty_m":75,"count":4,"event_date":"2022-07-02","freshness":"current","scope_role":"context","source_id":"source-b","source_row":16},"type":"Feature"},{"geometry":{"coordinates":[7.7151,46.61962],"type":"Point"},"id":"partial-source-outage-017","properties":{"coordinate_uncertainty_m":15,"count":4,"event_date":"2022-08-11","freshness":"current","scope_role":"context","source_id":"source-b","source_row":17},"type":"Feature"},{"geometry":{"coordinates":[7.7004,46.6217],"type":"Point"},"id":"partial-source-outage-018","properties":{"coordinate_uncertainty_m":75,"count":6,"event_date":"2023-01-12","freshness":"current","scope_role":"context","source_id":"source-a","source_row":18},"type":"Feature"},{"geometry":{"coordinates":[7.70418,46.60694],"type":"Point"},"id":"partial-source-outage-019","properties":{"coordinate_uncertainty_m":15,"count":4,"event_date":"2022-03-07","freshness":"current","scope_role":"context","source_id":"source-b","source_row":19},"type":"Feature"},{"geometry":{"coordinates":[7.71401,46.6105],"type":"Point"},"id":"partial-source-outage-020","properties":{"coordinate_uncertainty_m":120,"count":6,"event_date":"2022-04-15","freshness":"current","scope_role":"context","source_id":"source-b","source_row":20},"type":"Feature"},{"geometry":{"coordinates":[7.70899,46.60286],"type":"Point"},"id":"partial-source-outage-021","properties":{"coordinate_uncertainty_m":250,"count":2,"event_date":"2023-08-14","freshness":"current","scope_role":"target","source_id":"source-a","source_row":21},"type":"Feature"},{"geometry":{"coordinates":[7.70432,46.60937],"type":"Point"},"id":"partial-source-outage-022","properties":{"coordinate_uncertainty_m":120,"count":5,"event_date":"2022-07-06","freshness":"stale","scope_role":"context","source_id":"source-c","source_row":22},"type":"Feature"},{"geometry":{"coordinates":[7.71719,46.61159],"type":"Point"},"id":"partial-source-outage-023","properties":{"coordinate_uncertainty_m":75,"count":5,"event_date":"2023-09-27","freshness":"stale","scope_role":"context","source_id":"source-c","source_row":23},"type":"Feature"},{"geometry":{"coordinates":[7.70944,46.60568],"type":"Point"},"id":"partial-source-outage-024","properties":{"coordinate_uncertainty_m":250,"count":6,"event_date":"2021-11-01","freshness":"stale","scope_role":"target","source_id":"source-c","source_row":24},"type":"Feature"}],"type":"FeatureCollection"}