{"features":[{"geometry":{"coordinates":[[7.70105,46.60105],[7.70595,46.60595]],"type":"LineString"},"id":"transect-r0-c0","properties":{"effort":4.5,"scope_role":"context","unit":"person_hours"},"type":"Feature"},{"geometry":{"coordinates":[[7.70805,46.60105],[7.71295,46.60595]],"type":"LineString"},"id":"transect-r0-c1","properties":{"effort":6.0,"scope_role":"target","unit":"person_hours"},"type":"Feature"},{"geometry":{"coordinates":[[7.70805,46.60805],[7.71295,46.61295]],"type":"LineString"},"id":"transect-r1-c1","properties":{"effort":9.5,"scope_role":"target","unit":"person_hours"},"type":"Feature"},{"geometry":{"coordinates":[[7.71505,46.60805],[7.71995,46.61295]],"type":"LineString"},"id":"transect-r1-c2","properties":{"effort":3.0,"scope_role":"context","unit":"person_hours"},"type":"Feature"},{"geometry":{"coordinates":[[7.70105,46.61505],[7.70595,46.61995]],"type":"LineString"},"id":"transect-r2-c0","properties":{"effort":5.5,"scope_role":"context","unit":"person_hours"},"type":"Feature"},{"geometry":{"coordinates":[[7.70805,46.61505],[7.71295,46.61995]],"type":"LineString"},"id":"transect-r2-c1","properties":{"effort":8.0,"scope_role":"target","unit":"person_hours"},"type":"Feature"},{"geometry":{"coordinates":[[7.70805,46.62205],[7.71295,46.62695]],"type":"LineString"},"id":"transect-r3-c1","properties":{"effort":2.5,"scope_role":"target","unit":"person_hours"},"type":"Feature"}],"type":"FeatureCollection"}