{"features":[{"geometry":{"coordinates":[[[7.72,46.6],[7.727,46.6],[7.727,46.607],[7.72,46.607],[7.72,46.6]]],"type":"Polygon"},"id":"cell-r0-c0","properties":{"reason":"boundary-extrapolation","scope_role":"target","status":"unsupported"},"type":"Feature"},{"geometry":{"coordinates":[[[7.727,46.6],[7.734,46.6],[7.734,46.607],[7.727,46.607],[7.727,46.6]]],"type":"Polygon"},"id":"cell-r0-c1","properties":{"reason":"insufficient-environmental-support","scope_role":"target","status":"unsupported"},"type":"Feature"},{"geometry":{"coordinates":[[[7.734,46.6],[7.741,46.6],[7.741,46.607],[7.734,46.607],[7.734,46.6]]],"type":"Polygon"},"id":"cell-r0-c2","properties":{"reason":"boundary-extrapolation","scope_role":"target","status":"unsupported"},"type":"Feature"},{"geometry":{"coordinates":[[[7.72,46.607],[7.727,46.607],[7.727,46.614],[7.72,46.614],[7.72,46.607]]],"type":"Polygon"},"id":"cell-r1-c0","properties":{"reason":"boundary-extrapolation","scope_role":"target","status":"unsupported"},"type":"Feature"},{"geometry":{"coordinates":[[[7.727,46.607],[7.734,46.607],[7.734,46.614],[7.727,46.614],[7.727,46.607]]],"type":"Polygon"},"id":"cell-r1-c1","properties":{"reason":"insufficient-environmental-support","scope_role":"target","status":"unsupported"},"type":"Feature"},{"geometry":{"coordinates":[[[7.734,46.607],[7.741,46.607],[7.741,46.614],[7.734,46.614],[7.734,46.607]]],"type":"Polygon"},"id":"cell-r1-c2","properties":{"reason":"boundary-extrapolation","scope_role":"target","status":"unsupported"},"type":"Feature"},{"geometry":{"coordinates":[[[7.72,46.614],[7.727,46.614],[7.727,46.621],[7.72,46.621],[7.72,46.614]]],"type":"Polygon"},"id":"cell-r2-c0","properties":{"reason":"boundary-extrapolation","scope_role":"target","status":"unsupported"},"type":"Feature"},{"geometry":{"coordinates":[[[7.727,46.614],[7.734,46.614],[7.734,46.621],[7.727,46.621],[7.727,46.614]]],"type":"Polygon"},"id":"cell-r2-c1","properties":{"reason":"insufficient-environmental-support","scope_role":"target","status":"unsupported"},"type":"Feature"},{"geometry":{"coordinates":[[[7.734,46.614],[7.741,46.614],[7.741,46.621],[7.734,46.621],[7.734,46.614]]],"type":"Polygon"},"id":"cell-r2-c2","properties":{"reason":"boundary-extrapolation","scope_role":"target","status":"unsupported"},"type":"Feature"},{"geometry":{"coordinates":[[[7.72,46.621],[7.727,46.621],[7.727,46.628],[7.72,46.628],[7.72,46.621]]],"type":"Polygon"},"id":"cell-r3-c0","properties":{"reason":"boundary-extrapolation","scope_role":"target","status":"unsupported"},"type":"Feature"},{"geometry":{"coordinates":[[[7.727,46.621],[7.734,46.621],[7.734,46.628],[7.727,46.628],[7.727,46.621]]],"type":"Polygon"},"id":"cell-r3-c1","properties":{"reason":"insufficient-environmental-support","scope_role":"target","status":"unsupported"},"type":"Feature"},{"geometry":{"coordinates":[[[7.734,46.621],[7.741,46.621],[7.741,46.628],[7.734,46.628],[7.734,46.621]]],"type":"Polygon"},"id":"cell-r3-c2","properties":{"reason":"boundary-extrapolation","scope_role":"target","status":"unsupported"},"type":"Feature"}],"type":"FeatureCollection"}