{"features":[{"geometry":{"coordinates":[[[7.7,46.6],[7.707,46.6],[7.707,46.607],[7.7,46.607],[7.7,46.6]]],"type":"Polygon"},"id":"cell-r0-c0","properties":{"entities":1,"records":2,"role":"context"},"type":"Feature"},{"geometry":{"coordinates":[[[7.707,46.6],[7.714,46.6],[7.714,46.607],[7.707,46.607],[7.707,46.6]]],"type":"Polygon"},"id":"cell-r0-c1","properties":{"entities":2,"records":5,"role":"target"},"type":"Feature"},{"geometry":{"coordinates":[[[7.714,46.6],[7.721,46.6],[7.721,46.607],[7.714,46.607],[7.714,46.6]]],"type":"Polygon"},"id":"cell-r0-c2","properties":{"entities":2,"records":3,"role":"context"},"type":"Feature"},{"geometry":{"coordinates":[[[7.7,46.607],[7.707,46.607],[7.707,46.614],[7.7,46.614],[7.7,46.607]]],"type":"Polygon"},"id":"cell-r1-c0","properties":{"entities":3,"records":7,"role":"context"},"type":"Feature"},{"geometry":{"coordinates":[[[7.707,46.607],[7.714,46.607],[7.714,46.614],[7.707,46.614],[7.707,46.607]]],"type":"Polygon"},"id":"cell-r1-c1","properties":{"entities":4,"records":13,"role":"target"},"type":"Feature"},{"geometry":{"coordinates":[[[7.714,46.607],[7.721,46.607],[7.721,46.614],[7.714,46.614],[7.714,46.607]]],"type":"Polygon"},"id":"cell-r1-c2","properties":{"entities":3,"records":8,"role":"context"},"type":"Feature"},{"geometry":{"coordinates":[[[7.7,46.614],[7.707,46.614],[7.707,46.621],[7.7,46.621],[7.7,46.614]]],"type":"Polygon"},"id":"cell-r2-c0","properties":{"entities":4,"records":10,"role":"context"},"type":"Feature"},{"geometry":{"coordinates":[[[7.707,46.614],[7.714,46.614],[7.714,46.621],[7.707,46.621],[7.707,46.614]]],"type":"Polygon"},"id":"cell-r2-c1","properties":{"entities":6,"records":19,"role":"target"},"type":"Feature"},{"geometry":{"coordinates":[[[7.714,46.614],[7.721,46.614],[7.721,46.621],[7.714,46.621],[7.714,46.614]]],"type":"Polygon"},"id":"cell-r2-c2","properties":{"entities":4,"records":12,"role":"context"},"type":"Feature"},{"geometry":{"coordinates":[[[7.7,46.621],[7.707,46.621],[7.707,46.628],[7.7,46.628],[7.7,46.621]]],"type":"Polygon"},"id":"cell-r3-c0","properties":{"entities":1,"records":3,"role":"context"},"type":"Feature"},{"geometry":{"coordinates":[[[7.707,46.621],[7.714,46.621],[7.714,46.628],[7.707,46.628],[7.707,46.621]]],"type":"Polygon"},"id":"cell-r3-c1","properties":{"entities":3,"records":7,"role":"target"},"type":"Feature"},{"geometry":{"coordinates":[[[7.714,46.621],[7.721,46.621],[7.721,46.628],[7.714,46.628],[7.714,46.621]]],"type":"Polygon"},"id":"cell-r3-c2","properties":{"entities":2,"records":4,"role":"context"},"type":"Feature"}],"type":"FeatureCollection"}