{"features":[{"geometry":{"coordinates":[7.7035,46.6035],"type":"Point"},"id":"candidate-01","properties":{"accessible":true,"expected_information_gain":0.41,"label":"Candidate site 1","rank":1},"type":"Feature"},{"geometry":{"coordinates":[7.7035,46.6245],"type":"Point"},"id":"candidate-02","properties":{"accessible":true,"expected_information_gain":0.37,"label":"Candidate site 2","rank":2},"type":"Feature"},{"geometry":{"coordinates":[7.7175,46.6035],"type":"Point"},"id":"candidate-03","properties":{"accessible":true,"expected_information_gain":0.33,"label":"Candidate site 3","rank":3},"type":"Feature"},{"geometry":{"coordinates":[7.7175,46.6245],"type":"Point"},"id":"candidate-04","properties":{"accessible":true,"expected_information_gain":0.29,"label":"Candidate site 4","rank":4},"type":"Feature"},{"geometry":{"coordinates":[7.7105,46.6035],"type":"Point"},"id":"candidate-05","properties":{"accessible":true,"expected_information_gain":0.24,"label":"Candidate site 5","rank":5},"type":"Feature"},{"geometry":{"coordinates":[7.7105,46.6245],"type":"Point"},"id":"candidate-06","properties":{"accessible":true,"expected_information_gain":0.19,"label":"Candidate site 6","rank":6},"type":"Feature"},{"geometry":{"coordinates":[7.7035,46.6105],"type":"Point"},"id":"candidate-07","properties":{"accessible":false,"expected_information_gain":0.14,"label":"Candidate site 7","rank":7},"type":"Feature"},{"geometry":{"coordinates":[7.7175,46.6105],"type":"Point"},"id":"candidate-08","properties":{"accessible":false,"expected_information_gain":0.08,"label":"Candidate site 8","rank":8},"type":"Feature"}],"type":"FeatureCollection"}