{"features":[{"geometry":{"coordinates":[[[7.7,46.6],[7.707,46.6],[7.707,46.607],[7.7,46.607],[7.7,46.6]]],"type":"Polygon"},"id":"cell-r0-c0","properties":{"scope_role":"context","uncertainty":0.72},"type":"Feature"},{"geometry":{"coordinates":[[[7.707,46.6],[7.714,46.6],[7.714,46.607],[7.707,46.607],[7.707,46.6]]],"type":"Polygon"},"id":"cell-r0-c1","properties":{"scope_role":"target","uncertainty":0.55},"type":"Feature"},{"geometry":{"coordinates":[[[7.714,46.6],[7.721,46.6],[7.721,46.607],[7.714,46.607],[7.714,46.6]]],"type":"Polygon"},"id":"cell-r0-c2","properties":{"scope_role":"context","uncertainty":0.68},"type":"Feature"},{"geometry":{"coordinates":[[[7.7,46.607],[7.707,46.607],[7.707,46.614],[7.7,46.614],[7.7,46.607]]],"type":"Polygon"},"id":"cell-r1-c0","properties":{"scope_role":"context","uncertainty":0.48},"type":"Feature"},{"geometry":{"coordinates":[[[7.707,46.607],[7.714,46.607],[7.714,46.614],[7.707,46.614],[7.707,46.607]]],"type":"Polygon"},"id":"cell-r1-c1","properties":{"scope_role":"target","uncertainty":0.22},"type":"Feature"},{"geometry":{"coordinates":[[[7.714,46.607],[7.721,46.607],[7.721,46.614],[7.714,46.614],[7.714,46.607]]],"type":"Polygon"},"id":"cell-r1-c2","properties":{"scope_role":"context","uncertainty":0.44},"type":"Feature"},{"geometry":{"coordinates":[[[7.7,46.614],[7.707,46.614],[7.707,46.621],[7.7,46.621],[7.7,46.614]]],"type":"Polygon"},"id":"cell-r2-c0","properties":{"scope_role":"context","uncertainty":0.36},"type":"Feature"},{"geometry":{"coordinates":[[[7.707,46.614],[7.714,46.614],[7.714,46.621],[7.707,46.621],[7.707,46.614]]],"type":"Polygon"},"id":"cell-r2-c1","properties":{"scope_role":"target","uncertainty":0.15},"type":"Feature"},{"geometry":{"coordinates":[[[7.714,46.614],[7.721,46.614],[7.721,46.621],[7.714,46.621],[7.714,46.614]]],"type":"Polygon"},"id":"cell-r2-c2","properties":{"scope_role":"context","uncertainty":0.33},"type":"Feature"},{"geometry":{"coordinates":[[[7.7,46.621],[7.707,46.621],[7.707,46.628],[7.7,46.628],[7.7,46.621]]],"type":"Polygon"},"id":"cell-r3-c0","properties":{"scope_role":"context","uncertainty":0.7},"type":"Feature"},{"geometry":{"coordinates":[[[7.707,46.621],[7.714,46.621],[7.714,46.628],[7.707,46.628],[7.707,46.621]]],"type":"Polygon"},"id":"cell-r3-c1","properties":{"scope_role":"target","uncertainty":0.51},"type":"Feature"},{"geometry":{"coordinates":[[[7.714,46.621],[7.721,46.621],[7.721,46.628],[7.714,46.628],[7.714,46.621]]],"type":"Polygon"},"id":"cell-r3-c2","properties":{"scope_role":"context","uncertainty":0.66},"type":"Feature"}],"type":"FeatureCollection"}