{"features":[{"geometry":{"coordinates":[7.69716,46.60968],"type":"Point"},"id":"empty-target-surrounding-001","properties":{"coordinate_uncertainty_m":75,"count":3,"event_date":"2023-04-24","scope_role":"context","source_id":"source-a","source_row":1},"type":"Feature"},{"geometry":{"coordinates":[7.69334,46.60952],"type":"Point"},"id":"empty-target-surrounding-002","properties":{"coordinate_uncertainty_m":50,"count":5,"event_date":"2022-10-24","scope_role":"context","source_id":"source-b","source_row":2},"type":"Feature"},{"geometry":{"coordinates":[7.69246,46.61568],"type":"Point"},"id":"empty-target-surrounding-003","properties":{"coordinate_uncertainty_m":15,"count":1,"event_date":"2021-11-21","scope_role":"context","source_id":"source-a","source_row":3},"type":"Feature"},{"geometry":{"coordinates":[7.69717,46.61287],"type":"Point"},"id":"empty-target-surrounding-004","properties":{"coordinate_uncertainty_m":250,"count":5,"event_date":"2023-08-13","scope_role":"context","source_id":"source-b","source_row":4},"type":"Feature"},{"geometry":{"coordinates":[7.69303,46.60925],"type":"Point"},"id":"empty-target-surrounding-005","properties":{"coordinate_uncertainty_m":30,"count":6,"event_date":"2023-01-22","scope_role":"context","source_id":"source-b","source_row":5},"type":"Feature"},{"geometry":{"coordinates":[7.69268,46.60961],"type":"Point"},"id":"empty-target-surrounding-006","properties":{"coordinate_uncertainty_m":250,"count":4,"event_date":"2022-11-05","scope_role":"context","source_id":"source-b","source_row":6},"type":"Feature"},{"geometry":{"coordinates":[7.69726,46.61039],"type":"Point"},"id":"empty-target-surrounding-007","properties":{"coordinate_uncertainty_m":15,"count":3,"event_date":"2021-12-09","scope_role":"context","source_id":"source-b","source_row":7},"type":"Feature"},{"geometry":{"coordinates":[7.69457,46.59774],"type":"Point"},"id":"empty-target-surrounding-008","properties":{"coordinate_uncertainty_m":120,"count":4,"event_date":"2022-11-10","scope_role":"context","source_id":"source-b","source_row":8},"type":"Feature"},{"geometry":{"coordinates":[7.69664,46.60438],"type":"Point"},"id":"empty-target-surrounding-009","properties":{"coordinate_uncertainty_m":50,"count":6,"event_date":"2022-12-11","scope_role":"context","source_id":"source-b","source_row":9},"type":"Feature"},{"geometry":{"coordinates":[7.71244,46.61875],"type":"Point"},"id":"empty-target-surrounding-010","properties":{"coordinate_uncertainty_m":30,"count":5,"event_date":"2022-05-22","scope_role":"context","source_id":"source-a","source_row":10},"type":"Feature"},{"geometry":{"coordinates":[7.70462,46.61939],"type":"Point"},"id":"empty-target-surrounding-011","properties":{"coordinate_uncertainty_m":250,"count":1,"event_date":"2021-02-27","scope_role":"context","source_id":"source-a","source_row":11},"type":"Feature"},{"geometry":{"coordinates":[7.71607,46.61876],"type":"Point"},"id":"empty-target-surrounding-012","properties":{"coordinate_uncertainty_m":120,"count":1,"event_date":"2021-07-02","scope_role":"context","source_id":"source-b","source_row":12},"type":"Feature"},{"geometry":{"coordinates":[7.70382,46.6197],"type":"Point"},"id":"empty-target-surrounding-013","properties":{"coordinate_uncertainty_m":75,"count":2,"event_date":"2022-05-02","scope_role":"context","source_id":"source-b","source_row":13},"type":"Feature"},{"geometry":{"coordinates":[7.71136,46.62022],"type":"Point"},"id":"empty-target-surrounding-014","properties":{"coordinate_uncertainty_m":15,"count":5,"event_date":"2023-12-22","scope_role":"context","source_id":"source-a","source_row":14},"type":"Feature"},{"geometry":{"coordinates":[7.70174,46.62331],"type":"Point"},"id":"empty-target-surrounding-015","properties":{"coordinate_uncertainty_m":75,"count":6,"event_date":"2023-02-07","scope_role":"context","source_id":"source-b","source_row":15},"type":"Feature"},{"geometry":{"coordinates":[7.71918,46.61927],"type":"Point"},"id":"empty-target-surrounding-016","properties":{"coordinate_uncertainty_m":250,"count":3,"event_date":"2021-07-23","scope_role":"context","source_id":"source-b","source_row":16},"type":"Feature"},{"geometry":{"coordinates":[7.70272,46.61885],"type":"Point"},"id":"empty-target-surrounding-017","properties":{"coordinate_uncertainty_m":75,"count":2,"event_date":"2023-07-25","scope_role":"context","source_id":"source-b","source_row":17},"type":"Feature"},{"geometry":{"coordinates":[7.7154,46.62186],"type":"Point"},"id":"empty-target-surrounding-018","properties":{"coordinate_uncertainty_m":250,"count":3,"event_date":"2023-06-26","scope_role":"context","source_id":"source-b","source_row":18},"type":"Feature"},{"geometry":{"coordinates":[7.70323,46.59627],"type":"Point"},"id":"empty-target-surrounding-019","properties":{"coordinate_uncertainty_m":250,"count":4,"event_date":"2023-10-05","scope_role":"context","source_id":"source-b","source_row":19},"type":"Feature"},{"geometry":{"coordinates":[7.71803,46.59287],"type":"Point"},"id":"empty-target-surrounding-020","properties":{"coordinate_uncertainty_m":75,"count":6,"event_date":"2023-04-04","scope_role":"context","source_id":"source-a","source_row":20},"type":"Feature"},{"geometry":{"coordinates":[7.71986,46.59265],"type":"Point"},"id":"empty-target-surrounding-021","properties":{"coordinate_uncertainty_m":30,"count":3,"event_date":"2021-01-25","scope_role":"context","source_id":"source-a","source_row":21},"type":"Feature"},{"geometry":{"coordinates":[7.71173,46.59359],"type":"Point"},"id":"empty-target-surrounding-022","properties":{"coordinate_uncertainty_m":75,"count":3,"event_date":"2021-07-11","scope_role":"context","source_id":"source-a","source_row":22},"type":"Feature"},{"geometry":{"coordinates":[7.703,46.59289],"type":"Point"},"id":"empty-target-surrounding-023","properties":{"coordinate_uncertainty_m":75,"count":3,"event_date":"2021-04-12","scope_role":"context","source_id":"source-a","source_row":23},"type":"Feature"},{"geometry":{"coordinates":[7.71708,46.59739],"type":"Point"},"id":"empty-target-surrounding-024","properties":{"coordinate_uncertainty_m":75,"count":5,"event_date":"2022-12-21","scope_role":"context","source_id":"source-a","source_row":24},"type":"Feature"},{"geometry":{"coordinates":[7.69918,46.59381],"type":"Point"},"id":"empty-target-surrounding-025","properties":{"coordinate_uncertainty_m":50,"count":2,"event_date":"2022-07-26","scope_role":"context","source_id":"source-a","source_row":25},"type":"Feature"},{"geometry":{"coordinates":[7.70074,46.59207],"type":"Point"},"id":"empty-target-surrounding-026","properties":{"coordinate_uncertainty_m":120,"count":6,"event_date":"2022-10-10","scope_role":"context","source_id":"source-b","source_row":26},"type":"Feature"},{"geometry":{"coordinates":[7.70586,46.59217],"type":"Point"},"id":"empty-target-surrounding-027","properties":{"coordinate_uncertainty_m":250,"count":2,"event_date":"2021-10-10","scope_role":"context","source_id":"source-a","source_row":27},"type":"Feature"}],"type":"FeatureCollection"}